{"type":"FeatureCollection","features":[{"type":"Feature","properties":{"name":"경기초등학교","kind":"zone","note":"최근접 학교 기준 추정 (공식 학구도 반영 전)"},"geometry":{"type":"Polygon","coordinates":[[[126.96067,37.56017],[126.96682,37.56691],[126.95746,37.56704],[126.95973,37.56046],[126.96049,37.56014],[126.96067,37.56017]]]}},{"type":"Feature","properties":{"name":"명지초등학교","kind":"zone","note":"최근접 학교 기준 추정 (공식 학구도 반영 전)"},"geometry":{"type":"Polygon","coordinates":[[[126.93494,37.58946],[126.92567,37.58678],[126.92392,37.57966],[126.92481,37.57813],[126.9353,37.58887],[126.93494,37.58946]]]}},{"type":"Feature","properties":{"name":"상명대학교사범대학부속초등학교","kind":"zone","note":"최근접 학교 기준 추정 (공식 학구도 반영 전)"},"geometry":{"type":"Polygon","coordinates":[[[126.94871,37.605],[126.95608,37.605],[126.96558,37.59477],[126.95879,37.59105],[126.94871,37.605]]]}},{"type":"Feature","properties":{"name":"서울가재울초등학교","kind":"zone","note":"최근접 학교 기준 추정 (공식 학구도 반영 전)"},"geometry":{"type":"Polygon","coordinates":[[[126.9234,37.56532],[126.9118,37.572],[126.91163,37.57265],[126.91342,37.57615],[126.925,37.57749],[126.92787,37.57481],[126.9234,37.56532]]]}},{"type":"Feature","properties":{"name":"서울고은초등학교","kind":"zone","note":"최근접 학교 기준 추정 (공식 학구도 반영 전)"},"geometry":{"type":"Polygon","coordinates":[[[126.93961,37.57681],[126.93564,37.5885],[126.95324,37.58671],[126.94143,37.57609],[126.93961,37.57681]]]}},{"type":"Feature","properties":{"name":"서울공덕초등학교","kind":"zone","note":"최근접 학교 기준 추정 (공식 학구도 반영 전)"},"geometry":{"type":"Polygon","coordinates":[[[126.95492,37.5508],[126.9501,37.54882],[126.94906,37.54668],[126.95146,37.54263],[126.95558,37.54085],[126.9597,37.54464],[126.95856,37.54885],[126.95492,37.5508]]]}},{"type":"Feature","properties":{"name":"서울구현초등학교","kind":"zone","note":"최근접 학교 기준 추정 (공식 학구도 반영 전)"},"geometry":{"type":"Polygon","coordinates":[[[126.90874,37.605],[126.90654,37.60359],[126.88241,37.60498],[126.88237,37.605],[126.90874,37.605]]]}},{"type":"Feature","properties":{"name":"서울금양초등학교","kind":"zone","note":"최근접 학교 기준 추정 (공식 학구도 반영 전)"},"geometry":{"type":"Polygon","coordinates":[[[126.9649,37.54374],[126.9597,37.54464],[126.95558,37.54085],[126.95599,37.53951],[126.95821,37.53647],[126.96662,37.53949],[126.9649,37.54374]]]}},{"type":"Feature","properties":{"name":"서울금화초등학교","kind":"zone","note":"최근접 학교 기준 추정 (공식 학구도 반영 전)"},"geometry":{"type":"Polygon","coordinates":[[[126.96869,37.57212],[126.96583,37.57291],[126.9552,37.56931],[126.95746,37.56704],[126.96682,37.56691],[126.96885,37.56761],[126.96869,37.57212]]]}},{"type":"Feature","properties":{"name":"서울남정초등학교","kind":"zone","note":"최근접 학교 기준 추정 (공식 학구도 반영 전)"},"geometry":{"type":"Polygon","coordinates":[[[126.96861,37.53052],[126.95785,37.53032],[126.95821,37.53647],[126.96662,37.53949],[126.96871,37.53864],[126.96861,37.53052]]]}},{"type":"Feature","properties":{"name":"서울녹번초등학교","kind":"zone","note":"최근접 학교 기준 추정 (공식 학구도 반영 전)"},"geometry":{"type":"Polygon","coordinates":[[[126.93056,37.605],[126.92732,37.59749],[126.92729,37.59749],[126.92009,37.60246],[126.91907,37.605],[126.93056,37.605]]]}},{"type":"Feature","properties":{"name":"서울당산초등학교","kind":"zone","note":"최근접 학교 기준 추정 (공식 학구도 반영 전)"},"geometry":{"type":"Polygon","coordinates":[[[126.86,37.54702],[126.86,37.55329],[126.86806,37.55513],[126.87614,37.55393],[126.90023,37.54901],[126.91291,37.54026],[126.89692,37.53576],[126.86,37.54702]]]}},{"type":"Feature","properties":{"name":"서울당서초등학교","kind":"zone","note":"최근접 학교 기준 추정 (공식 학구도 반영 전)"},"geometry":{"type":"Polygon","coordinates":[[[126.89548,37.52816],[126.89687,37.52655],[126.90259,37.52835],[126.91394,37.53972],[126.91367,37.54001],[126.91291,37.54026],[126.89692,37.53576],[126.89548,37.52816]]]}},{"type":"Feature","properties":{"name":"서울당중초등학교","kind":"zone","note":"최근접 학교 기준 추정 (공식 학구도 반영 전)"},"geometry":{"type":"Polygon","coordinates":[[[126.86,37.5397],[126.86,37.52816],[126.89114,37.52258],[126.8964,37.52454],[126.89687,37.52655],[126.89548,37.52816],[126.86,37.5397]]]}},{"type":"Feature","properties":{"name":"서울대신초등학교","kind":"zone","note":"최근접 학교 기준 추정 (공식 학구도 반영 전)"},"geometry":{"type":"Polygon","coordinates":[[[126.95157,37.55647],[126.94462,37.5547],[126.94323,37.55725],[126.94772,37.56197],[126.95157,37.55647]]]}},{"type":"Feature","properties":{"name":"서울덕수초등학교","kind":"zone","note":"최근접 학교 기준 추정 (공식 학구도 반영 전)"},"geometry":{"type":"Polygon","coordinates":[[[126.975,37.56161],[126.96885,37.56761],[126.96869,37.57212],[126.975,37.5759],[126.975,37.56161]]]}},{"type":"Feature","properties":{"name":"서울독립문초등학교","kind":"zone","note":"최근접 학교 기준 추정 (공식 학구도 반영 전)"},"geometry":{"type":"Polygon","coordinates":[[[126.9505,37.57098],[126.95979,37.58022],[126.96583,37.57291],[126.9552,37.56931],[126.9505,37.57098]]]}},{"type":"Feature","properties":{"name":"서울동교초등학교","kind":"zone","note":"최근접 학교 기준 추정 (공식 학구도 반영 전)"},"geometry":{"type":"Polygon","coordinates":[[[126.87614,37.55393],[126.90023,37.54901],[126.90759,37.55725],[126.90594,37.56067],[126.87614,37.55393]]]}},{"type":"Feature","properties":{"name":"서울마포초등학교","kind":"zone","note":"최근접 학교 기준 추정 (공식 학구도 반영 전)"},"geometry":{"type":"Polygon","coordinates":[[[126.93892,37.53506],[126.938,37.53385],[126.9397,37.53293],[126.95599,37.53951],[126.95558,37.54085],[126.95146,37.54263],[126.93892,37.53506]]]}},{"type":"Feature","properties":{"name":"서울망원초등학교","kind":"zone","note":"최근접 학교 기준 추정 (공식 학구도 반영 전)"},"geometry":{"type":"Polygon","coordinates":[[[126.86806,37.55513],[126.87805,37.56161],[126.89413,37.56776],[126.90595,37.56277],[126.90594,37.56067],[126.87614,37.55393],[126.86806,37.55513]]]}},{"type":"Feature","properties":{"name":"서울매동초등학교","kind":"zone","note":"최근접 학교 기준 추정 (공식 학구도 반영 전)"},"geometry":{"type":"Polygon","coordinates":[[[126.975,37.58028],[126.96032,37.5832],[126.95979,37.58022],[126.96583,37.57291],[126.96869,37.57212],[126.975,37.5759],[126.975,37.58028]]]}},{"type":"Feature","properties":{"name":"서울문래초등학교","kind":"zone","note":"최근접 학교 기준 추정 (공식 학구도 반영 전)"},"geometry":{"type":"Polygon","coordinates":[[[126.8964,37.52454],[126.89993,37.52],[126.89069,37.52],[126.89114,37.52258],[126.8964,37.52454]]]}},{"type":"Feature","properties":{"name":"서울미동초등학교","kind":"zone","note":"최근접 학교 기준 추정 (공식 학구도 반영 전)"},"geometry":{"type":"Polygon","coordinates":[[[126.975,37.55933],[126.96067,37.56017],[126.96682,37.56691],[126.96885,37.56761],[126.975,37.56161],[126.975,37.55933]]]}},{"type":"Feature","properties":{"name":"서울봉래초등학교","kind":"zone","note":"최근접 학교 기준 추정 (공식 학구도 반영 전)"},"geometry":{"type":"Polygon","coordinates":[[[126.97376,37.55445],[126.975,37.55704],[126.975,37.55933],[126.96067,37.56017],[126.96049,37.56014],[126.96091,37.55625],[126.96669,37.55159],[126.96987,37.5512],[126.97376,37.55445]]]}},{"type":"Feature","properties":{"name":"서울북가좌초등학교","kind":"zone","note":"최근접 학교 기준 추정 (공식 학구도 반영 전)"},"geometry":{"type":"Polygon","coordinates":[[[126.91163,37.57265],[126.89989,37.57648],[126.89982,37.5773],[126.91115,37.58203],[126.91342,37.57615],[126.91163,37.57265]]]}},{"type":"Feature","properties":{"name":"서울북성초등학교","kind":"zone","note":"최근접 학교 기준 추정 (공식 학구도 반영 전)"},"geometry":{"type":"Polygon","coordinates":[[[126.95157,37.55647],[126.94772,37.56197],[126.94808,37.56335],[126.95687,37.55984],[126.95241,37.55629],[126.95157,37.55647]]]}},{"type":"Feature","properties":{"name":"서울삼광초등학교","kind":"zone","note":"최근접 학교 기준 추정 (공식 학구도 반영 전)"},"geometry":{"type":"Polygon","coordinates":[[[126.975,37.55332],[126.97376,37.55445],[126.96987,37.5512],[126.97004,37.54813],[126.975,37.54347],[126.975,37.55332]]]}},{"type":"Feature","properties":{"name":"서울상신초등학교","kind":"zone","note":"최근접 학교 기준 추정 (공식 학구도 반영 전)"},"geometry":{"type":"Polygon","coordinates":[[[126.90654,37.60359],[126.88241,37.60498],[126.88914,37.5963],[126.89819,37.5923],[126.90906,37.59595],[126.91065,37.59754],[126.90654,37.60359]]]}},{"type":"Feature","properties":{"name":"서울상암초등학교","kind":"zone","note":"최근접 학교 기준 추정 (공식 학구도 반영 전)"},"geometry":{"type":"Polygon","coordinates":[[[126.87805,37.56161],[126.88925,37.58212],[126.89801,37.57957],[126.89982,37.5773],[126.89989,37.57648],[126.89559,37.56905],[126.89413,37.56776],[126.87805,37.56161]]]}},{"type":"Feature","properties":{"name":"서울상지초등학교","kind":"zone","note":"최근접 학교 기준 추정 (공식 학구도 반영 전)"},"geometry":{"type":"Polygon","coordinates":[[[126.86,37.58003],[126.88831,37.58366],[126.88925,37.58212],[126.87805,37.56161],[126.86806,37.55513],[126.86,37.55329],[126.86,37.58003]]]}},{"type":"Feature","properties":{"name":"서울서강초등학교","kind":"zone","note":"최근접 학교 기준 추정 (공식 학구도 반영 전)"},"geometry":{"type":"Polygon","coordinates":[[[126.92347,37.53404],[126.91394,37.53972],[126.91367,37.54001],[126.91832,37.54932],[126.93094,37.55294],[126.93268,37.55227],[126.93464,37.55009],[126.92605,37.5342],[126.92478,37.5339],[126.92347,37.53404]]]}},{"type":"Feature","properties":{"name":"서울서교초등학교","kind":"zone","note":"최근접 학교 기준 추정 (공식 학구도 반영 전)"},"geometry":{"type":"Polygon","coordinates":[[[126.92356,37.56447],[126.92321,37.56423],[126.91734,37.55527],[126.91832,37.54932],[126.93094,37.55294],[126.92475,37.56394],[126.92356,37.56447]]]}},{"type":"Feature","properties":{"name":"서울서신초등학교","kind":"zone","note":"최근접 학교 기준 추정 (공식 학구도 반영 전)"},"geometry":{"type":"Polygon","coordinates":[[[126.90906,37.59595],[126.91082,37.58641],[126.90227,37.58815],[126.89819,37.5923],[126.90906,37.59595]]]}},{"type":"Feature","properties":{"name":"서울선유초등학교","kind":"zone","note":"최근접 학교 기준 추정 (공식 학구도 반영 전)"},"geometry":{"type":"Polygon","coordinates":[[[126.86,37.5397],[126.89548,37.52816],[126.89692,37.53576],[126.86,37.54702],[126.86,37.5397]]]}},{"type":"Feature","properties":{"name":"서울성산초등학교","kind":"zone","note":"최근접 학교 기준 추정 (공식 학구도 반영 전)"},"geometry":{"type":"Polygon","coordinates":[[[126.91367,37.54001],[126.91832,37.54932],[126.91734,37.55527],[126.90882,37.55724],[126.90759,37.55725],[126.90023,37.54901],[126.91291,37.54026],[126.91367,37.54001]]]}},{"type":"Feature","properties":{"name":"서울성서초등학교","kind":"zone","note":"최근접 학교 기준 추정 (공식 학구도 반영 전)"},"geometry":{"type":"Polygon","coordinates":[[[126.90595,37.56277],[126.90811,37.56411],[126.91475,37.56331],[126.90882,37.55724],[126.90759,37.55725],[126.90594,37.56067],[126.90595,37.56277]]]}},{"type":"Feature","properties":{"name":"서울성원초등학교","kind":"zone","note":"최근접 학교 기준 추정 (공식 학구도 반영 전)"},"geometry":{"type":"Polygon","coordinates":[[[126.89413,37.56776],[126.89559,37.56905],[126.90869,37.56931],[126.90811,37.56411],[126.90595,37.56277],[126.89413,37.56776]]]}},{"type":"Feature","properties":{"name":"서울세검정초등학교","kind":"zone","note":"최근접 학교 기준 추정 (공식 학구도 반영 전)"},"geometry":{"type":"Polygon","coordinates":[[[126.95608,37.605],[126.96558,37.59477],[126.975,37.59756],[126.975,37.605],[126.95608,37.605]]]}},{"type":"Feature","properties":{"name":"서울소의초등학교","kind":"zone","note":"최근접 학교 기준 추정 (공식 학구도 반영 전)"},"geometry":{"type":"Polygon","coordinates":[[[126.95492,37.5508],[126.95856,37.54885],[126.96669,37.55159],[126.96091,37.55625],[126.95496,37.55118],[126.95492,37.5508]]]}},{"type":"Feature","properties":{"name":"서울수색초등학교","kind":"zone","note":"최근접 학교 기준 추정 (공식 학구도 반영 전)"},"geometry":{"type":"Polygon","coordinates":[[[126.89819,37.5923],[126.88914,37.5963],[126.88831,37.58366],[126.88925,37.58212],[126.89801,37.57957],[126.90227,37.58815],[126.89819,37.5923]]]}},{"type":"Feature","properties":{"name":"서울신북초등학교","kind":"zone","note":"최근접 학교 기준 추정 (공식 학구도 반영 전)"},"geometry":{"type":"Polygon","coordinates":[[[126.9118,37.572],[126.90869,37.56931],[126.89559,37.56905],[126.89989,37.57648],[126.91163,37.57265],[126.9118,37.572]]]}},{"type":"Feature","properties":{"name":"서울신사초등학교","kind":"zone","note":"최근접 학교 기준 추정 (공식 학구도 반영 전)"},"geometry":{"type":"Polygon","coordinates":[[[126.91812,37.59278],[126.91392,37.58646],[126.91303,37.58578],[126.91245,37.58563],[126.91082,37.58641],[126.90906,37.59595],[126.91065,37.59754],[126.91273,37.59724],[126.91812,37.59278]]]}},{"type":"Feature","properties":{"name":"서울신석초등학교","kind":"zone","note":"최근접 학교 기준 추정 (공식 학구도 반영 전)"},"geometry":{"type":"Polygon","coordinates":[[[126.94265,37.54531],[126.93749,37.54982],[126.93464,37.55009],[126.92605,37.5342],[126.938,37.53385],[126.93892,37.53506],[126.94265,37.54531]]]}},{"type":"Feature","properties":{"name":"서울신용산초등학교","kind":"zone","note":"최근접 학교 기준 추정 (공식 학구도 반영 전)"},"geometry":{"type":"Polygon","coordinates":[[[126.975,37.52825],[126.97387,37.52811],[126.96818,37.52],[126.975,37.52],[126.975,37.52825]]]}},{"type":"Feature","properties":{"name":"서울아현초등학교","kind":"zone","note":"최근접 학교 기준 추정 (공식 학구도 반영 전)"},"geometry":{"type":"Polygon","coordinates":[[[126.95496,37.55118],[126.95241,37.55629],[126.95687,37.55984],[126.95973,37.56046],[126.96049,37.56014],[126.96091,37.55625],[126.95496,37.55118]]]}},{"type":"Feature","properties":{"name":"서울안산초등학교","kind":"zone","note":"최근접 학교 기준 추정 (공식 학구도 반영 전)"},"geometry":{"type":"Polygon","coordinates":[[[126.94143,37.57609],[126.95324,37.58671],[126.95716,37.58839],[126.96032,37.5832],[126.95979,37.58022],[126.9505,37.57098],[126.94621,37.57066],[126.94143,37.57609]]]}},{"type":"Feature","properties":{"name":"서울어울초등학교","kind":"zone","note":"최근접 학교 기준 추정 (공식 학구도 반영 전)"},"geometry":{"type":"Polygon","coordinates":[[[126.94516,37.605],[126.94328,37.60309],[126.93085,37.605],[126.94516,37.605]]]}},{"type":"Feature","properties":{"name":"서울여의도초등학교","kind":"zone","note":"최근접 학교 기준 추정 (공식 학구도 반영 전)"},"geometry":{"type":"Polygon","coordinates":[[[126.93025,37.52],[126.92478,37.5339],[126.92605,37.5342],[126.938,37.53385],[126.9397,37.53293],[126.95088,37.52481],[126.95142,37.52],[126.93025,37.52]]]}},{"type":"Feature","properties":{"name":"서울역촌초등학교","kind":"zone","note":"최근접 학교 기준 추정 (공식 학구도 반영 전)"},"geometry":{"type":"Polygon","coordinates":[[[126.91907,37.605],[126.90874,37.605],[126.90654,37.60359],[126.91065,37.59754],[126.91273,37.59724],[126.92009,37.60246],[126.91907,37.605]]]}},{"type":"Feature","properties":{"name":"서울연가초등학교","kind":"zone","note":"최근접 학교 기준 추정 (공식 학구도 반영 전)"},"geometry":{"type":"Polygon","coordinates":[[[126.92392,37.57966],[126.91303,37.58578],[126.91245,37.58563],[126.91115,37.58203],[126.91342,37.57615],[126.925,37.57749],[126.92481,37.57813],[126.92392,37.57966]]]}},{"type":"Feature","properties":{"name":"서울연은초등학교","kind":"zone","note":"최근접 학교 기준 추정 (공식 학구도 반영 전)"},"geometry":{"type":"Polygon","coordinates":[[[126.93494,37.58946],[126.93502,37.5929],[126.93479,37.59389],[126.92732,37.59749],[126.92729,37.59749],[126.92044,37.59333],[126.92559,37.58681],[126.92567,37.58678],[126.93494,37.58946]]]}},{"type":"Feature","properties":{"name":"서울연희초등학교","kind":"zone","note":"최근접 학교 기준 추정 (공식 학구도 반영 전)"},"geometry":{"type":"Polygon","coordinates":[[[126.9234,37.56532],[126.92787,37.57481],[126.93961,37.57681],[126.94143,37.57609],[126.94621,37.57066],[126.94609,37.57042],[126.93617,37.5635],[126.92475,37.56394],[126.92356,37.56447],[126.9234,37.56532]]]}},{"type":"Feature","properties":{"name":"서울염리초등학교","kind":"zone","note":"최근접 학교 기준 추정 (공식 학구도 반영 전)"},"geometry":{"type":"Polygon","coordinates":[[[126.94265,37.54531],[126.94906,37.54668],[126.95146,37.54263],[126.93892,37.53506],[126.94265,37.54531]]]}},{"type":"Feature","properties":{"name":"서울영동초등학교","kind":"zone","note":"최근접 학교 기준 추정 (공식 학구도 반영 전)"},"geometry":{"type":"Polygon","coordinates":[[[126.91257,37.52],[126.92347,37.53404],[126.91394,37.53972],[126.90259,37.52835],[126.91195,37.52],[126.91257,37.52]]]}},{"type":"Feature","properties":{"name":"서울영문초등학교","kind":"zone","note":"최근접 학교 기준 추정 (공식 학구도 반영 전)"},"geometry":{"type":"Polygon","coordinates":[[[126.86,37.52816],[126.89114,37.52258],[126.89069,37.52],[126.86,37.52],[126.86,37.52816]]]}},{"type":"Feature","properties":{"name":"서울영중초등학교","kind":"zone","note":"최근접 학교 기준 추정 (공식 학구도 반영 전)"},"geometry":{"type":"Polygon","coordinates":[[[126.89993,37.52],[126.8964,37.52454],[126.89687,37.52655],[126.90259,37.52835],[126.91195,37.52],[126.89993,37.52]]]}},{"type":"Feature","properties":{"name":"서울용강초등학교","kind":"zone","note":"최근접 학교 기준 추정 (공식 학구도 반영 전)"},"geometry":{"type":"Polygon","coordinates":[[[126.94265,37.54531],[126.93749,37.54982],[126.94437,37.55343],[126.9501,37.54882],[126.94906,37.54668],[126.94265,37.54531]]]}},{"type":"Feature","properties":{"name":"서울용산초등학교","kind":"zone","note":"최근접 학교 기준 추정 (공식 학구도 반영 전)"},"geometry":{"type":"Polygon","coordinates":[[[126.975,37.54034],[126.96871,37.53864],[126.96861,37.53052],[126.97387,37.52811],[126.975,37.52825],[126.975,37.54034]]]}},{"type":"Feature","properties":{"name":"서울원효초등학교","kind":"zone","note":"최근접 학교 기준 추정 (공식 학구도 반영 전)"},"geometry":{"type":"Polygon","coordinates":[[[126.95599,37.53951],[126.9397,37.53293],[126.95088,37.52481],[126.95785,37.53032],[126.95821,37.53647],[126.95599,37.53951]]]}},{"type":"Feature","properties":{"name":"서울윤중초등학교","kind":"zone","note":"최근접 학교 기준 추정 (공식 학구도 반영 전)"},"geometry":{"type":"Polygon","coordinates":[[[126.92347,37.53404],[126.91257,37.52],[126.93025,37.52],[126.92478,37.5339],[126.92347,37.53404]]]}},{"type":"Feature","properties":{"name":"서울은명초등학교","kind":"zone","note":"최근접 학교 기준 추정 (공식 학구도 반영 전)"},"geometry":{"type":"Polygon","coordinates":[[[126.92009,37.60246],[126.91273,37.59724],[126.91812,37.59278],[126.92044,37.59333],[126.92729,37.59749],[126.92009,37.60246]]]}},{"type":"Feature","properties":{"name":"서울은평초등학교","kind":"zone","note":"최근접 학교 기준 추정 (공식 학구도 반영 전)"},"geometry":{"type":"Polygon","coordinates":[[[126.93056,37.605],[126.92732,37.59749],[126.93479,37.59389],[126.94147,37.59935],[126.94328,37.60309],[126.93085,37.605],[126.93056,37.605]]]}},{"type":"Feature","properties":{"name":"서울응암초등학교","kind":"zone","note":"최근접 학교 기준 추정 (공식 학구도 반영 전)"},"geometry":{"type":"Polygon","coordinates":[[[126.92044,37.59333],[126.91812,37.59278],[126.91392,37.58646],[126.92559,37.58681],[126.92044,37.59333]]]}},{"type":"Feature","properties":{"name":"서울인왕초등학교","kind":"zone","note":"최근접 학교 기준 추정 (공식 학구도 반영 전)"},"geometry":{"type":"Polygon","coordinates":[[[126.93494,37.58946],[126.93502,37.5929],[126.95458,37.59086],[126.95752,37.58967],[126.95716,37.58839],[126.95324,37.58671],[126.93564,37.5885],[126.9353,37.58887],[126.93494,37.58946]]]}},{"type":"Feature","properties":{"name":"서울중동초등학교","kind":"zone","note":"최근접 학교 기준 추정 (공식 학구도 반영 전)"},"geometry":{"type":"Polygon","coordinates":[[[126.9234,37.56532],[126.9118,37.572],[126.90869,37.56931],[126.90811,37.56411],[126.91475,37.56331],[126.92321,37.56423],[126.92356,37.56447],[126.9234,37.56532]]]}},{"type":"Feature","properties":{"name":"서울증산초등학교","kind":"zone","note":"최근접 학교 기준 추정 (공식 학구도 반영 전)"},"geometry":{"type":"Polygon","coordinates":[[[126.91082,37.58641],[126.91245,37.58563],[126.91115,37.58203],[126.89982,37.5773],[126.89801,37.57957],[126.90227,37.58815],[126.91082,37.58641]]]}},{"type":"Feature","properties":{"name":"서울창서초등학교","kind":"zone","note":"최근접 학교 기준 추정 (공식 학구도 반영 전)"},"geometry":{"type":"Polygon","coordinates":[[[126.92475,37.56394],[126.93094,37.55294],[126.93268,37.55227],[126.93849,37.55894],[126.93617,37.5635],[126.92475,37.56394]]]}},{"type":"Feature","properties":{"name":"서울창천초등학교","kind":"zone","note":"최근접 학교 기준 추정 (공식 학구도 반영 전)"},"geometry":{"type":"Polygon","coordinates":[[[126.94437,37.55343],[126.94462,37.5547],[126.94323,37.55725],[126.93849,37.55894],[126.93268,37.55227],[126.93464,37.55009],[126.93749,37.54982],[126.94437,37.55343]]]}},{"type":"Feature","properties":{"name":"서울청운초등학교","kind":"zone","note":"최근접 학교 기준 추정 (공식 학구도 반영 전)"},"geometry":{"type":"Polygon","coordinates":[[[126.95879,37.59105],[126.96558,37.59477],[126.975,37.59756],[126.975,37.58028],[126.96032,37.5832],[126.95716,37.58839],[126.95752,37.58967],[126.95879,37.59105]]]}},{"type":"Feature","properties":{"name":"서울청파초등학교","kind":"zone","note":"최근접 학교 기준 추정 (공식 학구도 반영 전)"},"geometry":{"type":"Polygon","coordinates":[[[126.96987,37.5512],[126.96669,37.55159],[126.95856,37.54885],[126.9597,37.54464],[126.9649,37.54374],[126.97004,37.54813],[126.96987,37.5512]]]}},{"type":"Feature","properties":{"name":"서울하늘초등학교","kind":"zone","note":"최근접 학교 기준 추정 (공식 학구도 반영 전)"},"geometry":{"type":"Polygon","coordinates":[[[126.88914,37.5963],[126.88831,37.58366],[126.86,37.58003],[126.86,37.605],[126.88237,37.605],[126.88241,37.60498],[126.88914,37.5963]]]}},{"type":"Feature","properties":{"name":"서울한강초등학교","kind":"zone","note":"최근접 학교 기준 추정 (공식 학구도 반영 전)"},"geometry":{"type":"Polygon","coordinates":[[[126.96861,37.53052],[126.95785,37.53032],[126.95088,37.52481],[126.95142,37.52],[126.96818,37.52],[126.97387,37.52811],[126.96861,37.53052]]]}},{"type":"Feature","properties":{"name":"서울한서초등학교","kind":"zone","note":"최근접 학교 기준 추정 (공식 학구도 반영 전)"},"geometry":{"type":"Polygon","coordinates":[[[126.95492,37.5508],[126.9501,37.54882],[126.94437,37.55343],[126.94462,37.5547],[126.95157,37.55647],[126.95241,37.55629],[126.95496,37.55118],[126.95492,37.5508]]]}},{"type":"Feature","properties":{"name":"서울홍연초등학교","kind":"zone","note":"최근접 학교 기준 추정 (공식 학구도 반영 전)"},"geometry":{"type":"Polygon","coordinates":[[[126.9353,37.58887],[126.93564,37.5885],[126.93961,37.57681],[126.92787,37.57481],[126.925,37.57749],[126.92481,37.57813],[126.9353,37.58887]]]}},{"type":"Feature","properties":{"name":"서울홍은초등학교","kind":"zone","note":"최근접 학교 기준 추정 (공식 학구도 반영 전)"},"geometry":{"type":"Polygon","coordinates":[[[126.94147,37.59935],[126.94328,37.60309],[126.94516,37.605],[126.94871,37.605],[126.95879,37.59105],[126.95752,37.58967],[126.95458,37.59086],[126.94147,37.59935]]]}},{"type":"Feature","properties":{"name":"서울홍제초등학교","kind":"zone","note":"최근접 학교 기준 추정 (공식 학구도 반영 전)"},"geometry":{"type":"Polygon","coordinates":[[[126.93479,37.59389],[126.94147,37.59935],[126.95458,37.59086],[126.93502,37.5929],[126.93479,37.59389]]]}},{"type":"Feature","properties":{"name":"서울후암초등학교","kind":"zone","note":"최근접 학교 기준 추정 (공식 학구도 반영 전)"},"geometry":{"type":"Polygon","coordinates":[[[126.975,37.55332],[126.97376,37.55445],[126.975,37.55704],[126.975,37.55332]]]}},{"type":"Feature","properties":{"name":"신광초등학교","kind":"zone","note":"최근접 학교 기준 추정 (공식 학구도 반영 전)"},"geometry":{"type":"Polygon","coordinates":[[[126.975,37.54347],[126.97004,37.54813],[126.9649,37.54374],[126.96662,37.53949],[126.96871,37.53864],[126.975,37.54034],[126.975,37.54347]]]}},{"type":"Feature","properties":{"name":"이화여자대학교사범대학부속초등학교","kind":"zone","note":"최근접 학교 기준 추정 (공식 학구도 반영 전)"},"geometry":{"type":"Polygon","coordinates":[[[126.94609,37.57042],[126.94808,37.56335],[126.94772,37.56197],[126.94323,37.55725],[126.93849,37.55894],[126.93617,37.5635],[126.94609,37.57042]]]}},{"type":"Feature","properties":{"name":"추계초등학교","kind":"zone","note":"최근접 학교 기준 추정 (공식 학구도 반영 전)"},"geometry":{"type":"Polygon","coordinates":[[[126.94621,37.57066],[126.9505,37.57098],[126.9552,37.56931],[126.95746,37.56704],[126.95973,37.56046],[126.95687,37.55984],[126.94808,37.56335],[126.94609,37.57042],[126.94621,37.57066]]]}},{"type":"Feature","properties":{"name":"충암초등학교","kind":"zone","note":"최근접 학교 기준 추정 (공식 학구도 반영 전)"},"geometry":{"type":"Polygon","coordinates":[[[126.92392,37.57966],[126.91303,37.58578],[126.91392,37.58646],[126.92559,37.58681],[126.92567,37.58678],[126.92392,37.57966]]]}},{"type":"Feature","properties":{"name":"홍익대학교사범대학부속초등학교","kind":"zone","note":"최근접 학교 기준 추정 (공식 학구도 반영 전)"},"geometry":{"type":"Polygon","coordinates":[[[126.90882,37.55724],[126.91734,37.55527],[126.92321,37.56423],[126.91475,37.56331],[126.90882,37.55724]]]}},{"type":"Feature","properties":{"name":"경기초등학교","kind":"school"},"geometry":{"type":"Point","coordinates":[126.962860648912,37.5651102907996]}},{"type":"Feature","properties":{"name":"동산초등학교","kind":"school"},"geometry":{"type":"Point","coordinates":[127.016725380867,37.5562046295135]}},{"type":"Feature","properties":{"name":"리라초등학교","kind":"school"},"geometry":{"type":"Point","coordinates":[126.987980721445,37.5578196996083]}},{"type":"Feature","properties":{"name":"명지초등학교","kind":"school"},"geometry":{"type":"Point","coordinates":[126.928231470941,37.5836299393884]}},{"type":"Feature","properties":{"name":"상명대학교사범대학부속초등학교","kind":"school"},"geometry":{"type":"Point","coordinates":[126.956425519955,37.6007485057551]}},{"type":"Feature","properties":{"name":"서울가재울초등학교","kind":"school"},"geometry":{"type":"Point","coordinates":[126.918388033648,37.5737644190198]}},{"type":"Feature","properties":{"name":"서울갈현초등학교","kind":"school"},"geometry":{"type":"Point","coordinates":[126.916683441356,37.6197796356231]}},{"type":"Feature","properties":{"name":"서울고은초등학교","kind":"school"},"geometry":{"type":"Point","coordinates":[126.943974937789,37.585001844196]}},{"type":"Feature","properties":{"name":"서울공덕초등학교","kind":"school"},"geometry":{"type":"Point","coordinates":[126.954823056539,37.5458033455121]}},{"type":"Feature","properties":{"name":"서울광희초등학교","kind":"school"},"geometry":{"type":"Point","coordinates":[127.015687859678,37.5672992845452]}},{"type":"Feature","properties":{"name":"서울교동초등학교","kind":"school"},"geometry":{"type":"Point","coordinates":[126.988075995471,37.5749936834295]}},{"type":"Feature","properties":{"name":"서울구산초등학교","kind":"school"},"geometry":{"type":"Point","coordinates":[126.909376492632,37.6127509583582]}},{"type":"Feature","properties":{"name":"서울구현초등학교","kind":"school"},"geometry":{"type":"Point","coordinates":[126.905707319658,37.6097895968758]}},{"type":"Feature","properties":{"name":"서울금양초등학교","kind":"school"},"geometry":{"type":"Point","coordinates":[126.961831873199,37.5409423141075]}},{"type":"Feature","properties":{"name":"서울금화초등학교","kind":"school"},"geometry":{"type":"Point","coordinates":[126.962941434617,37.5688275546965]}},{"type":"Feature","properties":{"name":"서울남산초등학교","kind":"school"},"geometry":{"type":"Point","coordinates":[126.986776737543,37.5597837446411]}},{"type":"Feature","properties":{"name":"서울남정초등학교","kind":"school"},"geometry":{"type":"Point","coordinates":[126.964803669293,37.5356738275449]}},{"type":"Feature","properties":{"name":"서울녹번초등학교","kind":"school"},"geometry":{"type":"Point","coordinates":[126.925746281804,37.6045833930687]}},{"type":"Feature","properties":{"name":"서울당산초등학교","kind":"school"},"geometry":{"type":"Point","coordinates":[126.896241067017,37.5401191186811]}},{"type":"Feature","properties":{"name":"서울당서초등학교","kind":"school"},"geometry":{"type":"Point","coordinates":[126.89981419859,37.5320274377069]}},{"type":"Feature","properties":{"name":"서울당중초등학교","kind":"school"},"geometry":{"type":"Point","coordinates":[126.889413529916,37.52628923031]}},{"type":"Feature","properties":{"name":"서울대길초등학교","kind":"school"},"geometry":{"type":"Point","coordinates":[126.913035010017,37.4982314495379]}},{"type":"Feature","properties":{"name":"서울대동초등학교","kind":"school"},"geometry":{"type":"Point","coordinates":[126.900450594121,37.4937093653318]}},{"type":"Feature","properties":{"name":"서울대방초등학교","kind":"school"},"geometry":{"type":"Point","coordinates":[126.919020182507,37.5029001208602]}},{"type":"Feature","properties":{"name":"서울대신초등학교","kind":"school"},"geometry":{"type":"Point","coordinates":[126.948057240166,37.5579475491997]}},{"type":"Feature","properties":{"name":"서울대영초등학교","kind":"school"},"geometry":{"type":"Point","coordinates":[126.906524398043,37.5026541997676]}},{"type":"Feature","properties":{"name":"서울대은초등학교","kind":"school"},"geometry":{"type":"Point","coordinates":[126.925869811138,37.6123671176016]}},{"type":"Feature","properties":{"name":"서울대조초등학교","kind":"school"},"geometry":{"type":"Point","coordinates":[126.919302166743,37.613579143925]}},{"type":"Feature","properties":{"name":"서울대학교사범대학부설초등학교","kind":"school"},"geometry":{"type":"Point","coordinates":[127.004315334067,37.577618353105]}},{"type":"Feature","properties":{"name":"서울덕수초등학교","kind":"school"},"geometry":{"type":"Point","coordinates":[126.974657902016,37.5690888764456]}},{"type":"Feature","properties":{"name":"서울도림초등학교","kind":"school"},"geometry":{"type":"Point","coordinates":[126.907115425568,37.5086786949617]}},{"type":"Feature","properties":{"name":"서울도신초등학교","kind":"school"},"geometry":{"type":"Point","coordinates":[126.900714062322,37.4992678949668]}},{"type":"Feature","properties":{"name":"서울독립문초등학교","kind":"school"},"geometry":{"type":"Point","coordinates":[126.960148752178,37.5740826001873]}},{"type":"Feature","properties":{"name":"서울동교초등학교","kind":"school"},"geometry":{"type":"Point","coordinates":[126.902078300574,37.5583376929114]}},{"type":"Feature","properties":{"name":"서울마포초등학교","kind":"school"},"geometry":{"type":"Point","coordinates":[126.949973786127,37.5386376331175]}},{"type":"Feature","properties":{"name":"서울망원초등학교","kind":"school"},"geometry":{"type":"Point","coordinates":[126.901117241,37.5610439363669]}},{"type":"Feature","properties":{"name":"서울매동초등학교","kind":"school"},"geometry":{"type":"Point","coordinates":[126.966716978826,37.5775391376934]}},{"type":"Feature","properties":{"name":"서울명신초등학교","kind":"school"},"geometry":{"type":"Point","coordinates":[127.013724533725,37.5813606333694]}},{"type":"Feature","properties":{"name":"서울문래초등학교","kind":"school"},"geometry":{"type":"Point","coordinates":[126.893605730635,37.5191403848287]}},{"type":"Feature","properties":{"name":"서울미동초등학교","kind":"school"},"geometry":{"type":"Point","coordinates":[126.965886060285,37.5633505669619]}},{"type":"Feature","properties":{"name":"서울보광초등학교","kind":"school"},"geometry":{"type":"Point","coordinates":[126.996391100579,37.5325404707342]}},{"type":"Feature","properties":{"name":"서울봉래초등학교","kind":"school"},"geometry":{"type":"Point","coordinates":[126.965250577981,37.5564123449189]}},{"type":"Feature","properties":{"name":"서울북가좌초등학교","kind":"school"},"geometry":{"type":"Point","coordinates":[126.907778193085,37.5772202096676]}},{"type":"Feature","properties":{"name":"서울북성초등학교","kind":"school"},"geometry":{"type":"Point","coordinates":[126.951834913817,37.55963212308]}},{"type":"Feature","properties":{"name":"서울북한산초등학교","kind":"school"},"geometry":{"type":"Point","coordinates":[126.950462446061,37.6536320835839]}},{"type":"Feature","properties":{"name":"서울불광초등학교","kind":"school"},"geometry":{"type":"Point","coordinates":[126.930718712253,37.6134294463781]}},{"type":"Feature","properties":{"name":"서울삼광초등학교","kind":"school"},"geometry":{"type":"Point","coordinates":[126.976594308147,37.5477523117279]}},{"type":"Feature","properties":{"name":"서울상신초등학교","kind":"school"},"geometry":{"type":"Point","coordinates":[126.904604886275,37.5975537179419]}},{"type":"Feature","properties":{"name":"서울상암초등학교","kind":"school"},"geometry":{"type":"Point","coordinates":[126.891959952963,37.5763095825917]}},{"type":"Feature","properties":{"name":"서울상지초등학교","kind":"school"},"geometry":{"type":"Point","coordinates":[126.882073551893,37.5797510164641]}},{"type":"Feature","properties":{"name":"서울서강초등학교","kind":"school"},"geometry":{"type":"Point","coordinates":[126.927430860042,37.5481050750929]}},{"type":"Feature","properties":{"name":"서울서교초등학교","kind":"school"},"geometry":{"type":"Point","coordinates":[126.924382439365,37.554881730967]}},{"type":"Feature","properties":{"name":"서울서빙고초등학교","kind":"school"},"geometry":{"type":"Point","coordinates":[126.992300401397,37.5220689203394]}},{"type":"Feature","properties":{"name":"서울서신초등학교","kind":"school"},"geometry":{"type":"Point","coordinates":[126.907382316218,37.5922940508202]}},{"type":"Feature","properties":{"name":"서울선유초등학교","kind":"school"},"geometry":{"type":"Point","coordinates":[126.892776819259,37.532879190933]}},{"type":"Feature","properties":{"name":"서울성산초등학교","kind":"school"},"geometry":{"type":"Point","coordinates":[126.910669687285,37.5534453328883]}},{"type":"Feature","properties":{"name":"서울성서초등학교","kind":"school"},"geometry":{"type":"Point","coordinates":[126.910759005302,37.5610150373718]}},{"type":"Feature","properties":{"name":"서울성원초등학교","kind":"school"},"geometry":{"type":"Point","coordinates":[126.905013630897,37.5669324413569]}},{"type":"Feature","properties":{"name":"서울세검정초등학교","kind":"school"},"geometry":{"type":"Point","coordinates":[126.961073121539,37.6034986015128]}},{"type":"Feature","properties":{"name":"서울소의초등학교","kind":"school"},"geometry":{"type":"Point","coordinates":[126.960655552156,37.552781864533]}},{"type":"Feature","properties":{"name":"서울수리초등학교","kind":"school"},"geometry":{"type":"Point","coordinates":[126.934110930932,37.6203073698534]}},{"type":"Feature","properties":{"name":"서울수색초등학교","kind":"school"},"geometry":{"type":"Point","coordinates":[126.896012135221,37.5851721490482]}},{"type":"Feature","properties":{"name":"서울신당초등학교","kind":"school"},"geometry":{"type":"Point","coordinates":[127.023636595929,37.5636896515896]}},{"type":"Feature","properties":{"name":"서울신대림초등학교","kind":"school"},"geometry":{"type":"Point","coordinates":[126.90607771762,37.4921487438027]}},{"type":"Feature","properties":{"name":"서울신도초등학교","kind":"school"},"geometry":{"type":"Point","coordinates":[126.929198935551,37.6329384289784]}},{"type":"Feature","properties":{"name":"서울신북초등학교","kind":"school"},"geometry":{"type":"Point","coordinates":[126.904868991641,37.5715459609872]}},{"type":"Feature","properties":{"name":"서울신사초등학교","kind":"school"},"geometry":{"type":"Point","coordinates":[126.911983196588,37.5928348327068]}},{"type":"Feature","properties":{"name":"서울신석초등학교","kind":"school"},"geometry":{"type":"Point","coordinates":[126.937779457981,37.5445357278463]}},{"type":"Feature","properties":{"name":"서울신영초등학교","kind":"school"},"geometry":{"type":"Point","coordinates":[126.896094817069,37.5010060169412]}},{"type":"Feature","properties":{"name":"서울신용산초등학교","kind":"school"},"geometry":{"type":"Point","coordinates":[126.975366260146,37.5206295929735]}},{"type":"Feature","properties":{"name":"서울아현초등학교","kind":"school"},"geometry":{"type":"Point","coordinates":[126.956596106511,37.5558159936174]}},{"type":"Feature","properties":{"name":"서울안산초등학교","kind":"school"},"geometry":{"type":"Point","coordinates":[126.952209733658,37.5791690097819]}},{"type":"Feature","properties":{"name":"서울어울초등학교","kind":"school"},"geometry":{"type":"Point","coordinates":[126.935058620612,37.6065633137733]}},{"type":"Feature","properties":{"name":"서울여의도초등학교","kind":"school"},"geometry":{"type":"Point","coordinates":[126.93679444014,37.5232048215986]}},{"type":"Feature","properties":{"name":"서울역촌초등학교","kind":"school"},"geometry":{"type":"Point","coordinates":[126.913928033442,37.6015841686977]}},{"type":"Feature","properties":{"name":"서울연가초등학교","kind":"school"},"geometry":{"type":"Point","coordinates":[126.917329192961,37.5795632014616]}},{"type":"Feature","properties":{"name":"서울연광초등학교","kind":"school"},"geometry":{"type":"Point","coordinates":[126.923909005211,37.6236487604699]}},{"type":"Feature","properties":{"name":"서울연신초등학교","kind":"school"},"geometry":{"type":"Point","coordinates":[126.927751281025,37.6260599638981]}},{"type":"Feature","properties":{"name":"서울연은초등학교","kind":"school"},"geometry":{"type":"Point","coordinates":[126.925112608529,37.5905122161631]}},{"type":"Feature","properties":{"name":"서울연천초등학교","kind":"school"},"geometry":{"type":"Point","coordinates":[126.929917884841,37.6213492886599]}},{"type":"Feature","properties":{"name":"서울연희초등학교","kind":"school"},"geometry":{"type":"Point","coordinates":[126.934142303217,37.5690459271047]}},{"type":"Feature","properties":{"name":"서울염리초등학교","kind":"school"},"geometry":{"type":"Point","coordinates":[126.946247603396,37.5425709323083]}},{"type":"Feature","properties":{"name":"서울영동초등학교","kind":"school"},"geometry":{"type":"Point","coordinates":[126.907703382657,37.5270069102324]}},{"type":"Feature","properties":{"name":"서울영등포초등학교","kind":"school"},"geometry":{"type":"Point","coordinates":[126.898260025571,37.5129480156762]}},{"type":"Feature","properties":{"name":"서울영림초등학교","kind":"school"},"geometry":{"type":"Point","coordinates":[126.902516130281,37.4873460122893]}},{"type":"Feature","properties":{"name":"서울영문초등학교","kind":"school"},"geometry":{"type":"Point","coordinates":[126.887589090951,37.5198074103506]}},{"type":"Feature","properties":{"name":"서울영신초등학교","kind":"school"},"geometry":{"type":"Point","coordinates":[126.918122078214,37.5101719627186]}},{"type":"Feature","properties":{"name":"서울영원초등학교","kind":"school"},"geometry":{"type":"Point","coordinates":[126.902182504089,37.5107193620837]}},{"type":"Feature","properties":{"name":"서울영중초등학교","kind":"school"},"geometry":{"type":"Point","coordinates":[126.903695688306,37.5241432995791]}},{"type":"Feature","properties":{"name":"서울용강초등학교","kind":"school"},"geometry":{"type":"Point","coordinates":[126.944058506049,37.549112429713]}},{"type":"Feature","properties":{"name":"서울용산초등학교","kind":"school"},"geometry":{"type":"Point","coordinates":[126.972550624529,37.535613442977]}},{"type":"Feature","properties":{"name":"서울용암초등학교","kind":"school"},"geometry":{"type":"Point","coordinates":[126.989434775031,37.5453029008824]}},{"type":"Feature","properties":{"name":"서울우신초등학교","kind":"school"},"geometry":{"type":"Point","coordinates":[126.911863664868,37.5098647213535]}},{"type":"Feature","properties":{"name":"서울원효초등학교","kind":"school"},"geometry":{"type":"Point","coordinates":[126.951545316146,37.5361612583146]}},{"type":"Feature","properties":{"name":"서울윤중초등학교","kind":"school"},"geometry":{"type":"Point","coordinates":[126.92259080096,37.5196416407122]}},{"type":"Feature","properties":{"name":"서울은명초등학교","kind":"school"},"geometry":{"type":"Point","coordinates":[126.918275747068,37.5976791222992]}},{"type":"Feature","properties":{"name":"서울은빛초등학교","kind":"school"},"geometry":{"type":"Point","coordinates":[126.918730453447,37.6426828611882]}},{"type":"Feature","properties":{"name":"서울은진초등학교","kind":"school"},"geometry":{"type":"Point","coordinates":[126.920996007067,37.6330440427703]}},{"type":"Feature","properties":{"name":"서울은평초등학교","kind":"school"},"geometry":{"type":"Point","coordinates":[126.934033612153,37.6023040358796]}},{"type":"Feature","properties":{"name":"서울응암초등학교","kind":"school"},"geometry":{"type":"Point","coordinates":[126.921616096958,37.5887531914177]}},{"type":"Feature","properties":{"name":"서울이태원초등학교","kind":"school"},"geometry":{"type":"Point","coordinates":[126.987672660332,37.5364777066784]}},{"type":"Feature","properties":{"name":"서울인왕초등학교","kind":"school"},"geometry":{"type":"Point","coordinates":[126.944804483066,37.5902198832433]}},{"type":"Feature","properties":{"name":"서울장충초등학교","kind":"school"},"geometry":{"type":"Point","coordinates":[127.01170475684,37.559971222213]}},{"type":"Feature","properties":{"name":"서울재동초등학교","kind":"school"},"geometry":{"type":"Point","coordinates":[126.9855017071,37.5799415657652]}},{"type":"Feature","properties":{"name":"서울중동초등학교","kind":"school"},"geometry":{"type":"Point","coordinates":[126.911780404952,37.5664458381853]}},{"type":"Feature","properties":{"name":"서울증산초등학교","kind":"school"},"geometry":{"type":"Point","coordinates":[126.904276446505,37.5825652695002]}},{"type":"Feature","properties":{"name":"서울진관초등학교","kind":"school"},"geometry":{"type":"Point","coordinates":[126.929052478211,37.6454198616021]}},{"type":"Feature","properties":{"name":"서울창서초등학교","kind":"school"},"geometry":{"type":"Point","coordinates":[126.933480871339,37.5581430512569]}},{"type":"Feature","properties":{"name":"서울창신초등학교","kind":"school"},"geometry":{"type":"Point","coordinates":[127.014293687874,37.5762114748296]}},{"type":"Feature","properties":{"name":"서울창천초등학교","kind":"school"},"geometry":{"type":"Point","coordinates":[126.939295148137,37.5549178201995]}},{"type":"Feature","properties":{"name":"서울청구초등학교","kind":"school"},"geometry":{"type":"Point","coordinates":[127.013724413955,37.5591166793514]}},{"type":"Feature","properties":{"name":"서울청운초등학교","kind":"school"},"geometry":{"type":"Point","coordinates":[126.969294698603,37.585805731799]}},{"type":"Feature","properties":{"name":"서울청파초등학교","kind":"school"},"geometry":{"type":"Point","coordinates":[126.963543924367,37.5473049014312]}},{"type":"Feature","properties":{"name":"서울충무초등학교","kind":"school"},"geometry":{"type":"Point","coordinates":[127.001235055009,37.5619494839149]}},{"type":"Feature","properties":{"name":"서울하늘초등학교","kind":"school"},"geometry":{"type":"Point","coordinates":[126.880857196502,37.5858060895514]}},{"type":"Feature","properties":{"name":"서울한강초등학교","kind":"school"},"geometry":{"type":"Point","coordinates":[126.965099429477,37.5252261730909]}},{"type":"Feature","properties":{"name":"서울한남초등학교","kind":"school"},"geometry":{"type":"Point","coordinates":[127.005599847436,37.5392036532348]}},{"type":"Feature","properties":{"name":"서울한서초등학교","kind":"school"},"geometry":{"type":"Point","coordinates":[126.949778833645,37.5536478329572]}},{"type":"Feature","properties":{"name":"서울혜화초등학교","kind":"school"},"geometry":{"type":"Point","coordinates":[126.999927989279,37.5891727709231]}},{"type":"Feature","properties":{"name":"서울홍연초등학교","kind":"school"},"geometry":{"type":"Point","coordinates":[126.93066044978,37.582118713581]}},{"type":"Feature","properties":{"name":"서울홍은초등학교","kind":"school"},"geometry":{"type":"Point","coordinates":[126.949457988833,37.5975402724558]}},{"type":"Feature","properties":{"name":"서울홍제초등학교","kind":"school"},"geometry":{"type":"Point","coordinates":[126.945336524574,37.5934809108736]}},{"type":"Feature","properties":{"name":"서울효제초등학교","kind":"school"},"geometry":{"type":"Point","coordinates":[127.003515410111,37.5727179599562]}},{"type":"Feature","properties":{"name":"서울후암초등학교","kind":"school"},"geometry":{"type":"Point","coordinates":[126.981724291635,37.5513654103686]}},{"type":"Feature","properties":{"name":"서울흥인초등학교","kind":"school"},"geometry":{"type":"Point","coordinates":[127.014616166709,37.5609374871352]}},{"type":"Feature","properties":{"name":"선일초등학교","kind":"school"},"geometry":{"type":"Point","coordinates":[126.911993073275,37.6203042094228]}},{"type":"Feature","properties":{"name":"숭의초등학교","kind":"school"},"geometry":{"type":"Point","coordinates":[126.987481605528,37.5578530747432]}},{"type":"Feature","properties":{"name":"신광초등학교","kind":"school"},"geometry":{"type":"Point","coordinates":[126.969447523164,37.5428998795519]}},{"type":"Feature","properties":{"name":"예일초등학교","kind":"school"},"geometry":{"type":"Point","coordinates":[126.914792838283,37.6109458980893]}},{"type":"Feature","properties":{"name":"운현초등학교","kind":"school"},"geometry":{"type":"Point","coordinates":[126.988198556535,37.5766672930696]}},{"type":"Feature","properties":{"name":"이화여자대학교사범대학부속초등학교","kind":"school"},"geometry":{"type":"Point","coordinates":[126.942775077877,37.5611502235257]}},{"type":"Feature","properties":{"name":"추계초등학교","kind":"school"},"geometry":{"type":"Point","coordinates":[126.954059321222,37.5631767195176]}},{"type":"Feature","properties":{"name":"충암초등학교","kind":"school"},"geometry":{"type":"Point","coordinates":[126.921809482886,37.5846402882465]}},{"type":"Feature","properties":{"name":"홍익대학교사범대학부속초등학교","kind":"school"},"geometry":{"type":"Point","coordinates":[126.912928685692,37.559665162458]}}]}