{"type":"FeatureCollection","features":[{"type":"Feature","properties":{"sgg":"종로구","umd":"무악동","edu":29,"n":4,"fee":272500,"p84":160000,"pct":76,"grade":"E"},"geometry":{"type":"Point","coordinates":[126.95939,37.57556]}},{"type":"Feature","properties":{"sgg":"종로구","umd":"명륜2가","edu":25,"n":3,"fee":null,"p84":129500,"pct":82,"grade":"E"},"geometry":{"type":"Point","coordinates":[126.99947,37.58576]}},{"type":"Feature","properties":{"sgg":"종로구","umd":"숭인동","edu":28,"n":19,"fee":300000,"p84":109500,"pct":77,"grade":"E"},"geometry":{"type":"Point","coordinates":[127.02031,37.57454]}},{"type":"Feature","properties":{"sgg":"종로구","umd":"창신동","edu":14,"n":17,"fee":245000,"p84":94000,"pct":94,"grade":"E"},"geometry":{"type":"Point","coordinates":[127.0114,37.57636]}},{"type":"Feature","properties":{"sgg":"종로구","umd":"평창동","edu":26,"n":11,"fee":215000,"p84":77000,"pct":81,"grade":"E"},"geometry":{"type":"Point","coordinates":[126.97251,37.60821]}},{"type":"Feature","properties":{"sgg":"종로구","umd":"내수동","edu":14,"n":6,"fee":180000,"p84":null,"pct":95,"grade":"E"},"geometry":{"type":"Point","coordinates":[126.97166,37.57341]}},{"type":"Feature","properties":{"sgg":"종로구","umd":"명륜1가","edu":25,"n":3,"fee":null,"p84":65000,"pct":82,"grade":"E"},"geometry":{"type":"Point","coordinates":[126.9976,37.58897]}},{"type":"Feature","properties":{"sgg":"중구","umd":"신당동","edu":20,"n":48,"fee":240000,"p84":85000,"pct":90,"grade":"E"},"geometry":{"type":"Point","coordinates":[127.01189,37.55602]}},{"type":"Feature","properties":{"sgg":"중구","umd":"회현동1가","edu":13,"n":4,"fee":null,"p84":null,"pct":95,"grade":"E"},"geometry":{"type":"Point","coordinates":[126.9812,37.55799]}},{"type":"Feature","properties":{"sgg":"중구","umd":"중림동","edu":11,"n":3,"fee":null,"p84":185000,"pct":95,"grade":"E"},"geometry":{"type":"Point","coordinates":[126.96697,37.55945]}},{"type":"Feature","properties":{"sgg":"중구","umd":"충무로5가","edu":11,"n":3,"fee":null,"p84":null,"pct":96,"grade":"E"},"geometry":{"type":"Point","coordinates":[126.99932,37.5627]}},{"type":"Feature","properties":{"sgg":"중구","umd":"순화동","edu":4,"n":3,"fee":null,"p84":126500,"pct":100,"grade":"E"},"geometry":{"type":"Point","coordinates":[126.97069,37.5623]}},{"type":"Feature","properties":{"sgg":"중구","umd":"황학동","edu":28,"n":14,"fee":290000,"p84":126000,"pct":77,"grade":"E"},"geometry":{"type":"Point","coordinates":[127.02163,37.56858]}},{"type":"Feature","properties":{"sgg":"중구","umd":"흥인동","edu":25,"n":5,"fee":280000,"p84":67000,"pct":82,"grade":"E"},"geometry":{"type":"Point","coordinates":[127.01594,37.56679]}},{"type":"Feature","properties":{"sgg":"중구","umd":"묵정동","edu":11,"n":3,"fee":null,"p84":null,"pct":96,"grade":"E"},"geometry":{"type":"Point","coordinates":[127.00001,37.561]}},{"type":"Feature","properties":{"sgg":"중구","umd":"오장동","edu":11,"n":3,"fee":null,"p84":null,"pct":96,"grade":"E"},"geometry":{"type":"Point","coordinates":[127.00179,37.56482]}},{"type":"Feature","properties":{"sgg":"용산구","umd":"이촌동","edu":31,"n":39,"fee":302500,"p84":247000,"pct":72,"grade":"D"},"geometry":{"type":"Point","coordinates":[126.96815,37.52152]}},{"type":"Feature","properties":{"sgg":"용산구","umd":"원효로1가","edu":10,"n":5,"fee":170000,"p84":204000,"pct":97,"grade":"E"},"geometry":{"type":"Point","coordinates":[126.96807,37.53988]}},{"type":"Feature","properties":{"sgg":"용산구","umd":"한남동","edu":7,"n":25,"fee":null,"p84":151500,"pct":99,"grade":"E"},"geometry":{"type":"Point","coordinates":[127.00598,37.53429]}},{"type":"Feature","properties":{"sgg":"용산구","umd":"서빙고동","edu":36,"n":3,"fee":null,"p84":190000,"pct":64,"grade":"D"},"geometry":{"type":"Point","coordinates":[126.99026,37.52133]}},{"type":"Feature","properties":{"sgg":"용산구","umd":"한강로2가","edu":4,"n":7,"fee":220000,"p84":187000,"pct":100,"grade":"E"},"geometry":{"type":"Point","coordinates":[126.96811,37.52974]}},{"type":"Feature","properties":{"sgg":"용산구","umd":"보광동","edu":36,"n":3,"fee":null,"p84":347500,"pct":64,"grade":"D"},"geometry":{"type":"Point","coordinates":[127.00023,37.52527]}},{"type":"Feature","properties":{"sgg":"용산구","umd":"후암동","edu":29,"n":11,"fee":240000,"p84":110000,"pct":76,"grade":"E"},"geometry":{"type":"Point","coordinates":[126.97773,37.5503]}},{"type":"Feature","properties":{"sgg":"용산구","umd":"원효로4가","edu":15,"n":4,"fee":255000,"p84":210000,"pct":93,"grade":"E"},"geometry":{"type":"Point","coordinates":[126.95115,37.53329]}},{"type":"Feature","properties":{"sgg":"용산구","umd":"문배동","edu":7,"n":14,"fee":177500,"p84":135000,"pct":99,"grade":"E"},"geometry":{"type":"Point","coordinates":[126.96916,37.53764]}},{"type":"Feature","properties":{"sgg":"용산구","umd":"한강로1가","edu":3,"n":4,"fee":null,"p84":230000,"pct":100,"grade":"E"},"geometry":{"type":"Point","coordinates":[126.97324,37.53494]}},{"type":"Feature","properties":{"sgg":"용산구","umd":"한강로3가","edu":10,"n":11,"fee":240000,"p84":200000,"pct":97,"grade":"E"},"geometry":{"type":"Point","coordinates":[126.96445,37.52692]}},{"type":"Feature","properties":{"sgg":"용산구","umd":"효창동","edu":21,"n":18,"fee":231250,"p84":140000,"pct":87,"grade":"E"},"geometry":{"type":"Point","coordinates":[126.96116,37.54221]}},{"type":"Feature","properties":{"sgg":"용산구","umd":"이태원동","edu":20,"n":10,"fee":null,"p84":240000,"pct":90,"grade":"E"},"geometry":{"type":"Point","coordinates":[126.9916,37.53709]}},{"type":"Feature","properties":{"sgg":"용산구","umd":"용문동","edu":24,"n":4,"fee":237500,"p84":108000,"pct":83,"grade":"E"},"geometry":{"type":"Point","coordinates":[126.95755,37.53728]}},{"type":"Feature","properties":{"sgg":"용산구","umd":"청암동","edu":28,"n":3,"fee":255000,"p84":null,"pct":77,"grade":"E"},"geometry":{"type":"Point","coordinates":[126.9476,37.53526]}},{"type":"Feature","properties":{"sgg":"성동구","umd":"옥수동","edu":21,"n":21,"fee":275000,"p84":208000,"pct":88,"grade":"E"},"geometry":{"type":"Point","coordinates":[127.01455,37.54248]}},{"type":"Feature","properties":{"sgg":"성동구","umd":"금호동2가","edu":50,"n":4,"fee":240200,"p84":209000,"pct":38,"grade":"C"},"geometry":{"type":"Point","coordinates":[127.02114,37.55305]}},{"type":"Feature","properties":{"sgg":"성동구","umd":"응봉동","edu":72,"n":6,"fee":250000,"p84":181000,"pct":12,"grade":"B"},"geometry":{"type":"Point","coordinates":[127.03321,37.55211]}},{"type":"Feature","properties":{"sgg":"성동구","umd":"성수동1가","edu":19,"n":22,"fee":252500,"p84":195000,"pct":91,"grade":"E"},"geometry":{"type":"Point","coordinates":[127.0466,37.54559]}},{"type":"Feature","properties":{"sgg":"성동구","umd":"금호동1가","edu":57,"n":6,"fee":242700,"p84":150000,"pct":28,"grade":"C"},"geometry":{"type":"Point","coordinates":[127.02426,37.55401]}},{"type":"Feature","properties":{"sgg":"성동구","umd":"마장동","edu":38,"n":17,"fee":245000,"p84":111000,"pct":61,"grade":"D"},"geometry":{"type":"Point","coordinates":[127.04201,37.56646]}},{"type":"Feature","properties":{"sgg":"성동구","umd":"하왕십리동","edu":56,"n":16,"fee":250000,"p84":148000,"pct":29,"grade":"C"},"geometry":{"type":"Point","coordinates":[127.02816,37.56269]}},{"type":"Feature","properties":{"sgg":"성동구","umd":"금호동3가","edu":44,"n":4,"fee":245000,"p84":171500,"pct":49,"grade":"C"},"geometry":{"type":"Point","coordinates":[127.01933,37.55035]}},{"type":"Feature","properties":{"sgg":"성동구","umd":"사근동","edu":23,"n":3,"fee":null,"p84":102000,"pct":84,"grade":"E"},"geometry":{"type":"Point","coordinates":[127.04879,37.56188]}},{"type":"Feature","properties":{"sgg":"성동구","umd":"행당동","edu":74,"n":14,"fee":250000,"p84":176000,"pct":9,"grade":"A"},"geometry":{"type":"Point","coordinates":[127.03484,37.55792]}},{"type":"Feature","properties":{"sgg":"성동구","umd":"용답동","edu":47,"n":4,"fee":260000,"p84":114700,"pct":44,"grade":"C"},"geometry":{"type":"Point","coordinates":[127.05395,37.56454]}},{"type":"Feature","properties":{"sgg":"성동구","umd":"금호동4가","edu":34,"n":9,"fee":260000,"p84":193800,"pct":67,"grade":"D"},"geometry":{"type":"Point","coordinates":[127.02095,37.54665]}},{"type":"Feature","properties":{"sgg":"성동구","umd":"성수동2가","edu":10,"n":22,"fee":252500,"p84":185000,"pct":97,"grade":"E"},"geometry":{"type":"Point","coordinates":[127.05631,37.54056]}},{"type":"Feature","properties":{"sgg":"성동구","umd":"송정동","edu":10,"n":6,"fee":null,"p84":113000,"pct":97,"grade":"E"},"geometry":{"type":"Point","coordinates":[127.06719,37.5533]}},{"type":"Feature","properties":{"sgg":"광진구","umd":"구의동","edu":80,"n":60,"fee":250000,"p84":88000,"pct":5,"grade":"A"},"geometry":{"type":"Point","coordinates":[127.09112,37.54337]}},{"type":"Feature","properties":{"sgg":"광진구","umd":"자양동","edu":43,"n":69,"fee":205000,"p84":164000,"pct":51,"grade":"D"},"geometry":{"type":"Point","coordinates":[127.07559,37.5338]}},{"type":"Feature","properties":{"sgg":"광진구","umd":"중곡동","edu":47,"n":29,"fee":205000,"p84":64500,"pct":44,"grade":"C"},"geometry":{"type":"Point","coordinates":[127.08432,37.56078]}},{"type":"Feature","properties":{"sgg":"광진구","umd":"광장동","edu":86,"n":29,"fee":260000,"p84":181000,"pct":2,"grade":"S"},"geometry":{"type":"Point","coordinates":[127.10298,37.54504]}},{"type":"Feature","properties":{"sgg":"광진구","umd":"화양동","edu":21,"n":11,"fee":270000,"p84":88000,"pct":88,"grade":"E"},"geometry":{"type":"Point","coordinates":[127.07139,37.54626]}},{"type":"Feature","properties":{"sgg":"광진구","umd":"군자동","edu":21,"n":8,"fee":null,"p84":98000,"pct":88,"grade":"E"},"geometry":{"type":"Point","coordinates":[127.07057,37.54986]}},{"type":"Feature","properties":{"sgg":"동대문구","umd":"용두동","edu":22,"n":22,"fee":250000,"p84":149500,"pct":86,"grade":"E"},"geometry":{"type":"Point","coordinates":[127.0332,37.57594]}},{"type":"Feature","properties":{"sgg":"동대문구","umd":"휘경동","edu":44,"n":22,"fee":230000,"p84":85500,"pct":49,"grade":"C"},"geometry":{"type":"Point","coordinates":[127.06551,37.58877]}},{"type":"Feature","properties":{"sgg":"동대문구","umd":"답십리동","edu":47,"n":36,"fee":240000,"p84":106500,"pct":44,"grade":"C"},"geometry":{"type":"Point","coordinates":[127.05508,37.57062]}},{"type":"Feature","properties":{"sgg":"동대문구","umd":"전농동","edu":45,"n":13,"fee":232500,"p84":125000,"pct":46,"grade":"C"},"geometry":{"type":"Point","coordinates":[127.05336,37.57914]}},{"type":"Feature","properties":{"sgg":"동대문구","umd":"이문동","edu":54,"n":18,"fee":240000,"p84":103253,"pct":31,"grade":"C"},"geometry":{"type":"Point","coordinates":[127.06399,37.60002]}},{"type":"Feature","properties":{"sgg":"동대문구","umd":"장안동","edu":64,"n":126,"fee":205000,"p84":65000,"pct":17,"grade":"B"},"geometry":{"type":"Point","coordinates":[127.06989,37.56896]}},{"type":"Feature","properties":{"sgg":"동대문구","umd":"제기동","edu":19,"n":15,"fee":247500,"p84":104700,"pct":91,"grade":"E"},"geometry":{"type":"Point","coordinates":[127.03552,37.58352]}},{"type":"Feature","properties":{"sgg":"동대문구","umd":"청량리동","edu":28,"n":8,"fee":215000,"p84":100000,"pct":78,"grade":"E"},"geometry":{"type":"Point","coordinates":[127.04493,37.58708]}},{"type":"Feature","properties":{"sgg":"동대문구","umd":"회기동","edu":45,"n":9,"fee":202500,"p84":97000,"pct":47,"grade":"C"},"geometry":{"type":"Point","coordinates":[127.05277,37.59004]}},{"type":"Feature","properties":{"sgg":"동대문구","umd":"신설동","edu":26,"n":4,"fee":300000,"p84":75500,"pct":81,"grade":"E"},"geometry":{"type":"Point","coordinates":[127.02577,37.57382]}},{"type":"Feature","properties":{"sgg":"중랑구","umd":"상봉동","edu":36,"n":36,"fee":210000,"p84":76500,"pct":64,"grade":"D"},"geometry":{"type":"Point","coordinates":[127.08746,37.59741]}},{"type":"Feature","properties":{"sgg":"중랑구","umd":"묵동","edu":53,"n":43,"fee":202500,"p84":72500,"pct":34,"grade":"C"},"geometry":{"type":"Point","coordinates":[127.07914,37.61382]}},{"type":"Feature","properties":{"sgg":"중랑구","umd":"신내동","edu":58,"n":37,"fee":210000,"p84":65000,"pct":27,"grade":"C"},"geometry":{"type":"Point","coordinates":[127.09818,37.60639]}},{"type":"Feature","properties":{"sgg":"중랑구","umd":"중화동","edu":41,"n":24,"fee":210000,"p84":61500,"pct":55,"grade":"D"},"geometry":{"type":"Point","coordinates":[127.07916,37.60069]}},{"type":"Feature","properties":{"sgg":"중랑구","umd":"면목동","edu":32,"n":62,"fee":200000,"p84":74800,"pct":70,"grade":"D"},"geometry":{"type":"Point","coordinates":[127.08522,37.58316]}},{"type":"Feature","properties":{"sgg":"중랑구","umd":"망우동","edu":48,"n":32,"fee":200000,"p84":61000,"pct":42,"grade":"C"},"geometry":{"type":"Point","coordinates":[127.10184,37.59993]}},{"type":"Feature","properties":{"sgg":"성북구","umd":"종암동","edu":71,"n":16,"fee":220000,"p84":104500,"pct":12,"grade":"B"},"geometry":{"type":"Point","coordinates":[127.03324,37.59874]}},{"type":"Feature","properties":{"sgg":"성북구","umd":"정릉동","edu":52,"n":36,"fee":220500,"p84":73000,"pct":35,"grade":"C"},"geometry":{"type":"Point","coordinates":[127.00957,37.60848]}},{"type":"Feature","properties":{"sgg":"성북구","umd":"돈암동","edu":67,"n":21,"fee":230000,"p84":94000,"pct":15,"grade":"B"},"geometry":{"type":"Point","coordinates":[127.01893,37.5992]}},{"type":"Feature","properties":{"sgg":"성북구","umd":"석관동","edu":60,"n":8,"fee":220000,"p84":90500,"pct":23,"grade":"B"},"geometry":{"type":"Point","coordinates":[127.06141,37.60876]}},{"type":"Feature","properties":{"sgg":"성북구","umd":"길음동","edu":75,"n":18,"fee":225000,"p84":122500,"pct":8,"grade":"A"},"geometry":{"type":"Point","coordinates":[127.02066,37.60819]}},{"type":"Feature","properties":{"sgg":"성북구","umd":"장위동","edu":56,"n":15,"fee":200000,"p84":84500,"pct":30,"grade":"C"},"geometry":{"type":"Point","coordinates":[127.05063,37.61662]}},{"type":"Feature","properties":{"sgg":"성북구","umd":"상월곡동","edu":58,"n":3,"fee":232500,"p84":90000,"pct":27,"grade":"C"},"geometry":{"type":"Point","coordinates":[127.04739,37.60606]}},{"type":"Feature","properties":{"sgg":"성북구","umd":"하월곡동","edu":69,"n":20,"fee":230000,"p84":75000,"pct":14,"grade":"B"},"geometry":{"type":"Point","coordinates":[127.03531,37.60479]}},{"type":"Feature","properties":{"sgg":"성북구","umd":"안암동3가","edu":30,"n":5,"fee":235000,"p84":86000,"pct":73,"grade":"D"},"geometry":{"type":"Point","coordinates":[127.02379,37.58343]}},{"type":"Feature","properties":{"sgg":"성북구","umd":"동소문동6가","edu":71,"n":3,"fee":245000,"p84":59800,"pct":12,"grade":"B"},"geometry":{"type":"Point","coordinates":[127.01338,37.593]}},{"type":"Feature","properties":{"sgg":"강북구","umd":"미아동","edu":46,"n":37,"fee":205000,"p84":78300,"pct":45,"grade":"C"},"geometry":{"type":"Point","coordinates":[127.0258,37.62275]}},{"type":"Feature","properties":{"sgg":"강북구","umd":"수유동","edu":40,"n":45,"fee":190000,"p84":53800,"pct":57,"grade":"D"},"geometry":{"type":"Point","coordinates":[127.01915,37.6401]}},{"type":"Feature","properties":{"sgg":"강북구","umd":"우이동","edu":30,"n":6,"fee":null,"p84":40800,"pct":74,"grade":"D"},"geometry":{"type":"Point","coordinates":[127.01166,37.65708]}},{"type":"Feature","properties":{"sgg":"강북구","umd":"번동","edu":39,"n":28,"fee":180000,"p84":58000,"pct":58,"grade":"D"},"geometry":{"type":"Point","coordinates":[127.0371,37.62988]}},{"type":"Feature","properties":{"sgg":"도봉구","umd":"도봉동","edu":24,"n":18,"fee":205000,"p84":59000,"pct":83,"grade":"E"},"geometry":{"type":"Point","coordinates":[127.04742,37.68183]}},{"type":"Feature","properties":{"sgg":"도봉구","umd":"창동","edu":54,"n":61,"fee":205000,"p84":82500,"pct":32,"grade":"C"},"geometry":{"type":"Point","coordinates":[127.04243,37.64971]}},{"type":"Feature","properties":{"sgg":"도봉구","umd":"쌍문동","edu":59,"n":58,"fee":212500,"p84":52500,"pct":24,"grade":"B"},"geometry":{"type":"Point","coordinates":[127.03093,37.65353]}},{"type":"Feature","properties":{"sgg":"도봉구","umd":"방학동","edu":59,"n":41,"fee":215000,"p84":53000,"pct":25,"grade":"B"},"geometry":{"type":"Point","coordinates":[127.03491,37.66293]}},{"type":"Feature","properties":{"sgg":"노원구","umd":"하계동","edu":65,"n":19,"fee":222500,"p84":88000,"pct":17,"grade":"B"},"geometry":{"type":"Point","coordinates":[127.0696,37.6372]}},{"type":"Feature","properties":{"sgg":"노원구","umd":"공릉동","edu":55,"n":79,"fee":200000,"p84":63500,"pct":30,"grade":"C"},"geometry":{"type":"Point","coordinates":[127.07633,37.62398]}},{"type":"Feature","properties":{"sgg":"노원구","umd":"상계동","edu":52,"n":91,"fee":230000,"p84":68500,"pct":35,"grade":"C"},"geometry":{"type":"Point","coordinates":[127.06261,37.66561]}},{"type":"Feature","properties":{"sgg":"노원구","umd":"월계동","edu":34,"n":41,"fee":230000,"p84":75000,"pct":67,"grade":"D"},"geometry":{"type":"Point","coordinates":[127.05768,37.62556]}},{"type":"Feature","properties":{"sgg":"노원구","umd":"중계동","edu":93,"n":57,"fee":290000,"p84":81300,"pct":1,"grade":"S"},"geometry":{"type":"Point","coordinates":[127.07579,37.65163]}},{"type":"Feature","properties":{"sgg":"은평구","umd":"진관동","edu":58,"n":39,"fee":250000,"p84":92000,"pct":27,"grade":"C"},"geometry":{"type":"Point","coordinates":[126.92678,37.63878]}},{"type":"Feature","properties":{"sgg":"은평구","umd":"응암동","edu":56,"n":77,"fee":225000,"p84":65000,"pct":30,"grade":"C"},"geometry":{"type":"Point","coordinates":[126.92096,37.59566]}},{"type":"Feature","properties":{"sgg":"은평구","umd":"불광동","edu":29,"n":37,"fee":190000,"p84":66000,"pct":76,"grade":"E"},"geometry":{"type":"Point","coordinates":[126.92968,37.61786]}},{"type":"Feature","properties":{"sgg":"은평구","umd":"녹번동","edu":51,"n":24,"fee":210000,"p84":85000,"pct":37,"grade":"C"},"geometry":{"type":"Point","coordinates":[126.9294,37.60335]}},{"type":"Feature","properties":{"sgg":"은평구","umd":"대조동","edu":54,"n":46,"fee":212500,"p84":55700,"pct":32,"grade":"C"},"geometry":{"type":"Point","coordinates":[126.92595,37.61166]}},{"type":"Feature","properties":{"sgg":"은평구","umd":"증산동","edu":44,"n":29,"fee":217500,"p84":71500,"pct":49,"grade":"C"},"geometry":{"type":"Point","coordinates":[126.90708,37.58287]}},{"type":"Feature","properties":{"sgg":"은평구","umd":"구산동","edu":61,"n":28,"fee":237500,"p84":46500,"pct":22,"grade":"B"},"geometry":{"type":"Point","coordinates":[126.90826,37.61234]}},{"type":"Feature","properties":{"sgg":"은평구","umd":"갈현동","edu":60,"n":23,"fee":230000,"p84":56000,"pct":23,"grade":"B"},"geometry":{"type":"Point","coordinates":[126.91367,37.61936]}},{"type":"Feature","properties":{"sgg":"은평구","umd":"수색동","edu":32,"n":10,"fee":230000,"p84":138800,"pct":71,"grade":"D"},"geometry":{"type":"Point","coordinates":[126.89758,37.58374]}},{"type":"Feature","properties":{"sgg":"은평구","umd":"신사동","edu":49,"n":46,"fee":230000,"p84":56500,"pct":40,"grade":"C"},"geometry":{"type":"Point","coordinates":[126.90916,37.59653]}},{"type":"Feature","properties":{"sgg":"은평구","umd":"역촌동","edu":74,"n":44,"fee":230000,"p84":52000,"pct":9,"grade":"A"},"geometry":{"type":"Point","coordinates":[126.91473,37.60419]}},{"type":"Feature","properties":{"sgg":"서대문구","umd":"연희동","edu":45,"n":34,"fee":280000,"p84":60000,"pct":47,"grade":"C"},"geometry":{"type":"Point","coordinates":[126.93126,37.57296]}},{"type":"Feature","properties":{"sgg":"서대문구","umd":"홍제동","edu":31,"n":48,"fee":265000,"p84":75000,"pct":73,"grade":"D"},"geometry":{"type":"Point","coordinates":[126.94652,37.58633]}},{"type":"Feature","properties":{"sgg":"서대문구","umd":"창천동","edu":39,"n":8,"fee":null,"p84":64500,"pct":59,"grade":"D"},"geometry":{"type":"Point","coordinates":[126.9291,37.55956]}},{"type":"Feature","properties":{"sgg":"서대문구","umd":"북가좌동","edu":77,"n":23,"fee":250000,"p84":85000,"pct":6,"grade":"A"},"geometry":{"type":"Point","coordinates":[126.91189,37.5791]}},{"type":"Feature","properties":{"sgg":"서대문구","umd":"북아현동","edu":30,"n":23,"fee":235000,"p84":130000,"pct":74,"grade":"D"},"geometry":{"type":"Point","coordinates":[126.95463,37.56183]}},{"type":"Feature","properties":{"sgg":"서대문구","umd":"홍은동","edu":43,"n":55,"fee":232500,"p84":67000,"pct":52,"grade":"D"},"geometry":{"type":"Point","coordinates":[126.93866,37.59123]}},{"type":"Feature","properties":{"sgg":"서대문구","umd":"남가좌동","edu":66,"n":17,"fee":260000,"p84":145000,"pct":16,"grade":"B"},"geometry":{"type":"Point","coordinates":[126.91793,37.57397]}},{"type":"Feature","properties":{"sgg":"서대문구","umd":"대현동","edu":44,"n":6,"fee":240000,"p84":142000,"pct":49,"grade":"C"},"geometry":{"type":"Point","coordinates":[126.94437,37.55774]}},{"type":"Feature","properties":{"sgg":"서대문구","umd":"충정로3가","edu":34,"n":10,"fee":242500,"p84":111000,"pct":67,"grade":"D"},"geometry":{"type":"Point","coordinates":[126.96249,37.5622]}},{"type":"Feature","properties":{"sgg":"마포구","umd":"도화동","edu":77,"n":12,"fee":265000,"p84":130000,"pct":6,"grade":"A"},"geometry":{"type":"Point","coordinates":[126.94921,37.54013]}},{"type":"Feature","properties":{"sgg":"마포구","umd":"창전동","edu":48,"n":13,"fee":250000,"p84":170000,"pct":42,"grade":"C"},"geometry":{"type":"Point","coordinates":[126.93024,37.54995]}},{"type":"Feature","properties":{"sgg":"마포구","umd":"신수동","edu":75,"n":14,"fee":267500,"p84":149000,"pct":8,"grade":"A"},"geometry":{"type":"Point","coordinates":[126.93586,37.5482]}},{"type":"Feature","properties":{"sgg":"마포구","umd":"상암동","edu":40,"n":13,"fee":252500,"p84":122000,"pct":57,"grade":"D"},"geometry":{"type":"Point","coordinates":[126.8871,37.57951]}},{"type":"Feature","properties":{"sgg":"마포구","umd":"서교동","edu":28,"n":14,"fee":235000,"p84":85000,"pct":78,"grade":"E"},"geometry":{"type":"Point","coordinates":[126.91727,37.5558]}},{"type":"Feature","properties":{"sgg":"마포구","umd":"아현동","edu":60,"n":13,"fee":240000,"p84":198500,"pct":23,"grade":"B"},"geometry":{"type":"Point","coordinates":[126.95554,37.55454]}},{"type":"Feature","properties":{"sgg":"마포구","umd":"대흥동","edu":78,"n":8,"fee":257500,"p84":240000,"pct":5,"grade":"A"},"geometry":{"type":"Point","coordinates":[126.94327,37.55058]}},{"type":"Feature","properties":{"sgg":"마포구","umd":"성산동","edu":51,"n":25,"fee":260000,"p84":79000,"pct":37,"grade":"C"},"geometry":{"type":"Point","coordinates":[126.90953,37.56474]}},{"type":"Feature","properties":{"sgg":"마포구","umd":"공덕동","edu":78,"n":17,"fee":252500,"p84":190000,"pct":5,"grade":"A"},"geometry":{"type":"Point","coordinates":[126.95372,37.54789]}},{"type":"Feature","properties":{"sgg":"마포구","umd":"망원동","edu":23,"n":63,"fee":235000,"p84":84000,"pct":84,"grade":"E"},"geometry":{"type":"Point","coordinates":[126.90217,37.5578]}},{"type":"Feature","properties":{"sgg":"마포구","umd":"염리동","edu":86,"n":9,"fee":257500,"p84":207000,"pct":2,"grade":"S"},"geometry":{"type":"Point","coordinates":[126.94707,37.54889]}},{"type":"Feature","properties":{"sgg":"마포구","umd":"현석동","edu":72,"n":5,"fee":250000,"p84":199200,"pct":12,"grade":"B"},"geometry":{"type":"Point","coordinates":[126.93435,37.54266]}},{"type":"Feature","properties":{"sgg":"마포구","umd":"용강동","edu":77,"n":8,"fee":270000,"p84":204000,"pct":6,"grade":"A"},"geometry":{"type":"Point","coordinates":[126.94051,37.54178]}},{"type":"Feature","properties":{"sgg":"마포구","umd":"합정동","edu":23,"n":18,"fee":245000,"p84":105000,"pct":84,"grade":"E"},"geometry":{"type":"Point","coordinates":[126.91291,37.54811]}},{"type":"Feature","properties":{"sgg":"마포구","umd":"상수동","edu":26,"n":6,"fee":245000,"p84":223000,"pct":81,"grade":"E"},"geometry":{"type":"Point","coordinates":[126.92488,37.54573]}},{"type":"Feature","properties":{"sgg":"마포구","umd":"신공덕동","edu":71,"n":13,"fee":255000,"p84":200000,"pct":13,"grade":"B"},"geometry":{"type":"Point","coordinates":[126.95536,37.54415]}},{"type":"Feature","properties":{"sgg":"마포구","umd":"연남동","edu":27,"n":13,"fee":260000,"p84":80000,"pct":79,"grade":"E"},"geometry":{"type":"Point","coordinates":[126.92084,37.56328]}},{"type":"Feature","properties":{"sgg":"마포구","umd":"마포동","edu":60,"n":4,"fee":270000,"p84":134000,"pct":23,"grade":"B"},"geometry":{"type":"Point","coordinates":[126.94538,37.53647]}},{"type":"Feature","properties":{"sgg":"마포구","umd":"중동","edu":58,"n":10,"fee":260000,"p84":102000,"pct":27,"grade":"C"},"geometry":{"type":"Point","coordinates":[126.90664,37.57117]}},{"type":"Feature","properties":{"sgg":"마포구","umd":"노고산동","edu":59,"n":4,"fee":255000,"p84":null,"pct":25,"grade":"B"},"geometry":{"type":"Point","coordinates":[126.9392,37.55463]}},{"type":"Feature","properties":{"sgg":"양천구","umd":"목동","edu":88,"n":112,"fee":282500,"p84":107000,"pct":1,"grade":"S"},"geometry":{"type":"Point","coordinates":[126.87072,37.5365]}},{"type":"Feature","properties":{"sgg":"양천구","umd":"신월동","edu":62,"n":156,"fee":220000,"p84":55000,"pct":20,"grade":"B"},"geometry":{"type":"Point","coordinates":[126.83784,37.52654]}},{"type":"Feature","properties":{"sgg":"양천구","umd":"신정동","edu":73,"n":113,"fee":250000,"p84":87000,"pct":10,"grade":"A"},"geometry":{"type":"Point","coordinates":[126.85802,37.51964]}},{"type":"Feature","properties":{"sgg":"강서구","umd":"등촌동","edu":44,"n":60,"fee":220000,"p84":85000,"pct":50,"grade":"C"},"geometry":{"type":"Point","coordinates":[126.857,37.55478]}},{"type":"Feature","properties":{"sgg":"강서구","umd":"마곡동","edu":44,"n":36,"fee":235000,"p84":105000,"pct":50,"grade":"C"},"geometry":{"type":"Point","coordinates":[126.82225,37.56784]}},{"type":"Feature","properties":{"sgg":"강서구","umd":"가양동","edu":17,"n":21,"fee":227750,"p84":116000,"pct":92,"grade":"E"},"geometry":{"type":"Point","coordinates":[126.85013,37.56656]}},{"type":"Feature","properties":{"sgg":"강서구","umd":"염창동","edu":59,"n":64,"fee":230000,"p84":109000,"pct":25,"grade":"B"},"geometry":{"type":"Point","coordinates":[126.87144,37.55231]}},{"type":"Feature","properties":{"sgg":"강서구","umd":"화곡동","edu":55,"n":198,"fee":210000,"p84":55000,"pct":31,"grade":"C"},"geometry":{"type":"Point","coordinates":[126.84478,37.5369]}},{"type":"Feature","properties":{"sgg":"강서구","umd":"내발산동","edu":83,"n":79,"fee":247500,"p84":67700,"pct":3,"grade":"S"},"geometry":{"type":"Point","coordinates":[126.8359,37.5526]}},{"type":"Feature","properties":{"sgg":"강서구","umd":"방화동","edu":39,"n":55,"fee":240000,"p84":75000,"pct":59,"grade":"D"},"geometry":{"type":"Point","coordinates":[126.81215,37.57275]}},{"type":"Feature","properties":{"sgg":"강서구","umd":"공항동","edu":38,"n":8,"fee":232500,"p84":55000,"pct":61,"grade":"D"},"geometry":{"type":"Point","coordinates":[126.81213,37.56156]}},{"type":"Feature","properties":{"sgg":"구로구","umd":"구로동","edu":30,"n":206,"fee":195000,"p84":69500,"pct":74,"grade":"D"},"geometry":{"type":"Point","coordinates":[126.88755,37.49125]}},{"type":"Feature","properties":{"sgg":"구로구","umd":"신도림동","edu":62,"n":23,"fee":220000,"p84":125000,"pct":21,"grade":"B"},"geometry":{"type":"Point","coordinates":[126.88399,37.5087]}},{"type":"Feature","properties":{"sgg":"구로구","umd":"오류동","edu":23,"n":40,"fee":190000,"p84":54000,"pct":85,"grade":"E"},"geometry":{"type":"Point","coordinates":[126.83824,37.49277]}},{"type":"Feature","properties":{"sgg":"구로구","umd":"개봉동","edu":48,"n":40,"fee":197500,"p84":60000,"pct":43,"grade":"C"},"geometry":{"type":"Point","coordinates":[126.85313,37.49402]}},{"type":"Feature","properties":{"sgg":"구로구","umd":"고척동","edu":50,"n":34,"fee":210000,"p84":65500,"pct":39,"grade":"C"},"geometry":{"type":"Point","coordinates":[126.85949,37.50372]}},{"type":"Feature","properties":{"sgg":"구로구","umd":"항동","edu":37,"n":9,"fee":210000,"p84":78500,"pct":63,"grade":"D"},"geometry":{"type":"Point","coordinates":[126.82193,37.48052]}},{"type":"Feature","properties":{"sgg":"구로구","umd":"천왕동","edu":43,"n":8,"fee":180000,"p84":78700,"pct":52,"grade":"D"},"geometry":{"type":"Point","coordinates":[126.84022,37.48277]}},{"type":"Feature","properties":{"sgg":"구로구","umd":"궁동","edu":29,"n":8,"fee":190000,"p84":47500,"pct":76,"grade":"E"},"geometry":{"type":"Point","coordinates":[126.83111,37.49675]}},{"type":"Feature","properties":{"sgg":"구로구","umd":"온수동","edu":33,"n":6,"fee":210000,"p84":47000,"pct":69,"grade":"D"},"geometry":{"type":"Point","coordinates":[126.81909,37.49538]}},{"type":"Feature","properties":{"sgg":"금천구","umd":"가산동","edu":11,"n":16,"fee":200000,"p84":48500,"pct":96,"grade":"E"},"geometry":{"type":"Point","coordinates":[126.89108,37.47594]}},{"type":"Feature","properties":{"sgg":"금천구","umd":"독산동","edu":30,"n":62,"fee":200000,"p84":59000,"pct":74,"grade":"D"},"geometry":{"type":"Point","coordinates":[126.89912,37.46994]}},{"type":"Feature","properties":{"sgg":"금천구","umd":"시흥동","edu":39,"n":47,"fee":235000,"p84":55400,"pct":59,"grade":"D"},"geometry":{"type":"Point","coordinates":[126.90639,37.45034]}},{"type":"Feature","properties":{"sgg":"영등포구","umd":"신길동","edu":65,"n":50,"fee":232500,"p84":117500,"pct":17,"grade":"B"},"geometry":{"type":"Point","coordinates":[126.91454,37.50497]}},{"type":"Feature","properties":{"sgg":"영등포구","umd":"당산동3가","edu":49,"n":8,"fee":235000,"p84":147800,"pct":40,"grade":"C"},"geometry":{"type":"Point","coordinates":[126.89772,37.5257]}},{"type":"Feature","properties":{"sgg":"영등포구","umd":"여의도동","edu":49,"n":26,"fee":360000,"p84":295000,"pct":40,"grade":"C"},"geometry":{"type":"Point","coordinates":[126.93128,37.52159]}},{"type":"Feature","properties":{"sgg":"영등포구","umd":"영등포동7가","edu":23,"n":9,"fee":233500,"p84":156500,"pct":85,"grade":"E"},"geometry":{"type":"Point","coordinates":[126.90832,37.52437]}},{"type":"Feature","properties":{"sgg":"영등포구","umd":"대림동","edu":41,"n":29,"fee":237500,"p84":85000,"pct":55,"grade":"D"},"geometry":{"type":"Point","coordinates":[126.90067,37.4947]}},{"type":"Feature","properties":{"sgg":"영등포구","umd":"영등포동","edu":28,"n":6,"fee":250000,"p84":123000,"pct":78,"grade":"E"},"geometry":{"type":"Point","coordinates":[126.9096,37.51481]}},{"type":"Feature","properties":{"sgg":"영등포구","umd":"문래동5가","edu":54,"n":5,"fee":220000,"p84":121000,"pct":32,"grade":"C"},"geometry":{"type":"Point","coordinates":[126.8857,37.51693]}},{"type":"Feature","properties":{"sgg":"영등포구","umd":"당산동4가","edu":45,"n":10,"fee":235000,"p84":152000,"pct":47,"grade":"C"},"geometry":{"type":"Point","coordinates":[126.90001,37.52877]}},{"type":"Feature","properties":{"sgg":"영등포구","umd":"양평동2가","edu":64,"n":4,"fee":240000,"p84":93900,"pct":18,"grade":"B"},"geometry":{"type":"Point","coordinates":[126.88282,37.52338]}},{"type":"Feature","properties":{"sgg":"영등포구","umd":"양평동4가","edu":52,"n":7,"fee":251500,"p84":94000,"pct":36,"grade":"C"},"geometry":{"type":"Point","coordinates":[126.89604,37.53662]}},{"type":"Feature","properties":{"sgg":"영등포구","umd":"문래동3가","edu":49,"n":11,"fee":220000,"p84":108000,"pct":41,"grade":"C"},"geometry":{"type":"Point","coordinates":[126.89447,37.5178]}},{"type":"Feature","properties":{"sgg":"영등포구","umd":"도림동","edu":41,"n":5,"fee":230000,"p84":90000,"pct":56,"grade":"D"},"geometry":{"type":"Point","coordinates":[126.89795,37.50868]}},{"type":"Feature","properties":{"sgg":"영등포구","umd":"당산동5가","edu":44,"n":8,"fee":235000,"p84":174000,"pct":50,"grade":"C"},"geometry":{"type":"Point","coordinates":[126.90114,37.53225]}},{"type":"Feature","properties":{"sgg":"영등포구","umd":"양평동1가","edu":43,"n":7,"fee":210000,"p84":95000,"pct":52,"grade":"D"},"geometry":{"type":"Point","coordinates":[126.88797,37.52327]}},{"type":"Feature","properties":{"sgg":"영등포구","umd":"당산동","edu":37,"n":12,"fee":280000,"p84":103000,"pct":63,"grade":"D"},"geometry":{"type":"Point","coordinates":[126.90775,37.5286]}},{"type":"Feature","properties":{"sgg":"영등포구","umd":"영등포동1가","edu":18,"n":7,"fee":250000,"p84":83000,"pct":92,"grade":"E"},"geometry":{"type":"Point","coordinates":[126.91319,37.51775]}},{"type":"Feature","properties":{"sgg":"영등포구","umd":"문래동6가","edu":63,"n":10,"fee":220000,"p84":103000,"pct":19,"grade":"B"},"geometry":{"type":"Point","coordinates":[126.885,37.51946]}},{"type":"Feature","properties":{"sgg":"영등포구","umd":"양평동3가","edu":54,"n":13,"fee":231000,"p84":117000,"pct":32,"grade":"C"},"geometry":{"type":"Point","coordinates":[126.89062,37.52885]}},{"type":"Feature","properties":{"sgg":"영등포구","umd":"영등포동8가","edu":38,"n":3,"fee":248000,"p84":158500,"pct":61,"grade":"D"},"geometry":{"type":"Point","coordinates":[126.90577,37.52882]}},{"type":"Feature","properties":{"sgg":"영등포구","umd":"당산동1가","edu":36,"n":3,"fee":227500,"p84":164700,"pct":64,"grade":"D"},"geometry":{"type":"Point","coordinates":[126.89866,37.52014]}},{"type":"Feature","properties":{"sgg":"영등포구","umd":"양평동6가","edu":42,"n":4,"fee":252500,"p84":88000,"pct":54,"grade":"D"},"geometry":{"type":"Point","coordinates":[126.88852,37.54374]}},{"type":"Feature","properties":{"sgg":"영등포구","umd":"문래동4가","edu":63,"n":3,"fee":220000,"p84":125000,"pct":19,"grade":"B"},"geometry":{"type":"Point","coordinates":[126.88946,37.51374]}},{"type":"Feature","properties":{"sgg":"영등포구","umd":"영등포동2가","edu":21,"n":4,"fee":null,"p84":null,"pct":88,"grade":"E"},"geometry":{"type":"Point","coordinates":[126.91063,37.52148]}},{"type":"Feature","properties":{"sgg":"동작구","umd":"본동","edu":39,"n":8,"fee":215000,"p84":153000,"pct":59,"grade":"D"},"geometry":{"type":"Point","coordinates":[126.95159,37.51143]}},{"type":"Feature","properties":{"sgg":"동작구","umd":"대방동","edu":64,"n":24,"fee":247500,"p84":105000,"pct":18,"grade":"B"},"geometry":{"type":"Point","coordinates":[126.92722,37.50838]}},{"type":"Feature","properties":{"sgg":"동작구","umd":"신대방동","edu":61,"n":29,"fee":230000,"p84":118000,"pct":22,"grade":"B"},"geometry":{"type":"Point","coordinates":[126.91912,37.49312]}},{"type":"Feature","properties":{"sgg":"동작구","umd":"노량진동","edu":44,"n":10,"fee":230000,"p84":161000,"pct":50,"grade":"C"},"geometry":{"type":"Point","coordinates":[126.94417,37.50919]}},{"type":"Feature","properties":{"sgg":"동작구","umd":"사당동","edu":48,"n":52,"fee":250000,"p84":114800,"pct":43,"grade":"C"},"geometry":{"type":"Point","coordinates":[126.97147,37.48608]}},{"type":"Feature","properties":{"sgg":"동작구","umd":"상도동","edu":52,"n":62,"fee":237500,"p84":105000,"pct":36,"grade":"C"},"geometry":{"type":"Point","coordinates":[126.94437,37.4989]}},{"type":"Feature","properties":{"sgg":"동작구","umd":"흑석동","edu":43,"n":14,"fee":227500,"p84":230000,"pct":52,"grade":"D"},"geometry":{"type":"Point","coordinates":[126.96253,37.50511]}},{"type":"Feature","properties":{"sgg":"동작구","umd":"동작동","edu":63,"n":5,"fee":280000,"p84":158000,"pct":19,"grade":"B"},"geometry":{"type":"Point","coordinates":[126.98042,37.49603]}},{"type":"Feature","properties":{"sgg":"동작구","umd":"상도1동","edu":63,"n":5,"fee":220000,"p84":56000,"pct":19,"grade":"B"},"geometry":{"type":"Point","coordinates":[126.95205,37.50404]}},{"type":"Feature","properties":{"sgg":"관악구","umd":"봉천동","edu":40,"n":122,"fee":230000,"p84":81000,"pct":57,"grade":"D"},"geometry":{"type":"Point","coordinates":[126.95126,37.48174]}},{"type":"Feature","properties":{"sgg":"관악구","umd":"신림동","edu":31,"n":81,"fee":220000,"p84":69000,"pct":73,"grade":"D"},"geometry":{"type":"Point","coordinates":[126.92353,37.47515]}},{"type":"Feature","properties":{"sgg":"관악구","umd":"남현동","edu":20,"n":36,"fee":260000,"p84":73500,"pct":90,"grade":"E"},"geometry":{"type":"Point","coordinates":[126.97706,37.47297]}},{"type":"Feature","properties":{"sgg":"서초구","umd":"반포동","edu":86,"n":64,"fee":380000,"p84":220000,"pct":2,"grade":"S"},"geometry":{"type":"Point","coordinates":[127.00384,37.50007]}},{"type":"Feature","properties":{"sgg":"서초구","umd":"우면동","edu":25,"n":15,"fee":301000,"p84":167000,"pct":82,"grade":"E"},"geometry":{"type":"Point","coordinates":[127.02281,37.46356]}},{"type":"Feature","properties":{"sgg":"서초구","umd":"양재동","edu":54,"n":40,"fee":300000,"p84":116000,"pct":32,"grade":"C"},"geometry":{"type":"Point","coordinates":[127.0411,37.47673]}},{"type":"Feature","properties":{"sgg":"서초구","umd":"방배동","edu":77,"n":161,"fee":280000,"p84":175000,"pct":7,"grade":"A"},"geometry":{"type":"Point","coordinates":[126.99312,37.48654]}},{"type":"Feature","properties":{"sgg":"서초구","umd":"잠원동","edu":82,"n":55,"fee":350000,"p84":315000,"pct":4,"grade":"A"},"geometry":{"type":"Point","coordinates":[127.01065,37.51317]}},{"type":"Feature","properties":{"sgg":"서초구","umd":"서초동","edu":73,"n":160,"fee":350000,"p84":175500,"pct":10,"grade":"A"},"geometry":{"type":"Point","coordinates":[127.01628,37.48844]}},{"type":"Feature","properties":{"sgg":"서초구","umd":"신원동","edu":15,"n":5,"fee":null,"p84":198000,"pct":93,"grade":"E"},"geometry":{"type":"Point","coordinates":[127.05719,37.4522]}},{"type":"Feature","properties":{"sgg":"강남구","umd":"역삼동","edu":71,"n":70,"fee":400000,"p84":200000,"pct":13,"grade":"B"},"geometry":{"type":"Point","coordinates":[127.04063,37.49884]}},{"type":"Feature","properties":{"sgg":"강남구","umd":"압구정동","edu":62,"n":23,"fee":460000,"p84":510000,"pct":21,"grade":"B"},"geometry":{"type":"Point","coordinates":[127.03123,37.52972]}},{"type":"Feature","properties":{"sgg":"강남구","umd":"대치동","edu":95,"n":55,"fee":427500,"p84":310000,"pct":1,"grade":"S"},"geometry":{"type":"Point","coordinates":[127.05911,37.49937]}},{"type":"Feature","properties":{"sgg":"강남구","umd":"개포동","edu":61,"n":34,"fee":255000,"p84":325000,"pct":22,"grade":"B"},"geometry":{"type":"Point","coordinates":[127.05913,37.48265]}},{"type":"Feature","properties":{"sgg":"강남구","umd":"도곡동","edu":67,"n":56,"fee":379500,"p84":240000,"pct":15,"grade":"B"},"geometry":{"type":"Point","coordinates":[127.04307,37.48817]}},{"type":"Feature","properties":{"sgg":"강남구","umd":"수서동","edu":40,"n":8,"fee":290000,"p84":250000,"pct":57,"grade":"D"},"geometry":{"type":"Point","coordinates":[127.09544,37.48536]}},{"type":"Feature","properties":{"sgg":"강남구","umd":"청담동","edu":32,"n":69,"fee":290000,"p84":249000,"pct":71,"grade":"D"},"geometry":{"type":"Point","coordinates":[127.04906,37.52421]}},{"type":"Feature","properties":{"sgg":"강남구","umd":"삼성동","edu":50,"n":64,"fee":272500,"p84":245000,"pct":39,"grade":"C"},"geometry":{"type":"Point","coordinates":[127.05369,37.51479]}},{"type":"Feature","properties":{"sgg":"강남구","umd":"논현동","edu":39,"n":49,"fee":305000,"p84":155000,"pct":59,"grade":"D"},"geometry":{"type":"Point","coordinates":[127.0331,37.51348]}},{"type":"Feature","properties":{"sgg":"강남구","umd":"일원동","edu":59,"n":14,"fee":290000,"p84":290000,"pct":25,"grade":"B"},"geometry":{"type":"Point","coordinates":[127.08123,37.48783]}},{"type":"Feature","properties":{"sgg":"강남구","umd":"세곡동","edu":30,"n":6,"fee":245000,"p84":186000,"pct":75,"grade":"D"},"geometry":{"type":"Point","coordinates":[127.10078,37.46434]}},{"type":"Feature","properties":{"sgg":"강남구","umd":"자곡동","edu":44,"n":6,"fee":259000,"p84":215000,"pct":50,"grade":"C"},"geometry":{"type":"Point","coordinates":[127.09964,37.47381]}},{"type":"Feature","properties":{"sgg":"강남구","umd":"신사동","edu":71,"n":15,"fee":400000,"p84":147000,"pct":13,"grade":"B"},"geometry":{"type":"Point","coordinates":[127.0284,37.52355]}},{"type":"Feature","properties":{"sgg":"송파구","umd":"마천동","edu":50,"n":24,"fee":205000,"p84":104000,"pct":39,"grade":"C"},"geometry":{"type":"Point","coordinates":[127.15059,37.49849]}},{"type":"Feature","properties":{"sgg":"송파구","umd":"신천동","edu":53,"n":14,"fee":200000,"p84":300000,"pct":35,"grade":"C"},"geometry":{"type":"Point","coordinates":[127.10306,37.51731]}},{"type":"Feature","properties":{"sgg":"송파구","umd":"가락동","edu":66,"n":67,"fee":210000,"p84":122500,"pct":16,"grade":"B"},"geometry":{"type":"Point","coordinates":[127.12616,37.49653]}},{"type":"Feature","properties":{"sgg":"송파구","umd":"문정동","edu":46,"n":36,"fee":230000,"p84":105000,"pct":46,"grade":"C"},"geometry":{"type":"Point","coordinates":[127.12783,37.48607]}},{"type":"Feature","properties":{"sgg":"송파구","umd":"거여동","edu":59,"n":25,"fee":215000,"p84":128000,"pct":26,"grade":"C"},"geometry":{"type":"Point","coordinates":[127.14509,37.49173]}},{"type":"Feature","properties":{"sgg":"송파구","umd":"풍납동","edu":22,"n":28,"fee":257000,"p84":119000,"pct":86,"grade":"E"},"geometry":{"type":"Point","coordinates":[127.11585,37.53211]}},{"type":"Feature","properties":{"sgg":"송파구","umd":"잠실동","edu":82,"n":17,"fee":255000,"p84":297000,"pct":4,"grade":"A"},"geometry":{"type":"Point","coordinates":[127.08491,37.50819]}},{"type":"Feature","properties":{"sgg":"송파구","umd":"장지동","edu":57,"n":23,"fee":245000,"p84":199500,"pct":29,"grade":"C"},"geometry":{"type":"Point","coordinates":[127.13506,37.47927]}},{"type":"Feature","properties":{"sgg":"송파구","umd":"방이동","edu":78,"n":52,"fee":250000,"p84":89000,"pct":5,"grade":"A"},"geometry":{"type":"Point","coordinates":[127.11961,37.51262]}},{"type":"Feature","properties":{"sgg":"송파구","umd":"오금동","edu":66,"n":35,"fee":240000,"p84":132500,"pct":16,"grade":"B"},"geometry":{"type":"Point","coordinates":[127.13462,37.50462]}},{"type":"Feature","properties":{"sgg":"송파구","umd":"송파동","edu":63,"n":31,"fee":240000,"p84":159000,"pct":20,"grade":"B"},"geometry":{"type":"Point","coordinates":[127.11308,37.50614]}},{"type":"Feature","properties":{"sgg":"송파구","umd":"석촌동","edu":57,"n":13,"fee":250000,"p84":85000,"pct":29,"grade":"C"},"geometry":{"type":"Point","coordinates":[127.10136,37.5021]}},{"type":"Feature","properties":{"sgg":"송파구","umd":"삼전동","edu":75,"n":7,"fee":227500,"p84":85000,"pct":8,"grade":"A"},"geometry":{"type":"Point","coordinates":[127.09014,37.50038]}},{"type":"Feature","properties":{"sgg":"강동구","umd":"천호동","edu":48,"n":95,"fee":250000,"p84":72000,"pct":43,"grade":"C"},"geometry":{"type":"Point","coordinates":[127.1339,37.54348]}},{"type":"Feature","properties":{"sgg":"강동구","umd":"둔촌동","edu":49,"n":42,"fee":280000,"p84":97000,"pct":41,"grade":"C"},"geometry":{"type":"Point","coordinates":[127.14211,37.53107]}},{"type":"Feature","properties":{"sgg":"강동구","umd":"고덕동","edu":89,"n":8,"fee":222500,"p84":189000,"pct":1,"grade":"S"},"geometry":{"type":"Point","coordinates":[127.15597,37.55879]}},{"type":"Feature","properties":{"sgg":"강동구","umd":"명일동","edu":90,"n":34,"fee":240000,"p84":93000,"pct":1,"grade":"S"},"geometry":{"type":"Point","coordinates":[127.1471,37.54932]}},{"type":"Feature","properties":{"sgg":"강동구","umd":"길동","edu":44,"n":99,"fee":270000,"p84":69900,"pct":51,"grade":"D"},"geometry":{"type":"Point","coordinates":[127.14119,37.53856]}},{"type":"Feature","properties":{"sgg":"강동구","umd":"상일동","edu":76,"n":10,"fee":235000,"p84":185000,"pct":7,"grade":"A"},"geometry":{"type":"Point","coordinates":[127.16716,37.55113]}},{"type":"Feature","properties":{"sgg":"강동구","umd":"암사동","edu":60,"n":40,"fee":220000,"p84":84900,"pct":24,"grade":"B"},"geometry":{"type":"Point","coordinates":[127.13173,37.55284]}},{"type":"Feature","properties":{"sgg":"강동구","umd":"강일동","edu":76,"n":15,"fee":230000,"p84":131500,"pct":7,"grade":"A"},"geometry":{"type":"Point","coordinates":[127.17582,37.56583]}},{"type":"Feature","properties":{"sgg":"강동구","umd":"성내동","edu":51,"n":102,"fee":267500,"p84":83000,"pct":37,"grade":"C"},"geometry":{"type":"Point","coordinates":[127.13015,37.52947]}},{"type":"Feature","properties":{"sgg":"수원시 영통구","umd":"망포동","edu":86,"n":33,"fee":220000,"p84":74000,"pct":2,"grade":"S"},"geometry":{"type":"Point","coordinates":[127.05372,37.24062]}},{"type":"Feature","properties":{"sgg":"수원시 영통구","umd":"영통동","edu":71,"n":45,"fee":232000,"p84":85000,"pct":13,"grade":"B"},"geometry":{"type":"Point","coordinates":[127.07117,37.25445]}},{"type":"Feature","properties":{"sgg":"수원시 영통구","umd":"원천동","edu":41,"n":13,"fee":217500,"p84":148000,"pct":56,"grade":"D"},"geometry":{"type":"Point","coordinates":[127.05784,37.27167]}},{"type":"Feature","properties":{"sgg":"수원시 영통구","umd":"매탄동","edu":58,"n":29,"fee":215000,"p84":52200,"pct":28,"grade":"C"},"geometry":{"type":"Point","coordinates":[127.04572,37.26598]}},{"type":"Feature","properties":{"sgg":"수원시 영통구","umd":"하동","edu":37,"n":7,"fee":239000,"p84":98500,"pct":63,"grade":"D"},"geometry":{"type":"Point","coordinates":[127.07055,37.28558]}},{"type":"Feature","properties":{"sgg":"수원시 영통구","umd":"이의동","edu":68,"n":19,"fee":275000,"p84":153000,"pct":14,"grade":"B"},"geometry":{"type":"Point","coordinates":[127.05025,37.29559]}},{"type":"Feature","properties":{"sgg":"성남시 수정구","umd":"창곡동","edu":70,"n":16,"fee":221250,"p84":184000,"pct":14,"grade":"B"},"geometry":{"type":"Point","coordinates":[127.14482,37.46916]}},{"type":"Feature","properties":{"sgg":"성남시 수정구","umd":"신흥동","edu":45,"n":20,"fee":225000,"p84":79800,"pct":47,"grade":"C"},"geometry":{"type":"Point","coordinates":[127.14672,37.44633]}},{"type":"Feature","properties":{"sgg":"성남시 수정구","umd":"태평동","edu":33,"n":18,"fee":205000,"p84":62000,"pct":69,"grade":"D"},"geometry":{"type":"Point","coordinates":[127.13424,37.44536]}},{"type":"Feature","properties":{"sgg":"성남시 수정구","umd":"단대동","edu":45,"n":10,"fee":227500,"p84":82000,"pct":48,"grade":"C"},"geometry":{"type":"Point","coordinates":[127.15692,37.45293]}},{"type":"Feature","properties":{"sgg":"성남시 수정구","umd":"고등동","edu":8,"n":5,"fee":227500,"p84":134800,"pct":98,"grade":"E"},"geometry":{"type":"Point","coordinates":[127.09991,37.42773]}},{"type":"Feature","properties":{"sgg":"성남시 수정구","umd":"양지동","edu":27,"n":6,"fee":225000,"p84":62500,"pct":80,"grade":"E"},"geometry":{"type":"Point","coordinates":[127.16387,37.46024]}},{"type":"Feature","properties":{"sgg":"성남시 수정구","umd":"수진동","edu":30,"n":16,"fee":245000,"p84":60000,"pct":75,"grade":"D"},"geometry":{"type":"Point","coordinates":[127.12888,37.43842]}},{"type":"Feature","properties":{"sgg":"성남시 중원구","umd":"여수동","edu":21,"n":3,"fee":252500,"p84":143000,"pct":89,"grade":"E"},"geometry":{"type":"Point","coordinates":[127.13446,37.41831]}},{"type":"Feature","properties":{"sgg":"성남시 중원구","umd":"은행동","edu":36,"n":4,"fee":232500,"p84":96000,"pct":64,"grade":"D"},"geometry":{"type":"Point","coordinates":[127.16673,37.45637]}},{"type":"Feature","properties":{"sgg":"성남시 중원구","umd":"금광동","edu":41,"n":15,"fee":220000,"p84":115000,"pct":56,"grade":"D"},"geometry":{"type":"Point","coordinates":[127.1652,37.44636]}},{"type":"Feature","properties":{"sgg":"성남시 중원구","umd":"중앙동","edu":38,"n":6,"fee":225000,"p84":127000,"pct":61,"grade":"D"},"geometry":{"type":"Point","coordinates":[127.15089,37.43891]}},{"type":"Feature","properties":{"sgg":"성남시 중원구","umd":"도촌동","edu":19,"n":4,"fee":240000,"p84":99500,"pct":91,"grade":"E"},"geometry":{"type":"Point","coordinates":[127.15469,37.4146]}},{"type":"Feature","properties":{"sgg":"성남시 중원구","umd":"하대원동","edu":34,"n":21,"fee":217500,"p84":65500,"pct":67,"grade":"D"},"geometry":{"type":"Point","coordinates":[127.14446,37.42962]}},{"type":"Feature","properties":{"sgg":"성남시 중원구","umd":"성남동","edu":39,"n":28,"fee":167500,"p84":57000,"pct":60,"grade":"D"},"geometry":{"type":"Point","coordinates":[127.13577,37.43312]}},{"type":"Feature","properties":{"sgg":"성남시 중원구","umd":"상대원동","edu":22,"n":12,"fee":215000,"p84":48800,"pct":86,"grade":"E"},"geometry":{"type":"Point","coordinates":[127.17107,37.43907]}},{"type":"Feature","properties":{"sgg":"성남시 분당구","umd":"백현동","edu":35,"n":10,"fee":275000,"p84":257000,"pct":65,"grade":"D"},"geometry":{"type":"Point","coordinates":[127.10947,37.39005]}},{"type":"Feature","properties":{"sgg":"성남시 분당구","umd":"수내동","edu":85,"n":15,"fee":330000,"p84":213000,"pct":3,"grade":"S"},"geometry":{"type":"Point","coordinates":[127.11992,37.3738]}},{"type":"Feature","properties":{"sgg":"성남시 분당구","umd":"정자동","edu":76,"n":37,"fee":300000,"p84":182000,"pct":7,"grade":"A"},"geometry":{"type":"Point","coordinates":[127.11237,37.36505]}},{"type":"Feature","properties":{"sgg":"성남시 분당구","umd":"분당동","edu":86,"n":5,"fee":320000,"p84":163000,"pct":3,"grade":"S"},"geometry":{"type":"Point","coordinates":[127.13174,37.37183]}},{"type":"Feature","properties":{"sgg":"성남시 분당구","umd":"판교동","edu":32,"n":9,"fee":282500,"p84":175000,"pct":71,"grade":"D"},"geometry":{"type":"Point","coordinates":[127.09049,37.39103]}},{"type":"Feature","properties":{"sgg":"성남시 분당구","umd":"구미동","edu":49,"n":20,"fee":250000,"p84":157500,"pct":41,"grade":"C"},"geometry":{"type":"Point","coordinates":[127.11806,37.34141]}},{"type":"Feature","properties":{"sgg":"성남시 분당구","umd":"금곡동","edu":57,"n":14,"fee":255000,"p84":175000,"pct":29,"grade":"C"},"geometry":{"type":"Point","coordinates":[127.10874,37.35314]}},{"type":"Feature","properties":{"sgg":"성남시 분당구","umd":"대장동","edu":33,"n":9,"fee":255000,"p84":145000,"pct":69,"grade":"D"},"geometry":{"type":"Point","coordinates":[127.07003,37.36898]}},{"type":"Feature","properties":{"sgg":"성남시 분당구","umd":"서현동","edu":75,"n":14,"fee":320000,"p84":175000,"pct":9,"grade":"A"},"geometry":{"type":"Point","coordinates":[127.13348,37.37649]}},{"type":"Feature","properties":{"sgg":"성남시 분당구","umd":"이매동","edu":73,"n":18,"fee":290000,"p84":188000,"pct":10,"grade":"A"},"geometry":{"type":"Point","coordinates":[127.12425,37.39712]}},{"type":"Feature","properties":{"sgg":"성남시 분당구","umd":"야탑동","edu":39,"n":24,"fee":250000,"p84":147000,"pct":60,"grade":"D"},"geometry":{"type":"Point","coordinates":[127.13451,37.41033]}},{"type":"Feature","properties":{"sgg":"성남시 분당구","umd":"삼평동","edu":45,"n":9,"fee":297500,"p84":217000,"pct":48,"grade":"C"},"geometry":{"type":"Point","coordinates":[127.11562,37.40012]}},{"type":"Feature","properties":{"sgg":"성남시 분당구","umd":"운중동","edu":38,"n":10,"fee":337500,"p84":187000,"pct":62,"grade":"D"},"geometry":{"type":"Point","coordinates":[127.07285,37.39027]}},{"type":"Feature","properties":{"sgg":"의정부시","umd":"의정부동","edu":38,"n":68,"fee":210000,"p84":43500,"pct":62,"grade":"D"},"geometry":{"type":"Point","coordinates":[127.04708,37.73765]}},{"type":"Feature","properties":{"sgg":"의정부시","umd":"민락동","edu":65,"n":23,"fee":225000,"p84":35500,"pct":17,"grade":"B"},"geometry":{"type":"Point","coordinates":[127.09855,37.74398]}},{"type":"Feature","properties":{"sgg":"의정부시","umd":"호원동","edu":48,"n":56,"fee":217500,"p84":38000,"pct":43,"grade":"C"},"geometry":{"type":"Point","coordinates":[127.04652,37.71943]}},{"type":"Feature","properties":{"sgg":"의정부시","umd":"신곡동","edu":51,"n":49,"fee":210000,"p84":33000,"pct":37,"grade":"C"},"geometry":{"type":"Point","coordinates":[127.06198,37.73902]}},{"type":"Feature","properties":{"sgg":"의정부시","umd":"금오동","edu":50,"n":13,"fee":220000,"p84":34450,"pct":39,"grade":"C"},"geometry":{"type":"Point","coordinates":[127.06787,37.75364]}},{"type":"Feature","properties":{"sgg":"의정부시","umd":"가능동","edu":30,"n":25,"fee":235000,"p84":32000,"pct":75,"grade":"D"},"geometry":{"type":"Point","coordinates":[127.03802,37.7487]}},{"type":"Feature","properties":{"sgg":"의정부시","umd":"녹양동","edu":28,"n":8,"fee":null,"p84":31200,"pct":78,"grade":"E"},"geometry":{"type":"Point","coordinates":[127.03419,37.75918]}},{"type":"Feature","properties":{"sgg":"의정부시","umd":"장암동","edu":46,"n":10,"fee":198000,"p84":44300,"pct":46,"grade":"C"},"geometry":{"type":"Point","coordinates":[127.05733,37.71753]}},{"type":"Feature","properties":{"sgg":"의정부시","umd":"낙양동","edu":47,"n":8,"fee":231500,"p84":40500,"pct":45,"grade":"C"},"geometry":{"type":"Point","coordinates":[127.10706,37.75242]}},{"type":"Feature","properties":{"sgg":"의정부시","umd":"산곡동","edu":49,"n":7,"fee":200000,"p84":59800,"pct":41,"grade":"C"},"geometry":{"type":"Point","coordinates":[127.10856,37.7281]}},{"type":"Feature","properties":{"sgg":"의정부시","umd":"용현동","edu":52,"n":22,"fee":180000,"p84":28000,"pct":36,"grade":"C"},"geometry":{"type":"Point","coordinates":[127.08273,37.73631]}},{"type":"Feature","properties":{"sgg":"안양시 만안구","umd":"안양동","edu":35,"n":134,"fee":237500,"p84":44000,"pct":65,"grade":"D"},"geometry":{"type":"Point","coordinates":[126.92338,37.39508]}},{"type":"Feature","properties":{"sgg":"안양시 만안구","umd":"박달동","edu":34,"n":20,"fee":230000,"p84":47000,"pct":68,"grade":"D"},"geometry":{"type":"Point","coordinates":[126.90453,37.40319]}},{"type":"Feature","properties":{"sgg":"안양시 만안구","umd":"석수동","edu":33,"n":39,"fee":245000,"p84":64700,"pct":69,"grade":"D"},"geometry":{"type":"Point","coordinates":[126.90632,37.41897]}},{"type":"Feature","properties":{"sgg":"안양시 동안구","umd":"비산동","edu":51,"n":43,"fee":240000,"p84":88500,"pct":38,"grade":"C"},"geometry":{"type":"Point","coordinates":[126.94262,37.39887]}},{"type":"Feature","properties":{"sgg":"안양시 동안구","umd":"관양동","edu":27,"n":47,"fee":225000,"p84":81000,"pct":80,"grade":"E"},"geometry":{"type":"Point","coordinates":[126.96424,37.40276]}},{"type":"Feature","properties":{"sgg":"안양시 동안구","umd":"평촌동","edu":83,"n":31,"fee":292500,"p84":116000,"pct":4,"grade":"A"},"geometry":{"type":"Point","coordinates":[126.97006,37.3894]}},{"type":"Feature","properties":{"sgg":"안양시 동안구","umd":"호계동","edu":81,"n":86,"fee":250000,"p84":74000,"pct":4,"grade":"A"},"geometry":{"type":"Point","coordinates":[126.95553,37.37653]}},{"type":"Feature","properties":{"sgg":"부천시 원미구","umd":"약대동","edu":36,"n":13,"fee":220000,"p84":43000,"pct":65,"grade":"D"},"geometry":{"type":"Point","coordinates":[126.77057,37.51257]}},{"type":"Feature","properties":{"sgg":"부천시 원미구","umd":"중동","edu":76,"n":75,"fee":225000,"p84":67000,"pct":8,"grade":"A"},"geometry":{"type":"Point","coordinates":[126.77006,37.49938]}},{"type":"Feature","properties":{"sgg":"부천시 원미구","umd":"춘의동","edu":61,"n":6,"fee":204000,"p84":49000,"pct":22,"grade":"B"},"geometry":{"type":"Point","coordinates":[126.78529,37.50374]}},{"type":"Feature","properties":{"sgg":"부천시 원미구","umd":"상동","edu":75,"n":49,"fee":213750,"p84":71000,"pct":9,"grade":"A"},"geometry":{"type":"Point","coordinates":[126.75362,37.50163]}},{"type":"Feature","properties":{"sgg":"부천시 원미구","umd":"심곡동","edu":33,"n":69,"fee":225000,"p84":40000,"pct":70,"grade":"D"},"geometry":{"type":"Point","coordinates":[126.78264,37.48854]}},{"type":"Feature","properties":{"sgg":"부천시 원미구","umd":"역곡동","edu":28,"n":61,"fee":215000,"p84":47000,"pct":79,"grade":"E"},"geometry":{"type":"Point","coordinates":[126.81003,37.48781]}},{"type":"Feature","properties":{"sgg":"부천시 원미구","umd":"원미동","edu":27,"n":22,"fee":202000,"p84":49000,"pct":80,"grade":"E"},"geometry":{"type":"Point","coordinates":[126.78977,37.49442]}},{"type":"Feature","properties":{"sgg":"부천시 원미구","umd":"소사동","edu":22,"n":6,"fee":190000,"p84":38300,"pct":86,"grade":"E"},"geometry":{"type":"Point","coordinates":[126.79575,37.48433]}},{"type":"Feature","properties":{"sgg":"부천시 원미구","umd":"도당동","edu":12,"n":29,"fee":202000,"p84":43500,"pct":95,"grade":"E"},"geometry":{"type":"Point","coordinates":[126.78857,37.5156]}},{"type":"Feature","properties":{"sgg":"부천시 소사구","umd":"괴안동","edu":54,"n":79,"fee":210000,"p84":39500,"pct":33,"grade":"C"},"geometry":{"type":"Point","coordinates":[126.8119,37.48188]}},{"type":"Feature","properties":{"sgg":"부천시 소사구","umd":"소사본동","edu":42,"n":60,"fee":190000,"p84":42000,"pct":54,"grade":"D"},"geometry":{"type":"Point","coordinates":[126.79709,37.47641]}},{"type":"Feature","properties":{"sgg":"부천시 소사구","umd":"송내동","edu":52,"n":46,"fee":230000,"p84":46500,"pct":36,"grade":"C"},"geometry":{"type":"Point","coordinates":[126.76587,37.48297]}},{"type":"Feature","properties":{"sgg":"부천시 소사구","umd":"옥길동","edu":71,"n":8,"fee":226000,"p84":71000,"pct":14,"grade":"B"},"geometry":{"type":"Point","coordinates":[126.82063,37.46396]}},{"type":"Feature","properties":{"sgg":"부천시 소사구","umd":"범박동","edu":74,"n":9,"fee":217500,"p84":56300,"pct":9,"grade":"A"},"geometry":{"type":"Point","coordinates":[126.80932,37.47163]}},{"type":"Feature","properties":{"sgg":"부천시 소사구","umd":"심곡본동","edu":23,"n":31,"fee":250000,"p84":32500,"pct":85,"grade":"E"},"geometry":{"type":"Point","coordinates":[126.78054,37.48127]}},{"type":"Feature","properties":{"sgg":"부천시 오정구","umd":"고강동","edu":18,"n":47,"fee":180000,"p84":47900,"pct":92,"grade":"E"},"geometry":{"type":"Point","coordinates":[126.81828,37.5269]}},{"type":"Feature","properties":{"sgg":"부천시 오정구","umd":"내동","edu":12,"n":11,"fee":230000,"p84":31500,"pct":95,"grade":"E"},"geometry":{"type":"Point","coordinates":[126.78033,37.51953]}},{"type":"Feature","properties":{"sgg":"부천시 오정구","umd":"여월동","edu":27,"n":17,"fee":185000,"p84":47000,"pct":80,"grade":"E"},"geometry":{"type":"Point","coordinates":[126.80077,37.51706]}},{"type":"Feature","properties":{"sgg":"부천시 오정구","umd":"원종동","edu":31,"n":100,"fee":182500,"p84":42000,"pct":73,"grade":"D"},"geometry":{"type":"Point","coordinates":[126.80535,37.52487]}},{"type":"Feature","properties":{"sgg":"부천시 오정구","umd":"삼정동","edu":10,"n":9,"fee":220000,"p84":44300,"pct":98,"grade":"E"},"geometry":{"type":"Point","coordinates":[126.76949,37.51749]}},{"type":"Feature","properties":{"sgg":"부천시 오정구","umd":"오정동","edu":19,"n":24,"fee":192500,"p84":38000,"pct":91,"grade":"E"},"geometry":{"type":"Point","coordinates":[126.78778,37.52743]}},{"type":"Feature","properties":{"sgg":"부천시 오정구","umd":"작동","edu":20,"n":10,"fee":180000,"p84":42500,"pct":90,"grade":"E"},"geometry":{"type":"Point","coordinates":[126.80801,37.51649]}},{"type":"Feature","properties":{"sgg":"광명시","umd":"광명동","edu":55,"n":35,"fee":185000,"p84":58400,"pct":31,"grade":"C"},"geometry":{"type":"Point","coordinates":[126.85298,37.4735]}},{"type":"Feature","properties":{"sgg":"광명시","umd":"일직동","edu":33,"n":5,"fee":250000,"p84":145500,"pct":70,"grade":"D"},"geometry":{"type":"Point","coordinates":[126.88316,37.41632]}},{"type":"Feature","properties":{"sgg":"광명시","umd":"철산동","edu":64,"n":20,"fee":195000,"p84":125000,"pct":18,"grade":"B"},"geometry":{"type":"Point","coordinates":[126.8675,37.47807]}},{"type":"Feature","properties":{"sgg":"광명시","umd":"하안동","edu":54,"n":17,"fee":227500,"p84":100000,"pct":33,"grade":"C"},"geometry":{"type":"Point","coordinates":[126.87537,37.46412]}},{"type":"Feature","properties":{"sgg":"광명시","umd":"소하동","edu":24,"n":27,"fee":245000,"p84":63000,"pct":83,"grade":"E"},"geometry":{"type":"Point","coordinates":[126.88298,37.44256]}},{"type":"Feature","properties":{"sgg":"고양시 덕양구","umd":"향동동","edu":44,"n":8,"fee":220000,"p84":84700,"pct":51,"grade":"D"},"geometry":{"type":"Point","coordinates":[126.89272,37.59921]}},{"type":"Feature","properties":{"sgg":"고양시 덕양구","umd":"신원동","edu":49,"n":7,"fee":215000,"p84":62900,"pct":41,"grade":"C"},"geometry":{"type":"Point","coordinates":[126.88634,37.66482]}},{"type":"Feature","properties":{"sgg":"고양시 덕양구","umd":"행신동","edu":49,"n":50,"fee":260000,"p84":50200,"pct":42,"grade":"C"},"geometry":{"type":"Point","coordinates":[126.83785,37.61937]}},{"type":"Feature","properties":{"sgg":"고양시 덕양구","umd":"화정동","edu":68,"n":35,"fee":250000,"p84":52500,"pct":14,"grade":"B"},"geometry":{"type":"Point","coordinates":[126.83255,37.63657]}},{"type":"Feature","properties":{"sgg":"고양시 덕양구","umd":"도내동","edu":42,"n":6,"fee":220000,"p84":74800,"pct":55,"grade":"D"},"geometry":{"type":"Point","coordinates":[126.86994,37.62978]}},{"type":"Feature","properties":{"sgg":"고양시 덕양구","umd":"성사동","edu":21,"n":26,"fee":188250,"p84":42500,"pct":89,"grade":"E"},"geometry":{"type":"Point","coordinates":[126.83975,37.65576]}},{"type":"Feature","properties":{"sgg":"고양시 덕양구","umd":"주교동","edu":23,"n":23,"fee":188250,"p84":34900,"pct":85,"grade":"E"},"geometry":{"type":"Point","coordinates":[126.83454,37.65977]}},{"type":"Feature","properties":{"sgg":"고양시 덕양구","umd":"원흥동","edu":34,"n":4,"fee":205000,"p84":78000,"pct":68,"grade":"D"},"geometry":{"type":"Point","coordinates":[126.87548,37.65063]}},{"type":"Feature","properties":{"sgg":"고양시 덕양구","umd":"고양동","edu":22,"n":15,"fee":null,"p84":30400,"pct":87,"grade":"E"},"geometry":{"type":"Point","coordinates":[126.90184,37.70772]}},{"type":"Feature","properties":{"sgg":"고양시 덕양구","umd":"지축동","edu":46,"n":7,"fee":250000,"p84":89500,"pct":46,"grade":"C"},"geometry":{"type":"Point","coordinates":[126.91691,37.65178]}},{"type":"Feature","properties":{"sgg":"고양시 덕양구","umd":"삼송동","edu":35,"n":4,"fee":202500,"p84":82000,"pct":65,"grade":"D"},"geometry":{"type":"Point","coordinates":[126.88874,37.65139]}},{"type":"Feature","properties":{"sgg":"고양시 덕양구","umd":"토당동","edu":21,"n":26,"fee":250000,"p84":48500,"pct":89,"grade":"E"},"geometry":{"type":"Point","coordinates":[126.82147,37.62388]}},{"type":"Feature","properties":{"sgg":"고양시 덕양구","umd":"관산동","edu":22,"n":11,"fee":null,"p84":32000,"pct":87,"grade":"E"},"geometry":{"type":"Point","coordinates":[126.8666,37.6891]}},{"type":"Feature","properties":{"sgg":"고양시 덕양구","umd":"덕은동","edu":24,"n":8,"fee":null,"p84":118700,"pct":83,"grade":"E"},"geometry":{"type":"Point","coordinates":[126.86439,37.58064]}},{"type":"Feature","properties":{"sgg":"고양시 일산동구","umd":"마두동","edu":87,"n":20,"fee":290000,"p84":55500,"pct":1,"grade":"S"},"geometry":{"type":"Point","coordinates":[126.78628,37.65476]}},{"type":"Feature","properties":{"sgg":"고양시 일산동구","umd":"장항동","edu":28,"n":11,"fee":229000,"p84":68000,"pct":79,"grade":"E"},"geometry":{"type":"Point","coordinates":[126.76711,37.65355]}},{"type":"Feature","properties":{"sgg":"고양시 일산동구","umd":"중산동","edu":40,"n":20,"fee":250000,"p84":35000,"pct":58,"grade":"D"},"geometry":{"type":"Point","coordinates":[126.78211,37.68824]}},{"type":"Feature","properties":{"sgg":"고양시 일산동구","umd":"풍동","edu":63,"n":18,"fee":230000,"p84":40000,"pct":20,"grade":"B"},"geometry":{"type":"Point","coordinates":[126.79726,37.6671]}},{"type":"Feature","properties":{"sgg":"고양시 일산동구","umd":"사리현동","edu":16,"n":4,"fee":null,"p84":26000,"pct":93,"grade":"E"},"geometry":{"type":"Point","coordinates":[126.84453,37.69819]}},{"type":"Feature","properties":{"sgg":"고양시 일산동구","umd":"식사동","edu":64,"n":11,"fee":210000,"p84":62200,"pct":18,"grade":"B"},"geometry":{"type":"Point","coordinates":[126.81143,37.67658]}},{"type":"Feature","properties":{"sgg":"고양시 일산동구","umd":"백석동","edu":78,"n":18,"fee":285000,"p84":50300,"pct":6,"grade":"A"},"geometry":{"type":"Point","coordinates":[126.78913,37.64931]}},{"type":"Feature","properties":{"sgg":"고양시 일산서구","umd":"일산동","edu":55,"n":67,"fee":275000,"p84":39000,"pct":31,"grade":"C"},"geometry":{"type":"Point","coordinates":[126.769,37.68428]}},{"type":"Feature","properties":{"sgg":"고양시 일산서구","umd":"대화동","edu":32,"n":18,"fee":210000,"p84":46700,"pct":71,"grade":"D"},"geometry":{"type":"Point","coordinates":[126.74066,37.67293]}},{"type":"Feature","properties":{"sgg":"고양시 일산서구","umd":"덕이동","edu":45,"n":13,"fee":185000,"p84":32000,"pct":48,"grade":"C"},"geometry":{"type":"Point","coordinates":[126.74967,37.69781]}},{"type":"Feature","properties":{"sgg":"고양시 일산서구","umd":"탄현동","edu":52,"n":24,"fee":210000,"p84":34500,"pct":36,"grade":"C"},"geometry":{"type":"Point","coordinates":[126.76659,37.69559]}},{"type":"Feature","properties":{"sgg":"고양시 일산서구","umd":"주엽동","edu":80,"n":37,"fee":250000,"p84":50500,"pct":5,"grade":"A"},"geometry":{"type":"Point","coordinates":[126.76157,37.6711]}},{"type":"Feature","properties":{"sgg":"고양시 일산서구","umd":"가좌동","edu":45,"n":6,"fee":null,"p84":31500,"pct":48,"grade":"C"},"geometry":{"type":"Point","coordinates":[126.71968,37.68756]}},{"type":"Feature","properties":{"sgg":"과천시","umd":"별양동","edu":62,"n":5,"fee":280000,"p84":208500,"pct":21,"grade":"B"},"geometry":{"type":"Point","coordinates":[126.99583,37.42823]}},{"type":"Feature","properties":{"sgg":"과천시","umd":"부림동","edu":21,"n":3,"fee":280000,"p84":238000,"pct":89,"grade":"E"},"geometry":{"type":"Point","coordinates":[126.99963,37.43414]}},{"type":"Feature","properties":{"sgg":"과천시","umd":"갈현동","edu":34,"n":7,"fee":300000,"p84":200000,"pct":68,"grade":"D"},"geometry":{"type":"Point","coordinates":[126.98599,37.415]}},{"type":"Feature","properties":{"sgg":"과천시","umd":"중앙동","edu":61,"n":3,"fee":294500,"p84":273000,"pct":23,"grade":"B"},"geometry":{"type":"Point","coordinates":[126.99362,37.43298]}},{"type":"Feature","properties":{"sgg":"구리시","umd":"교문동","edu":62,"n":23,"fee":250000,"p84":91500,"pct":21,"grade":"B"},"geometry":{"type":"Point","coordinates":[127.13491,37.59272]}},{"type":"Feature","properties":{"sgg":"구리시","umd":"토평동","edu":63,"n":9,"fee":240000,"p84":81000,"pct":20,"grade":"B"},"geometry":{"type":"Point","coordinates":[127.14809,37.58977]}},{"type":"Feature","properties":{"sgg":"구리시","umd":"갈매동","edu":53,"n":9,"fee":235000,"p84":77000,"pct":35,"grade":"C"},"geometry":{"type":"Point","coordinates":[127.11639,37.63024]}},{"type":"Feature","properties":{"sgg":"구리시","umd":"인창동","edu":56,"n":60,"fee":250000,"p84":72700,"pct":30,"grade":"C"},"geometry":{"type":"Point","coordinates":[127.1344,37.60766]}},{"type":"Feature","properties":{"sgg":"구리시","umd":"수택동","edu":73,"n":71,"fee":240000,"p84":79300,"pct":10,"grade":"A"},"geometry":{"type":"Point","coordinates":[127.1439,37.59505]}},{"type":"Feature","properties":{"sgg":"남양주시","umd":"오남읍 양지리","edu":35,"n":10,"fee":230000,"p84":30900,"pct":66,"grade":"D"},"geometry":{"type":"Point","coordinates":[127.19764,37.70148]}},{"type":"Feature","properties":{"sgg":"남양주시","umd":"호평동","edu":59,"n":23,"fee":227500,"p84":45700,"pct":26,"grade":"C"},"geometry":{"type":"Point","coordinates":[127.24789,37.65919]}},{"type":"Feature","properties":{"sgg":"남양주시","umd":"다산동","edu":51,"n":52,"fee":220000,"p84":92000,"pct":38,"grade":"C"},"geometry":{"type":"Point","coordinates":[127.15787,37.61117]}},{"type":"Feature","properties":{"sgg":"남양주시","umd":"오남읍 오남리","edu":33,"n":32,"fee":230000,"p84":27000,"pct":70,"grade":"D"},"geometry":{"type":"Point","coordinates":[127.20905,37.68817]}},{"type":"Feature","properties":{"sgg":"남양주시","umd":"평내동","edu":67,"n":18,"fee":219000,"p84":42500,"pct":15,"grade":"B"},"geometry":{"type":"Point","coordinates":[127.23874,37.64569]}},{"type":"Feature","properties":{"sgg":"남양주시","umd":"별내동","edu":54,"n":22,"fee":230000,"p84":76000,"pct":33,"grade":"C"},"geometry":{"type":"Point","coordinates":[127.12208,37.65732]}},{"type":"Feature","properties":{"sgg":"남양주시","umd":"와부읍 도곡리","edu":51,"n":10,"fee":290000,"p84":59800,"pct":38,"grade":"C"},"geometry":{"type":"Point","coordinates":[127.21971,37.57809]}},{"type":"Feature","properties":{"sgg":"남양주시","umd":"와부읍 덕소리","edu":60,"n":26,"fee":270000,"p84":56700,"pct":24,"grade":"B"},"geometry":{"type":"Point","coordinates":[127.21323,37.58667]}},{"type":"Feature","properties":{"sgg":"남양주시","umd":"화도읍 창현리","edu":38,"n":15,"fee":207500,"p84":26800,"pct":62,"grade":"D"},"geometry":{"type":"Point","coordinates":[127.30359,37.64437]}},{"type":"Feature","properties":{"sgg":"남양주시","umd":"금곡동","edu":18,"n":22,"fee":null,"p84":36000,"pct":92,"grade":"E"},"geometry":{"type":"Point","coordinates":[127.20759,37.63422]}},{"type":"Feature","properties":{"sgg":"남양주시","umd":"화도읍 묵현리","edu":34,"n":14,"fee":207500,"p84":28000,"pct":68,"grade":"D"},"geometry":{"type":"Point","coordinates":[127.29189,37.66144]}},{"type":"Feature","properties":{"sgg":"남양주시","umd":"진접읍 장현리","edu":44,"n":16,"fee":187500,"p84":25500,"pct":51,"grade":"D"},"geometry":{"type":"Point","coordinates":[127.18674,37.7225]}},{"type":"Feature","properties":{"sgg":"남양주시","umd":"화도읍 마석우리","edu":47,"n":9,"fee":210000,"p84":31400,"pct":45,"grade":"C"},"geometry":{"type":"Point","coordinates":[127.3079,37.65693]}},{"type":"Feature","properties":{"sgg":"남양주시","umd":"진접읍 부평리","edu":34,"n":8,"fee":null,"p84":33000,"pct":68,"grade":"D"},"geometry":{"type":"Point","coordinates":[127.19861,37.73763]}},{"type":"Feature","properties":{"sgg":"남양주시","umd":"별내면 청학리","edu":30,"n":11,"fee":200000,"p84":30500,"pct":75,"grade":"D"},"geometry":{"type":"Point","coordinates":[127.11628,37.71001]}},{"type":"Feature","properties":{"sgg":"남양주시","umd":"진건읍 용정리","edu":32,"n":15,"fee":null,"p84":24800,"pct":72,"grade":"D"},"geometry":{"type":"Point","coordinates":[127.18078,37.65841]}},{"type":"Feature","properties":{"sgg":"남양주시","umd":"진접읍 금곡리","edu":58,"n":12,"fee":260000,"p84":42700,"pct":28,"grade":"C"},"geometry":{"type":"Point","coordinates":[127.19775,37.7183]}},{"type":"Feature","properties":{"sgg":"남양주시","umd":"퇴계원읍 퇴계원리","edu":32,"n":14,"fee":175000,"p84":45000,"pct":72,"grade":"D"},"geometry":{"type":"Point","coordinates":[127.1442,37.65109]}},{"type":"Feature","properties":{"sgg":"남양주시","umd":"화도읍 녹촌리","edu":43,"n":9,"fee":232500,"p84":42000,"pct":53,"grade":"D"},"geometry":{"type":"Point","coordinates":[127.29568,37.64883]}},{"type":"Feature","properties":{"sgg":"남양주시","umd":"진접읍 내각리","edu":15,"n":4,"fee":null,"p84":18000,"pct":94,"grade":"E"},"geometry":{"type":"Point","coordinates":[127.16418,37.70629]}},{"type":"Feature","properties":{"sgg":"남양주시","umd":"진건읍 사능리","edu":6,"n":4,"fee":null,"p84":18000,"pct":99,"grade":"E"},"geometry":{"type":"Point","coordinates":[127.18076,37.65606]}},{"type":"Feature","properties":{"sgg":"하남시","umd":"선동","edu":73,"n":8,"fee":220000,"p84":137500,"pct":11,"grade":"B"},"geometry":{"type":"Point","coordinates":[127.18201,37.57413]}},{"type":"Feature","properties":{"sgg":"하남시","umd":"신장동","edu":37,"n":22,"fee":250000,"p84":84000,"pct":63,"grade":"D"},"geometry":{"type":"Point","coordinates":[127.21227,37.54069]}},{"type":"Feature","properties":{"sgg":"하남시","umd":"망월동","edu":73,"n":14,"fee":227500,"p84":125700,"pct":11,"grade":"B"},"geometry":{"type":"Point","coordinates":[127.19039,37.56587]}},{"type":"Feature","properties":{"sgg":"하남시","umd":"감이동","edu":54,"n":12,"fee":226250,"p84":149000,"pct":33,"grade":"C"},"geometry":{"type":"Point","coordinates":[127.15938,37.50551]}},{"type":"Feature","properties":{"sgg":"하남시","umd":"덕풍동","edu":20,"n":30,"fee":195000,"p84":71500,"pct":91,"grade":"E"},"geometry":{"type":"Point","coordinates":[127.20136,37.5409]}},{"type":"Feature","properties":{"sgg":"하남시","umd":"풍산동","edu":73,"n":12,"fee":230000,"p84":123000,"pct":11,"grade":"B"},"geometry":{"type":"Point","coordinates":[127.18992,37.55336]}},{"type":"Feature","properties":{"sgg":"하남시","umd":"학암동","edu":59,"n":11,"fee":237500,"p84":175000,"pct":26,"grade":"C"},"geometry":{"type":"Point","coordinates":[127.15384,37.48075]}},{"type":"Feature","properties":{"sgg":"하남시","umd":"창우동","edu":15,"n":4,"fee":305000,"p84":94500,"pct":94,"grade":"E"},"geometry":{"type":"Point","coordinates":[127.22419,37.53855]}},{"type":"Feature","properties":{"sgg":"용인시 처인구","umd":"포곡읍 둔전리","edu":47,"n":11,"fee":188250,"p84":13000,"pct":45,"grade":"C"},"geometry":{"type":"Point","coordinates":[127.21936,37.26888]}},{"type":"Feature","properties":{"sgg":"용인시 처인구","umd":"김량장동","edu":43,"n":33,"fee":180000,"p84":22000,"pct":53,"grade":"D"},"geometry":{"type":"Point","coordinates":[127.20096,37.23477]}},{"type":"Feature","properties":{"sgg":"용인시 처인구","umd":"고림동","edu":39,"n":19,"fee":188250,"p84":28500,"pct":60,"grade":"D"},"geometry":{"type":"Point","coordinates":[127.22349,37.25114]}},{"type":"Feature","properties":{"sgg":"용인시 처인구","umd":"역북동","edu":54,"n":27,"fee":177500,"p84":40000,"pct":34,"grade":"C"},"geometry":{"type":"Point","coordinates":[127.19222,37.238]}},{"type":"Feature","properties":{"sgg":"용인시 처인구","umd":"유방동","edu":43,"n":6,"fee":210000,"p84":53900,"pct":53,"grade":"D"},"geometry":{"type":"Point","coordinates":[127.2146,37.26287]}},{"type":"Feature","properties":{"sgg":"용인시 처인구","umd":"이동읍 천리","edu":7,"n":8,"fee":null,"p84":26500,"pct":99,"grade":"E"},"geometry":{"type":"Point","coordinates":[127.20967,37.19264]}},{"type":"Feature","properties":{"sgg":"용인시 처인구","umd":"모현읍 왕산리","edu":32,"n":5,"fee":null,"p84":51000,"pct":72,"grade":"D"},"geometry":{"type":"Point","coordinates":[127.25485,37.3405]}},{"type":"Feature","properties":{"sgg":"용인시 처인구","umd":"남사읍 완장리","edu":10,"n":4,"fee":null,"p84":42900,"pct":98,"grade":"E"},"geometry":{"type":"Point","coordinates":[127.17402,37.15804]}},{"type":"Feature","properties":{"sgg":"용인시 처인구","umd":"삼가동","edu":40,"n":9,"fee":null,"p84":36500,"pct":58,"grade":"D"},"geometry":{"type":"Point","coordinates":[127.16988,37.23969]}},{"type":"Feature","properties":{"sgg":"용인시 처인구","umd":"마평동","edu":35,"n":7,"fee":null,"p84":26500,"pct":66,"grade":"D"},"geometry":{"type":"Point","coordinates":[127.21434,37.23426]}},{"type":"Feature","properties":{"sgg":"용인시 처인구","umd":"양지읍 양지리","edu":43,"n":7,"fee":null,"p84":34000,"pct":53,"grade":"D"},"geometry":{"type":"Point","coordinates":[127.28249,37.23545]}},{"type":"Feature","properties":{"sgg":"용인시 처인구","umd":"백암면 근창리","edu":9,"n":4,"fee":null,"p84":13500,"pct":98,"grade":"E"},"geometry":{"type":"Point","coordinates":[127.3687,37.16298]}},{"type":"Feature","properties":{"sgg":"용인시 처인구","umd":"포곡읍 삼계리","edu":25,"n":11,"fee":null,"p84":11500,"pct":82,"grade":"E"},"geometry":{"type":"Point","coordinates":[127.23469,37.28938]}},{"type":"Feature","properties":{"sgg":"용인시 처인구","umd":"포곡읍 전대리","edu":27,"n":3,"fee":null,"p84":16000,"pct":81,"grade":"E"},"geometry":{"type":"Point","coordinates":[127.21875,37.28341]}},{"type":"Feature","properties":{"sgg":"용인시 처인구","umd":"양지읍 남곡리","edu":43,"n":4,"fee":null,"p84":49000,"pct":54,"grade":"D"},"geometry":{"type":"Point","coordinates":[127.28744,37.22756]}},{"type":"Feature","properties":{"sgg":"용인시 기흥구","umd":"마북동","edu":42,"n":23,"fee":205000,"p84":69000,"pct":55,"grade":"D"},"geometry":{"type":"Point","coordinates":[127.11958,37.30131]}},{"type":"Feature","properties":{"sgg":"용인시 기흥구","umd":"보정동","edu":40,"n":19,"fee":245000,"p84":83500,"pct":58,"grade":"D"},"geometry":{"type":"Point","coordinates":[127.1067,37.31013]}},{"type":"Feature","properties":{"sgg":"용인시 기흥구","umd":"신갈동","edu":28,"n":26,"fee":245000,"p84":69800,"pct":79,"grade":"E"},"geometry":{"type":"Point","coordinates":[127.109,37.28069]}},{"type":"Feature","properties":{"sgg":"용인시 기흥구","umd":"언남동","edu":39,"n":18,"fee":250000,"p84":64500,"pct":60,"grade":"D"},"geometry":{"type":"Point","coordinates":[127.12419,37.29471]}},{"type":"Feature","properties":{"sgg":"용인시 기흥구","umd":"보라동","edu":47,"n":10,"fee":230000,"p84":43000,"pct":45,"grade":"C"},"geometry":{"type":"Point","coordinates":[127.11272,37.25149]}},{"type":"Feature","properties":{"sgg":"용인시 기흥구","umd":"구갈동","edu":42,"n":26,"fee":245000,"p84":71500,"pct":55,"grade":"D"},"geometry":{"type":"Point","coordinates":[127.11879,37.2755]}},{"type":"Feature","properties":{"sgg":"용인시 기흥구","umd":"중동","edu":54,"n":23,"fee":230000,"p84":55500,"pct":34,"grade":"C"},"geometry":{"type":"Point","coordinates":[127.15155,37.2743]}},{"type":"Feature","properties":{"sgg":"용인시 기흥구","umd":"영덕동","edu":38,"n":19,"fee":219500,"p84":71500,"pct":62,"grade":"D"},"geometry":{"type":"Point","coordinates":[127.08531,37.27246]}},{"type":"Feature","properties":{"sgg":"용인시 기흥구","umd":"고매동","edu":23,"n":9,"fee":null,"p84":27700,"pct":86,"grade":"E"},"geometry":{"type":"Point","coordinates":[127.10935,37.22836]}},{"type":"Feature","properties":{"sgg":"용인시 기흥구","umd":"청덕동","edu":35,"n":6,"fee":232500,"p84":42500,"pct":66,"grade":"D"},"geometry":{"type":"Point","coordinates":[127.15144,37.29455]}},{"type":"Feature","properties":{"sgg":"용인시 기흥구","umd":"동백동","edu":68,"n":18,"fee":230000,"p84":58000,"pct":15,"grade":"B"},"geometry":{"type":"Point","coordinates":[127.15631,37.28259]}},{"type":"Feature","properties":{"sgg":"용인시 기흥구","umd":"공세동","edu":24,"n":6,"fee":null,"p84":30000,"pct":84,"grade":"E"},"geometry":{"type":"Point","coordinates":[127.11057,37.23891]}},{"type":"Feature","properties":{"sgg":"용인시 기흥구","umd":"상갈동","edu":17,"n":7,"fee":null,"p84":53000,"pct":93,"grade":"E"},"geometry":{"type":"Point","coordinates":[127.10828,37.26511]}},{"type":"Feature","properties":{"sgg":"용인시 기흥구","umd":"상하동","edu":22,"n":11,"fee":220000,"p84":40000,"pct":87,"grade":"E"},"geometry":{"type":"Point","coordinates":[127.13956,37.26492]}},{"type":"Feature","properties":{"sgg":"용인시 기흥구","umd":"서천동","edu":54,"n":9,"fee":215000,"p84":69500,"pct":34,"grade":"C"},"geometry":{"type":"Point","coordinates":[127.07289,37.24173]}},{"type":"Feature","properties":{"sgg":"용인시 수지구","umd":"성복동","edu":41,"n":23,"fee":207500,"p84":92000,"pct":56,"grade":"D"},"geometry":{"type":"Point","coordinates":[127.06929,37.31641]}},{"type":"Feature","properties":{"sgg":"용인시 수지구","umd":"풍덕천동","edu":85,"n":39,"fee":235000,"p84":122000,"pct":3,"grade":"S"},"geometry":{"type":"Point","coordinates":[127.09203,37.32288]}},{"type":"Feature","properties":{"sgg":"용인시 수지구","umd":"동천동","edu":48,"n":28,"fee":235000,"p84":112000,"pct":44,"grade":"C"},"geometry":{"type":"Point","coordinates":[127.0949,37.33884]}},{"type":"Feature","properties":{"sgg":"용인시 수지구","umd":"신봉동","edu":43,"n":22,"fee":208750,"p84":89500,"pct":54,"grade":"D"},"geometry":{"type":"Point","coordinates":[127.07282,37.32642]}},{"type":"Feature","properties":{"sgg":"용인시 수지구","umd":"상현동","edu":73,"n":51,"fee":230000,"p84":99500,"pct":11,"grade":"B"},"geometry":{"type":"Point","coordinates":[127.08139,37.30629]}},{"type":"Feature","properties":{"sgg":"용인시 수지구","umd":"죽전동","edu":50,"n":83,"fee":220000,"p84":89500,"pct":40,"grade":"C"},"geometry":{"type":"Point","coordinates":[127.11802,37.33012]}},{"type":"Feature","properties":{"sgg":"김포시","umd":"마산동","edu":49,"n":8,"fee":207500,"p84":39000,"pct":42,"grade":"C"},"geometry":{"type":"Point","coordinates":[126.63706,37.63806]}},{"type":"Feature","properties":{"sgg":"김포시","umd":"고촌읍 신곡리","edu":35,"n":20,"fee":182400,"p84":56200,"pct":66,"grade":"D"},"geometry":{"type":"Point","coordinates":[126.76946,37.60169]}},{"type":"Feature","properties":{"sgg":"김포시","umd":"구래동","edu":58,"n":14,"fee":214925,"p84":43700,"pct":28,"grade":"C"},"geometry":{"type":"Point","coordinates":[126.62961,37.64583]}},{"type":"Feature","properties":{"sgg":"김포시","umd":"풍무동","edu":59,"n":20,"fee":270000,"p84":40000,"pct":26,"grade":"C"},"geometry":{"type":"Point","coordinates":[126.72363,37.60327]}},{"type":"Feature","properties":{"sgg":"김포시","umd":"감정동","edu":29,"n":14,"fee":200000,"p84":30500,"pct":77,"grade":"E"},"geometry":{"type":"Point","coordinates":[126.70063,37.62299]}},{"type":"Feature","properties":{"sgg":"김포시","umd":"운양동","edu":60,"n":16,"fee":220000,"p84":45500,"pct":24,"grade":"B"},"geometry":{"type":"Point","coordinates":[126.68183,37.65098]}},{"type":"Feature","properties":{"sgg":"김포시","umd":"양촌읍 양곡리","edu":31,"n":8,"fee":null,"p84":30000,"pct":73,"grade":"D"},"geometry":{"type":"Point","coordinates":[126.62915,37.65746]}},{"type":"Feature","properties":{"sgg":"김포시","umd":"걸포동","edu":15,"n":7,"fee":null,"p84":59800,"pct":94,"grade":"E"},"geometry":{"type":"Point","coordinates":[126.70385,37.63479]}},{"type":"Feature","properties":{"sgg":"김포시","umd":"장기동","edu":64,"n":24,"fee":215000,"p84":44900,"pct":18,"grade":"B"},"geometry":{"type":"Point","coordinates":[126.66809,37.64365]}},{"type":"Feature","properties":{"sgg":"김포시","umd":"북변동","edu":66,"n":15,"fee":222500,"p84":36200,"pct":16,"grade":"B"},"geometry":{"type":"Point","coordinates":[126.71309,37.62481]}},{"type":"Feature","properties":{"sgg":"김포시","umd":"통진읍 마송리","edu":29,"n":6,"fee":null,"p84":35800,"pct":77,"grade":"E"},"geometry":{"type":"Point","coordinates":[126.59867,37.68942]}},{"type":"Feature","properties":{"sgg":"김포시","umd":"사우동","edu":59,"n":15,"fee":225000,"p84":36500,"pct":27,"grade":"C"},"geometry":{"type":"Point","coordinates":[126.72107,37.62033]}}]}