{"type":"FeatureCollection","features":[{"type":"Feature","properties":{"n":45,"hi":27,"up":51,"dn":42,"prev_hi":26,"chg":1,"sgg":"중구","umd":"신당동"},"geometry":{"type":"Point","coordinates":[127.01189,37.55602]}},{"type":"Feature","properties":{"n":21,"hi":33,"up":62,"dn":33,"prev_hi":10,"chg":23,"sgg":"중구","umd":"황학동"},"geometry":{"type":"Point","coordinates":[127.02163,37.56858]}},{"type":"Feature","properties":{"n":37,"hi":22,"up":65,"dn":32,"prev_hi":23,"chg":-1,"sgg":"용산구","umd":"이촌동"},"geometry":{"type":"Point","coordinates":[126.96815,37.52152]}},{"type":"Feature","properties":{"n":39,"hi":31,"up":44,"dn":44,"prev_hi":31,"chg":0,"sgg":"성동구","umd":"하왕십리동"},"geometry":{"type":"Point","coordinates":[127.02816,37.56269]}},{"type":"Feature","properties":{"n":35,"hi":23,"up":46,"dn":43,"prev_hi":24,"chg":-1,"sgg":"성동구","umd":"행당동"},"geometry":{"type":"Point","coordinates":[127.03484,37.55792]}},{"type":"Feature","properties":{"n":30,"hi":53,"up":73,"dn":23,"prev_hi":26,"chg":27,"sgg":"광진구","umd":"구의동"},"geometry":{"type":"Point","coordinates":[127.09112,37.54337]}},{"type":"Feature","properties":{"n":44,"hi":59,"up":73,"dn":20,"prev_hi":45,"chg":14,"sgg":"광진구","umd":"자양동"},"geometry":{"type":"Point","coordinates":[127.07559,37.5338]}},{"type":"Feature","properties":{"n":24,"hi":21,"up":50,"dn":42,"prev_hi":24,"chg":-3,"sgg":"광진구","umd":"광장동"},"geometry":{"type":"Point","coordinates":[127.10298,37.54504]}},{"type":"Feature","properties":{"n":35,"hi":37,"up":57,"dn":34,"prev_hi":28,"chg":9,"sgg":"동대문구","umd":"용두동"},"geometry":{"type":"Point","coordinates":[127.0332,37.57594]}},{"type":"Feature","properties":{"n":47,"hi":43,"up":62,"dn":36,"prev_hi":50,"chg":-7,"sgg":"동대문구","umd":"휘경동"},"geometry":{"type":"Point","coordinates":[127.06551,37.58877]}},{"type":"Feature","properties":{"n":81,"hi":49,"up":59,"dn":32,"prev_hi":38,"chg":11,"sgg":"동대문구","umd":"답십리동"},"geometry":{"type":"Point","coordinates":[127.05508,37.57062]}},{"type":"Feature","properties":{"n":67,"hi":43,"up":60,"dn":33,"prev_hi":32,"chg":11,"sgg":"동대문구","umd":"전농동"},"geometry":{"type":"Point","coordinates":[127.05336,37.57914]}},{"type":"Feature","properties":{"n":39,"hi":44,"up":67,"dn":28,"prev_hi":45,"chg":-1,"sgg":"동대문구","umd":"이문동"},"geometry":{"type":"Point","coordinates":[127.06399,37.60002]}},{"type":"Feature","properties":{"n":73,"hi":48,"up":64,"dn":26,"prev_hi":37,"chg":11,"sgg":"동대문구","umd":"장안동"},"geometry":{"type":"Point","coordinates":[127.06989,37.56896]}},{"type":"Feature","properties":{"n":21,"hi":48,"up":52,"dn":29,"prev_hi":32,"chg":16,"sgg":"동대문구","umd":"제기동"},"geometry":{"type":"Point","coordinates":[127.03552,37.58352]}},{"type":"Feature","properties":{"n":91,"hi":32,"up":47,"dn":31,"prev_hi":26,"chg":6,"sgg":"중랑구","umd":"상봉동"},"geometry":{"type":"Point","coordinates":[127.08746,37.59741]}},{"type":"Feature","properties":{"n":353,"hi":12,"up":26,"dn":17,"prev_hi":22,"chg":-10,"sgg":"중랑구","umd":"묵동"},"geometry":{"type":"Point","coordinates":[127.07914,37.61382]}},{"type":"Feature","properties":{"n":130,"hi":38,"up":62,"dn":32,"prev_hi":25,"chg":13,"sgg":"중랑구","umd":"신내동"},"geometry":{"type":"Point","coordinates":[127.09818,37.60639]}},{"type":"Feature","properties":{"n":38,"hi":45,"up":63,"dn":32,"prev_hi":28,"chg":17,"sgg":"중랑구","umd":"중화동"},"geometry":{"type":"Point","coordinates":[127.07916,37.60069]}},{"type":"Feature","properties":{"n":111,"hi":38,"up":54,"dn":39,"prev_hi":29,"chg":9,"sgg":"중랑구","umd":"면목동"},"geometry":{"type":"Point","coordinates":[127.08522,37.58316]}},{"type":"Feature","properties":{"n":24,"hi":42,"up":67,"dn":33,"prev_hi":39,"chg":3,"sgg":"중랑구","umd":"망우동"},"geometry":{"type":"Point","coordinates":[127.10184,37.59993]}},{"type":"Feature","properties":{"n":46,"hi":48,"up":59,"dn":30,"prev_hi":44,"chg":4,"sgg":"성북구","umd":"종암동"},"geometry":{"type":"Point","coordinates":[127.03324,37.59874]}},{"type":"Feature","properties":{"n":129,"hi":40,"up":59,"dn":33,"prev_hi":23,"chg":17,"sgg":"성북구","umd":"정릉동"},"geometry":{"type":"Point","coordinates":[127.00957,37.60848]}},{"type":"Feature","properties":{"n":89,"hi":43,"up":60,"dn":36,"prev_hi":33,"chg":10,"sgg":"성북구","umd":"돈암동"},"geometry":{"type":"Point","coordinates":[127.01893,37.5992]}},{"type":"Feature","properties":{"n":23,"hi":57,"up":70,"dn":30,"prev_hi":40,"chg":17,"sgg":"성북구","umd":"석관동"},"geometry":{"type":"Point","coordinates":[127.06141,37.60876]}},{"type":"Feature","properties":{"n":107,"hi":36,"up":50,"dn":38,"prev_hi":27,"chg":9,"sgg":"성북구","umd":"길음동"},"geometry":{"type":"Point","coordinates":[127.02066,37.60819]}},{"type":"Feature","properties":{"n":33,"hi":45,"up":61,"dn":39,"prev_hi":28,"chg":17,"sgg":"성북구","umd":"장위동"},"geometry":{"type":"Point","coordinates":[127.05063,37.61662]}},{"type":"Feature","properties":{"n":68,"hi":49,"up":60,"dn":26,"prev_hi":24,"chg":25,"sgg":"성북구","umd":"하월곡동"},"geometry":{"type":"Point","coordinates":[127.03531,37.60479]}},{"type":"Feature","properties":{"n":118,"hi":34,"up":53,"dn":40,"prev_hi":20,"chg":14,"sgg":"강북구","umd":"미아동"},"geometry":{"type":"Point","coordinates":[127.0258,37.62275]}},{"type":"Feature","properties":{"n":41,"hi":22,"up":56,"dn":32,"prev_hi":25,"chg":-3,"sgg":"강북구","umd":"수유동"},"geometry":{"type":"Point","coordinates":[127.01915,37.6401]}},{"type":"Feature","properties":{"n":57,"hi":44,"up":56,"dn":30,"prev_hi":29,"chg":15,"sgg":"강북구","umd":"번동"},"geometry":{"type":"Point","coordinates":[127.0371,37.62988]}},{"type":"Feature","properties":{"n":83,"hi":22,"up":46,"dn":47,"prev_hi":12,"chg":10,"sgg":"도봉구","umd":"도봉동"},"geometry":{"type":"Point","coordinates":[127.04742,37.68183]}},{"type":"Feature","properties":{"n":211,"hi":43,"up":60,"dn":32,"prev_hi":26,"chg":17,"sgg":"도봉구","umd":"창동"},"geometry":{"type":"Point","coordinates":[127.04243,37.64971]}},{"type":"Feature","properties":{"n":139,"hi":30,"up":58,"dn":38,"prev_hi":23,"chg":7,"sgg":"도봉구","umd":"쌍문동"},"geometry":{"type":"Point","coordinates":[127.03093,37.65353]}},{"type":"Feature","properties":{"n":167,"hi":22,"up":56,"dn":35,"prev_hi":12,"chg":10,"sgg":"도봉구","umd":"방학동"},"geometry":{"type":"Point","coordinates":[127.03491,37.66293]}},{"type":"Feature","properties":{"n":90,"hi":39,"up":62,"dn":33,"prev_hi":21,"chg":18,"sgg":"노원구","umd":"하계동"},"geometry":{"type":"Point","coordinates":[127.0696,37.6372]}},{"type":"Feature","properties":{"n":163,"hi":43,"up":58,"dn":36,"prev_hi":22,"chg":21,"sgg":"노원구","umd":"공릉동"},"geometry":{"type":"Point","coordinates":[127.07633,37.62398]}},{"type":"Feature","properties":{"n":543,"hi":34,"up":56,"dn":36,"prev_hi":20,"chg":14,"sgg":"노원구","umd":"상계동"},"geometry":{"type":"Point","coordinates":[127.06261,37.66561]}},{"type":"Feature","properties":{"n":204,"hi":38,"up":55,"dn":35,"prev_hi":23,"chg":15,"sgg":"노원구","umd":"월계동"},"geometry":{"type":"Point","coordinates":[127.05768,37.62556]}},{"type":"Feature","properties":{"n":214,"hi":33,"up":57,"dn":37,"prev_hi":16,"chg":17,"sgg":"노원구","umd":"중계동"},"geometry":{"type":"Point","coordinates":[127.07579,37.65163]}},{"type":"Feature","properties":{"n":71,"hi":54,"up":72,"dn":23,"prev_hi":24,"chg":30,"sgg":"은평구","umd":"진관동"},"geometry":{"type":"Point","coordinates":[126.92678,37.63878]}},{"type":"Feature","properties":{"n":188,"hi":31,"up":48,"dn":30,"prev_hi":30,"chg":1,"sgg":"은평구","umd":"응암동"},"geometry":{"type":"Point","coordinates":[126.92096,37.59566]}},{"type":"Feature","properties":{"n":76,"hi":30,"up":54,"dn":38,"prev_hi":23,"chg":7,"sgg":"은평구","umd":"불광동"},"geometry":{"type":"Point","coordinates":[126.92968,37.61786]}},{"type":"Feature","properties":{"n":31,"hi":29,"up":61,"dn":32,"prev_hi":16,"chg":13,"sgg":"은평구","umd":"녹번동"},"geometry":{"type":"Point","coordinates":[126.9294,37.60335]}},{"type":"Feature","properties":{"n":31,"hi":23,"up":52,"dn":42,"prev_hi":18,"chg":5,"sgg":"은평구","umd":"구산동"},"geometry":{"type":"Point","coordinates":[126.90826,37.61234]}},{"type":"Feature","properties":{"n":20,"hi":35,"up":45,"dn":25,"prev_hi":29,"chg":6,"sgg":"은평구","umd":"갈현동"},"geometry":{"type":"Point","coordinates":[126.91367,37.61936]}},{"type":"Feature","properties":{"n":57,"hi":33,"up":51,"dn":33,"prev_hi":24,"chg":9,"sgg":"은평구","umd":"수색동"},"geometry":{"type":"Point","coordinates":[126.89758,37.58374]}},{"type":"Feature","properties":{"n":53,"hi":42,"up":66,"dn":25,"prev_hi":31,"chg":11,"sgg":"은평구","umd":"신사동"},"geometry":{"type":"Point","coordinates":[126.90916,37.59653]}},{"type":"Feature","properties":{"n":22,"hi":41,"up":55,"dn":32,"prev_hi":26,"chg":15,"sgg":"서대문구","umd":"연희동"},"geometry":{"type":"Point","coordinates":[126.93126,37.57296]}},{"type":"Feature","properties":{"n":97,"hi":34,"up":43,"dn":40,"prev_hi":31,"chg":3,"sgg":"서대문구","umd":"홍제동"},"geometry":{"type":"Point","coordinates":[126.94652,37.58633]}},{"type":"Feature","properties":{"n":47,"hi":45,"up":60,"dn":32,"prev_hi":38,"chg":7,"sgg":"서대문구","umd":"북가좌동"},"geometry":{"type":"Point","coordinates":[126.91189,37.5791]}},{"type":"Feature","properties":{"n":22,"hi":55,"up":73,"dn":27,"prev_hi":15,"chg":40,"sgg":"서대문구","umd":"북아현동"},"geometry":{"type":"Point","coordinates":[126.95463,37.56183]}},{"type":"Feature","properties":{"n":95,"hi":44,"up":59,"dn":33,"prev_hi":32,"chg":12,"sgg":"서대문구","umd":"홍은동"},"geometry":{"type":"Point","coordinates":[126.93866,37.59123]}},{"type":"Feature","properties":{"n":65,"hi":23,"up":51,"dn":38,"prev_hi":38,"chg":-15,"sgg":"서대문구","umd":"남가좌동"},"geometry":{"type":"Point","coordinates":[126.91793,37.57397]}},{"type":"Feature","properties":{"n":28,"hi":39,"up":46,"dn":43,"prev_hi":36,"chg":3,"sgg":"마포구","umd":"도화동"},"geometry":{"type":"Point","coordinates":[126.94921,37.54013]}},{"type":"Feature","properties":{"n":24,"hi":46,"up":62,"dn":38,"prev_hi":33,"chg":13,"sgg":"마포구","umd":"상암동"},"geometry":{"type":"Point","coordinates":[126.8871,37.57951]}},{"type":"Feature","properties":{"n":25,"hi":28,"up":52,"dn":32,"prev_hi":36,"chg":-8,"sgg":"마포구","umd":"성산동"},"geometry":{"type":"Point","coordinates":[126.90953,37.56474]}},{"type":"Feature","properties":{"n":21,"hi":43,"up":57,"dn":38,"prev_hi":35,"chg":8,"sgg":"마포구","umd":"망원동"},"geometry":{"type":"Point","coordinates":[126.90217,37.5578]}},{"type":"Feature","properties":{"n":76,"hi":37,"up":54,"dn":34,"prev_hi":31,"chg":6,"sgg":"양천구","umd":"목동"},"geometry":{"type":"Point","coordinates":[126.87072,37.5365]}},{"type":"Feature","properties":{"n":123,"hi":50,"up":69,"dn":24,"prev_hi":33,"chg":17,"sgg":"양천구","umd":"신월동"},"geometry":{"type":"Point","coordinates":[126.83784,37.52654]}},{"type":"Feature","properties":{"n":164,"hi":42,"up":57,"dn":33,"prev_hi":34,"chg":8,"sgg":"양천구","umd":"신정동"},"geometry":{"type":"Point","coordinates":[126.85802,37.51964]}},{"type":"Feature","properties":{"n":98,"hi":41,"up":57,"dn":36,"prev_hi":36,"chg":5,"sgg":"강서구","umd":"등촌동"},"geometry":{"type":"Point","coordinates":[126.857,37.55478]}},{"type":"Feature","properties":{"n":63,"hi":40,"up":65,"dn":29,"prev_hi":40,"chg":0,"sgg":"강서구","umd":"마곡동"},"geometry":{"type":"Point","coordinates":[126.82225,37.56784]}},{"type":"Feature","properties":{"n":79,"hi":34,"up":49,"dn":43,"prev_hi":23,"chg":11,"sgg":"강서구","umd":"가양동"},"geometry":{"type":"Point","coordinates":[126.85013,37.56656]}},{"type":"Feature","properties":{"n":100,"hi":50,"up":59,"dn":30,"prev_hi":51,"chg":-1,"sgg":"강서구","umd":"염창동"},"geometry":{"type":"Point","coordinates":[126.87144,37.55231]}},{"type":"Feature","properties":{"n":123,"hi":33,"up":52,"dn":40,"prev_hi":29,"chg":4,"sgg":"강서구","umd":"화곡동"},"geometry":{"type":"Point","coordinates":[126.84478,37.5369]}},{"type":"Feature","properties":{"n":55,"hi":47,"up":62,"dn":33,"prev_hi":32,"chg":15,"sgg":"강서구","umd":"내발산동"},"geometry":{"type":"Point","coordinates":[126.8359,37.5526]}},{"type":"Feature","properties":{"n":136,"hi":47,"up":60,"dn":32,"prev_hi":28,"chg":19,"sgg":"강서구","umd":"방화동"},"geometry":{"type":"Point","coordinates":[126.81215,37.57275]}},{"type":"Feature","properties":{"n":88,"hi":22,"up":33,"dn":19,"prev_hi":10,"chg":12,"sgg":"강서구","umd":"공항동"},"geometry":{"type":"Point","coordinates":[126.81213,37.56156]}},{"type":"Feature","properties":{"n":223,"hi":45,"up":64,"dn":32,"prev_hi":29,"chg":16,"sgg":"구로구","umd":"구로동"},"geometry":{"type":"Point","coordinates":[126.88755,37.49125]}},{"type":"Feature","properties":{"n":73,"hi":42,"up":55,"dn":37,"prev_hi":34,"chg":8,"sgg":"구로구","umd":"신도림동"},"geometry":{"type":"Point","coordinates":[126.88399,37.5087]}},{"type":"Feature","properties":{"n":79,"hi":28,"up":49,"dn":47,"prev_hi":25,"chg":3,"sgg":"구로구","umd":"오류동"},"geometry":{"type":"Point","coordinates":[126.83824,37.49277]}},{"type":"Feature","properties":{"n":102,"hi":44,"up":54,"dn":37,"prev_hi":20,"chg":24,"sgg":"구로구","umd":"개봉동"},"geometry":{"type":"Point","coordinates":[126.85313,37.49402]}},{"type":"Feature","properties":{"n":76,"hi":45,"up":64,"dn":32,"prev_hi":27,"chg":18,"sgg":"구로구","umd":"고척동"},"geometry":{"type":"Point","coordinates":[126.85949,37.50372]}},{"type":"Feature","properties":{"n":40,"hi":40,"up":58,"dn":30,"prev_hi":18,"chg":22,"sgg":"구로구","umd":"항동"},"geometry":{"type":"Point","coordinates":[126.82193,37.48052]}},{"type":"Feature","properties":{"n":107,"hi":34,"up":58,"dn":39,"prev_hi":26,"chg":8,"sgg":"금천구","umd":"독산동"},"geometry":{"type":"Point","coordinates":[126.89912,37.46994]}},{"type":"Feature","properties":{"n":135,"hi":15,"up":51,"dn":41,"prev_hi":8,"chg":7,"sgg":"금천구","umd":"시흥동"},"geometry":{"type":"Point","coordinates":[126.90639,37.45034]}},{"type":"Feature","properties":{"n":102,"hi":41,"up":55,"dn":35,"prev_hi":37,"chg":4,"sgg":"영등포구","umd":"신길동"},"geometry":{"type":"Point","coordinates":[126.91454,37.50497]}},{"type":"Feature","properties":{"n":35,"hi":26,"up":54,"dn":34,"prev_hi":16,"chg":10,"sgg":"영등포구","umd":"여의도동"},"geometry":{"type":"Point","coordinates":[126.93128,37.52159]}},{"type":"Feature","properties":{"n":71,"hi":37,"up":56,"dn":39,"prev_hi":26,"chg":11,"sgg":"영등포구","umd":"대림동"},"geometry":{"type":"Point","coordinates":[126.90067,37.4947]}},{"type":"Feature","properties":{"n":22,"hi":55,"up":59,"dn":32,"prev_hi":55,"chg":0,"sgg":"영등포구","umd":"당산동4가"},"geometry":{"type":"Point","coordinates":[126.90001,37.52877]}},{"type":"Feature","properties":{"n":20,"hi":60,"up":70,"dn":20,"prev_hi":42,"chg":18,"sgg":"영등포구","umd":"문래동3가"},"geometry":{"type":"Point","coordinates":[126.89447,37.5178]}},{"type":"Feature","properties":{"n":20,"hi":50,"up":65,"dn":30,"prev_hi":57,"chg":-7,"sgg":"영등포구","umd":"양평동3가"},"geometry":{"type":"Point","coordinates":[126.89062,37.52885]}},{"type":"Feature","properties":{"n":30,"hi":43,"up":67,"dn":27,"prev_hi":33,"chg":10,"sgg":"동작구","umd":"대방동"},"geometry":{"type":"Point","coordinates":[126.92722,37.50838]}},{"type":"Feature","properties":{"n":46,"hi":48,"up":67,"dn":26,"prev_hi":33,"chg":15,"sgg":"동작구","umd":"신대방동"},"geometry":{"type":"Point","coordinates":[126.91912,37.49312]}},{"type":"Feature","properties":{"n":83,"hi":20,"up":29,"dn":11,"prev_hi":22,"chg":-2,"sgg":"동작구","umd":"노량진동"},"geometry":{"type":"Point","coordinates":[126.94417,37.50919]}},{"type":"Feature","properties":{"n":93,"hi":47,"up":61,"dn":32,"prev_hi":37,"chg":10,"sgg":"동작구","umd":"사당동"},"geometry":{"type":"Point","coordinates":[126.97147,37.48608]}},{"type":"Feature","properties":{"n":71,"hi":49,"up":65,"dn":31,"prev_hi":43,"chg":6,"sgg":"동작구","umd":"상도동"},"geometry":{"type":"Point","coordinates":[126.94437,37.4989]}},{"type":"Feature","properties":{"n":169,"hi":37,"up":51,"dn":37,"prev_hi":29,"chg":8,"sgg":"관악구","umd":"봉천동"},"geometry":{"type":"Point","coordinates":[126.95126,37.48174]}},{"type":"Feature","properties":{"n":175,"hi":25,"up":51,"dn":39,"prev_hi":21,"chg":4,"sgg":"관악구","umd":"신림동"},"geometry":{"type":"Point","coordinates":[126.92353,37.47515]}},{"type":"Feature","properties":{"n":32,"hi":12,"up":44,"dn":53,"prev_hi":16,"chg":-4,"sgg":"서초구","umd":"반포동"},"geometry":{"type":"Point","coordinates":[127.00384,37.50007]}},{"type":"Feature","properties":{"n":24,"hi":12,"up":12,"dn":8,"prev_hi":31,"chg":-19,"sgg":"서초구","umd":"양재동"},"geometry":{"type":"Point","coordinates":[127.0411,37.47673]}},{"type":"Feature","properties":{"n":30,"hi":50,"up":70,"dn":20,"prev_hi":37,"chg":13,"sgg":"서초구","umd":"방배동"},"geometry":{"type":"Point","coordinates":[126.99312,37.48654]}},{"type":"Feature","properties":{"n":32,"hi":19,"up":31,"dn":56,"prev_hi":25,"chg":-6,"sgg":"서초구","umd":"잠원동"},"geometry":{"type":"Point","coordinates":[127.01065,37.51317]}},{"type":"Feature","properties":{"n":82,"hi":41,"up":56,"dn":21,"prev_hi":23,"chg":18,"sgg":"서초구","umd":"서초동"},"geometry":{"type":"Point","coordinates":[127.01628,37.48844]}},{"type":"Feature","properties":{"n":33,"hi":33,"up":61,"dn":33,"prev_hi":23,"chg":10,"sgg":"강남구","umd":"역삼동"},"geometry":{"type":"Point","coordinates":[127.04063,37.49884]}},{"type":"Feature","properties":{"n":26,"hi":8,"up":54,"dn":38,"prev_hi":6,"chg":2,"sgg":"강남구","umd":"압구정동"},"geometry":{"type":"Point","coordinates":[127.03123,37.52972]}},{"type":"Feature","properties":{"n":35,"hi":9,"up":43,"dn":46,"prev_hi":14,"chg":-5,"sgg":"강남구","umd":"대치동"},"geometry":{"type":"Point","coordinates":[127.05911,37.49937]}},{"type":"Feature","properties":{"n":46,"hi":11,"up":43,"dn":52,"prev_hi":8,"chg":3,"sgg":"강남구","umd":"개포동"},"geometry":{"type":"Point","coordinates":[127.05913,37.48265]}},{"type":"Feature","properties":{"n":35,"hi":17,"up":51,"dn":40,"prev_hi":14,"chg":3,"sgg":"강남구","umd":"도곡동"},"geometry":{"type":"Point","coordinates":[127.04307,37.48817]}},{"type":"Feature","properties":{"n":22,"hi":9,"up":41,"dn":23,"prev_hi":7,"chg":2,"sgg":"강남구","umd":"수서동"},"geometry":{"type":"Point","coordinates":[127.09544,37.48536]}},{"type":"Feature","properties":{"n":37,"hi":22,"up":59,"dn":30,"prev_hi":7,"chg":15,"sgg":"송파구","umd":"신천동"},"geometry":{"type":"Point","coordinates":[127.10306,37.51731]}},{"type":"Feature","properties":{"n":80,"hi":41,"up":62,"dn":26,"prev_hi":20,"chg":21,"sgg":"송파구","umd":"가락동"},"geometry":{"type":"Point","coordinates":[127.12616,37.49653]}},{"type":"Feature","properties":{"n":56,"hi":20,"up":48,"dn":38,"prev_hi":21,"chg":-1,"sgg":"송파구","umd":"문정동"},"geometry":{"type":"Point","coordinates":[127.12783,37.48607]}},{"type":"Feature","properties":{"n":51,"hi":39,"up":51,"dn":31,"prev_hi":28,"chg":11,"sgg":"송파구","umd":"거여동"},"geometry":{"type":"Point","coordinates":[127.14509,37.49173]}},{"type":"Feature","properties":{"n":25,"hi":64,"up":72,"dn":24,"prev_hi":41,"chg":23,"sgg":"송파구","umd":"풍납동"},"geometry":{"type":"Point","coordinates":[127.11585,37.53211]}},{"type":"Feature","properties":{"n":111,"hi":9,"up":54,"dn":36,"prev_hi":5,"chg":4,"sgg":"송파구","umd":"잠실동"},"geometry":{"type":"Point","coordinates":[127.08491,37.50819]}},{"type":"Feature","properties":{"n":203,"hi":9,"up":15,"dn":8,"prev_hi":26,"chg":-17,"sgg":"송파구","umd":"장지동"},"geometry":{"type":"Point","coordinates":[127.13506,37.47927]}},{"type":"Feature","properties":{"n":20,"hi":40,"up":70,"dn":20,"prev_hi":21,"chg":19,"sgg":"송파구","umd":"방이동"},"geometry":{"type":"Point","coordinates":[127.11961,37.51262]}},{"type":"Feature","properties":{"n":31,"hi":71,"up":74,"dn":16,"prev_hi":42,"chg":29,"sgg":"송파구","umd":"오금동"},"geometry":{"type":"Point","coordinates":[127.13462,37.50462]}},{"type":"Feature","properties":{"n":27,"hi":78,"up":70,"dn":7,"prev_hi":36,"chg":42,"sgg":"송파구","umd":"송파동"},"geometry":{"type":"Point","coordinates":[127.11308,37.50614]}},{"type":"Feature","properties":{"n":52,"hi":54,"up":67,"dn":31,"prev_hi":43,"chg":11,"sgg":"강동구","umd":"천호동"},"geometry":{"type":"Point","coordinates":[127.1339,37.54348]}},{"type":"Feature","properties":{"n":48,"hi":40,"up":54,"dn":35,"prev_hi":33,"chg":7,"sgg":"강동구","umd":"둔촌동"},"geometry":{"type":"Point","coordinates":[127.14211,37.53107]}},{"type":"Feature","properties":{"n":39,"hi":26,"up":54,"dn":33,"prev_hi":11,"chg":15,"sgg":"강동구","umd":"고덕동"},"geometry":{"type":"Point","coordinates":[127.15597,37.55879]}},{"type":"Feature","properties":{"n":38,"hi":37,"up":68,"dn":26,"prev_hi":29,"chg":8,"sgg":"강동구","umd":"명일동"},"geometry":{"type":"Point","coordinates":[127.1471,37.54932]}},{"type":"Feature","properties":{"n":61,"hi":41,"up":62,"dn":34,"prev_hi":40,"chg":1,"sgg":"강동구","umd":"길동"},"geometry":{"type":"Point","coordinates":[127.14119,37.53856]}},{"type":"Feature","properties":{"n":37,"hi":24,"up":49,"dn":43,"prev_hi":21,"chg":3,"sgg":"강동구","umd":"상일동"},"geometry":{"type":"Point","coordinates":[127.16716,37.55113]}},{"type":"Feature","properties":{"n":59,"hi":32,"up":54,"dn":36,"prev_hi":20,"chg":12,"sgg":"강동구","umd":"암사동"},"geometry":{"type":"Point","coordinates":[127.13173,37.55284]}},{"type":"Feature","properties":{"n":41,"hi":54,"up":59,"dn":37,"prev_hi":32,"chg":22,"sgg":"강동구","umd":"강일동"},"geometry":{"type":"Point","coordinates":[127.17582,37.56583]}},{"type":"Feature","properties":{"n":52,"hi":50,"up":67,"dn":19,"prev_hi":37,"chg":13,"sgg":"강동구","umd":"성내동"},"geometry":{"type":"Point","coordinates":[127.13015,37.52947]}},{"type":"Feature","properties":{"n":258,"hi":43,"up":59,"dn":33,"prev_hi":27,"chg":16,"sgg":"수원시 영통구","umd":"망포동"},"geometry":{"type":"Point","coordinates":[127.05372,37.24062]}},{"type":"Feature","properties":{"n":570,"hi":20,"up":50,"dn":43,"prev_hi":14,"chg":6,"sgg":"수원시 영통구","umd":"영통동"},"geometry":{"type":"Point","coordinates":[127.07117,37.25445]}},{"type":"Feature","properties":{"n":122,"hi":27,"up":52,"dn":35,"prev_hi":14,"chg":13,"sgg":"수원시 영통구","umd":"원천동"},"geometry":{"type":"Point","coordinates":[127.05784,37.27167]}},{"type":"Feature","properties":{"n":243,"hi":23,"up":53,"dn":40,"prev_hi":7,"chg":16,"sgg":"수원시 영통구","umd":"매탄동"},"geometry":{"type":"Point","coordinates":[127.04572,37.26598]}},{"type":"Feature","properties":{"n":81,"hi":25,"up":52,"dn":38,"prev_hi":17,"chg":8,"sgg":"수원시 영통구","umd":"하동"},"geometry":{"type":"Point","coordinates":[127.07055,37.28558]}},{"type":"Feature","properties":{"n":111,"hi":46,"up":56,"dn":39,"prev_hi":29,"chg":17,"sgg":"수원시 영통구","umd":"이의동"},"geometry":{"type":"Point","coordinates":[127.05025,37.29559]}},{"type":"Feature","properties":{"n":29,"hi":38,"up":59,"dn":38,"prev_hi":30,"chg":8,"sgg":"성남시 수정구","umd":"창곡동"},"geometry":{"type":"Point","coordinates":[127.14482,37.46916]}},{"type":"Feature","properties":{"n":92,"hi":27,"up":50,"dn":39,"prev_hi":20,"chg":7,"sgg":"성남시 수정구","umd":"신흥동"},"geometry":{"type":"Point","coordinates":[127.14672,37.44633]}},{"type":"Feature","properties":{"n":21,"hi":57,"up":76,"dn":10,"prev_hi":28,"chg":29,"sgg":"성남시 수정구","umd":"태평동"},"geometry":{"type":"Point","coordinates":[127.13424,37.44536]}},{"type":"Feature","properties":{"n":21,"hi":38,"up":57,"dn":33,"prev_hi":36,"chg":2,"sgg":"성남시 수정구","umd":"단대동"},"geometry":{"type":"Point","coordinates":[127.15692,37.45293]}},{"type":"Feature","properties":{"n":26,"hi":27,"up":50,"dn":38,"prev_hi":6,"chg":21,"sgg":"성남시 수정구","umd":"고등동"},"geometry":{"type":"Point","coordinates":[127.09991,37.42773]}},{"type":"Feature","properties":{"n":43,"hi":26,"up":60,"dn":35,"prev_hi":29,"chg":-3,"sgg":"성남시 중원구","umd":"여수동"},"geometry":{"type":"Point","coordinates":[127.13446,37.41831]}},{"type":"Feature","properties":{"n":39,"hi":31,"up":44,"dn":44,"prev_hi":30,"chg":1,"sgg":"성남시 중원구","umd":"은행동"},"geometry":{"type":"Point","coordinates":[127.16673,37.45637]}},{"type":"Feature","properties":{"n":89,"hi":39,"up":54,"dn":39,"prev_hi":29,"chg":10,"sgg":"성남시 중원구","umd":"금광동"},"geometry":{"type":"Point","coordinates":[127.1652,37.44636]}},{"type":"Feature","properties":{"n":41,"hi":44,"up":63,"dn":27,"prev_hi":42,"chg":2,"sgg":"성남시 중원구","umd":"중앙동"},"geometry":{"type":"Point","coordinates":[127.15089,37.43891]}},{"type":"Feature","properties":{"n":29,"hi":31,"up":55,"dn":41,"prev_hi":34,"chg":-3,"sgg":"성남시 중원구","umd":"하대원동"},"geometry":{"type":"Point","coordinates":[127.14446,37.42962]}},{"type":"Feature","properties":{"n":20,"hi":45,"up":70,"dn":30,"prev_hi":50,"chg":-5,"sgg":"성남시 중원구","umd":"성남동"},"geometry":{"type":"Point","coordinates":[127.13577,37.43312]}},{"type":"Feature","properties":{"n":36,"hi":19,"up":69,"dn":25,"prev_hi":8,"chg":11,"sgg":"성남시 중원구","umd":"상대원동"},"geometry":{"type":"Point","coordinates":[127.17107,37.43907]}},{"type":"Feature","properties":{"n":31,"hi":48,"up":65,"dn":29,"prev_hi":32,"chg":16,"sgg":"성남시 분당구","umd":"백현동"},"geometry":{"type":"Point","coordinates":[127.10947,37.39005]}},{"type":"Feature","properties":{"n":54,"hi":44,"up":63,"dn":26,"prev_hi":22,"chg":22,"sgg":"성남시 분당구","umd":"수내동"},"geometry":{"type":"Point","coordinates":[127.11992,37.3738]}},{"type":"Feature","properties":{"n":139,"hi":45,"up":61,"dn":27,"prev_hi":25,"chg":20,"sgg":"성남시 분당구","umd":"정자동"},"geometry":{"type":"Point","coordinates":[127.11237,37.36505]}},{"type":"Feature","properties":{"n":32,"hi":50,"up":62,"dn":28,"prev_hi":29,"chg":21,"sgg":"성남시 분당구","umd":"판교동"},"geometry":{"type":"Point","coordinates":[127.09049,37.39103]}},{"type":"Feature","properties":{"n":73,"hi":45,"up":53,"dn":37,"prev_hi":40,"chg":5,"sgg":"성남시 분당구","umd":"구미동"},"geometry":{"type":"Point","coordinates":[127.11806,37.34141]}},{"type":"Feature","properties":{"n":47,"hi":57,"up":68,"dn":23,"prev_hi":26,"chg":31,"sgg":"성남시 분당구","umd":"금곡동"},"geometry":{"type":"Point","coordinates":[127.10874,37.35314]}},{"type":"Feature","properties":{"n":20,"hi":35,"up":55,"dn":35,"prev_hi":16,"chg":19,"sgg":"성남시 분당구","umd":"대장동"},"geometry":{"type":"Point","coordinates":[127.07003,37.36898]}},{"type":"Feature","properties":{"n":55,"hi":44,"up":60,"dn":29,"prev_hi":27,"chg":17,"sgg":"성남시 분당구","umd":"서현동"},"geometry":{"type":"Point","coordinates":[127.13348,37.37649]}},{"type":"Feature","properties":{"n":39,"hi":44,"up":64,"dn":21,"prev_hi":39,"chg":5,"sgg":"성남시 분당구","umd":"이매동"},"geometry":{"type":"Point","coordinates":[127.12425,37.39712]}},{"type":"Feature","properties":{"n":128,"hi":41,"up":61,"dn":34,"prev_hi":34,"chg":7,"sgg":"성남시 분당구","umd":"야탑동"},"geometry":{"type":"Point","coordinates":[127.13451,37.41033]}},{"type":"Feature","properties":{"n":29,"hi":41,"up":55,"dn":41,"prev_hi":38,"chg":3,"sgg":"성남시 분당구","umd":"삼평동"},"geometry":{"type":"Point","coordinates":[127.11562,37.40012]}},{"type":"Feature","properties":{"n":32,"hi":31,"up":53,"dn":38,"prev_hi":38,"chg":-7,"sgg":"성남시 분당구","umd":"운중동"},"geometry":{"type":"Point","coordinates":[127.07285,37.39027]}},{"type":"Feature","properties":{"n":143,"hi":9,"up":41,"dn":47,"prev_hi":14,"chg":-5,"sgg":"의정부시","umd":"의정부동"},"geometry":{"type":"Point","coordinates":[127.04708,37.73765]}},{"type":"Feature","properties":{"n":173,"hi":6,"up":45,"dn":43,"prev_hi":4,"chg":2,"sgg":"의정부시","umd":"민락동"},"geometry":{"type":"Point","coordinates":[127.09855,37.74398]}},{"type":"Feature","properties":{"n":202,"hi":14,"up":49,"dn":44,"prev_hi":9,"chg":5,"sgg":"의정부시","umd":"호원동"},"geometry":{"type":"Point","coordinates":[127.04652,37.71943]}},{"type":"Feature","properties":{"n":268,"hi":8,"up":48,"dn":45,"prev_hi":6,"chg":2,"sgg":"의정부시","umd":"신곡동"},"geometry":{"type":"Point","coordinates":[127.06198,37.73902]}},{"type":"Feature","properties":{"n":40,"hi":12,"up":48,"dn":42,"prev_hi":9,"chg":3,"sgg":"의정부시","umd":"금오동"},"geometry":{"type":"Point","coordinates":[127.06787,37.75364]}},{"type":"Feature","properties":{"n":51,"hi":12,"up":43,"dn":49,"prev_hi":12,"chg":0,"sgg":"의정부시","umd":"가능동"},"geometry":{"type":"Point","coordinates":[127.03802,37.7487]}},{"type":"Feature","properties":{"n":20,"hi":0,"up":50,"dn":50,"prev_hi":4,"chg":-4,"sgg":"의정부시","umd":"녹양동"},"geometry":{"type":"Point","coordinates":[127.03419,37.75918]}},{"type":"Feature","properties":{"n":99,"hi":7,"up":45,"dn":47,"prev_hi":8,"chg":-1,"sgg":"의정부시","umd":"장암동"},"geometry":{"type":"Point","coordinates":[127.05733,37.71753]}},{"type":"Feature","properties":{"n":52,"hi":4,"up":48,"dn":42,"prev_hi":9,"chg":-5,"sgg":"의정부시","umd":"낙양동"},"geometry":{"type":"Point","coordinates":[127.10706,37.75242]}},{"type":"Feature","properties":{"n":43,"hi":7,"up":44,"dn":49,"prev_hi":3,"chg":4,"sgg":"의정부시","umd":"고산동"},"geometry":{"type":"Point","coordinates":[127.11486,37.73782]}},{"type":"Feature","properties":{"n":74,"hi":8,"up":43,"dn":38,"prev_hi":2,"chg":6,"sgg":"의정부시","umd":"산곡동"},"geometry":{"type":"Point","coordinates":[127.10782,37.72731]}},{"type":"Feature","properties":{"n":98,"hi":8,"up":43,"dn":48,"prev_hi":8,"chg":0,"sgg":"의정부시","umd":"용현동"},"geometry":{"type":"Point","coordinates":[127.08273,37.73631]}},{"type":"Feature","properties":{"n":364,"hi":28,"up":54,"dn":36,"prev_hi":22,"chg":6,"sgg":"안양시 만안구","umd":"안양동"},"geometry":{"type":"Point","coordinates":[126.92335,37.39506]}},{"type":"Feature","properties":{"n":101,"hi":20,"up":53,"dn":40,"prev_hi":13,"chg":7,"sgg":"안양시 만안구","umd":"박달동"},"geometry":{"type":"Point","coordinates":[126.90453,37.40319]}},{"type":"Feature","properties":{"n":162,"hi":35,"up":59,"dn":35,"prev_hi":18,"chg":17,"sgg":"안양시 만안구","umd":"석수동"},"geometry":{"type":"Point","coordinates":[126.90632,37.41897]}},{"type":"Feature","properties":{"n":281,"hi":34,"up":57,"dn":36,"prev_hi":23,"chg":11,"sgg":"안양시 동안구","umd":"비산동"},"geometry":{"type":"Point","coordinates":[126.94262,37.39887]}},{"type":"Feature","properties":{"n":142,"hi":32,"up":51,"dn":37,"prev_hi":20,"chg":12,"sgg":"안양시 동안구","umd":"관양동"},"geometry":{"type":"Point","coordinates":[126.96424,37.40276]}},{"type":"Feature","properties":{"n":149,"hi":34,"up":53,"dn":40,"prev_hi":20,"chg":14,"sgg":"안양시 동안구","umd":"평촌동"},"geometry":{"type":"Point","coordinates":[126.97006,37.3894]}},{"type":"Feature","properties":{"n":394,"hi":39,"up":55,"dn":34,"prev_hi":26,"chg":13,"sgg":"안양시 동안구","umd":"호계동"},"geometry":{"type":"Point","coordinates":[126.95553,37.37653]}},{"type":"Feature","properties":{"n":44,"hi":9,"up":43,"dn":50,"prev_hi":13,"chg":-4,"sgg":"부천시 원미구","umd":"약대동"},"geometry":{"type":"Point","coordinates":[126.77057,37.51257]}},{"type":"Feature","properties":{"n":603,"hi":26,"up":52,"dn":41,"prev_hi":16,"chg":10,"sgg":"부천시 원미구","umd":"중동"},"geometry":{"type":"Point","coordinates":[126.77006,37.49938]}},{"type":"Feature","properties":{"n":370,"hi":18,"up":52,"dn":43,"prev_hi":14,"chg":4,"sgg":"부천시 원미구","umd":"상동"},"geometry":{"type":"Point","coordinates":[126.75362,37.50163]}},{"type":"Feature","properties":{"n":75,"hi":40,"up":56,"dn":27,"prev_hi":14,"chg":26,"sgg":"부천시 원미구","umd":"역곡동"},"geometry":{"type":"Point","coordinates":[126.81003,37.48781]}},{"type":"Feature","properties":{"n":63,"hi":21,"up":48,"dn":40,"prev_hi":28,"chg":-7,"sgg":"부천시 소사구","umd":"괴안동"},"geometry":{"type":"Point","coordinates":[126.8119,37.48188]}},{"type":"Feature","properties":{"n":111,"hi":10,"up":48,"dn":42,"prev_hi":8,"chg":2,"sgg":"부천시 소사구","umd":"소사본동"},"geometry":{"type":"Point","coordinates":[126.79709,37.47641]}},{"type":"Feature","properties":{"n":95,"hi":15,"up":41,"dn":43,"prev_hi":19,"chg":-4,"sgg":"부천시 소사구","umd":"송내동"},"geometry":{"type":"Point","coordinates":[126.76587,37.48297]}},{"type":"Feature","properties":{"n":103,"hi":18,"up":50,"dn":35,"prev_hi":3,"chg":15,"sgg":"부천시 소사구","umd":"옥길동"},"geometry":{"type":"Point","coordinates":[126.82063,37.46396]}},{"type":"Feature","properties":{"n":141,"hi":6,"up":46,"dn":45,"prev_hi":3,"chg":3,"sgg":"부천시 소사구","umd":"범박동"},"geometry":{"type":"Point","coordinates":[126.80932,37.47163]}},{"type":"Feature","properties":{"n":20,"hi":5,"up":30,"dn":50,"prev_hi":16,"chg":-11,"sgg":"부천시 소사구","umd":"심곡본동"},"geometry":{"type":"Point","coordinates":[126.78054,37.48127]}},{"type":"Feature","properties":{"n":24,"hi":17,"up":50,"dn":42,"prev_hi":32,"chg":-15,"sgg":"부천시 오정구","umd":"고강동"},"geometry":{"type":"Point","coordinates":[126.81828,37.5269]}},{"type":"Feature","properties":{"n":32,"hi":19,"up":38,"dn":50,"prev_hi":26,"chg":-7,"sgg":"부천시 오정구","umd":"원종동"},"geometry":{"type":"Point","coordinates":[126.80535,37.52487]}},{"type":"Feature","properties":{"n":23,"hi":0,"up":43,"dn":52,"prev_hi":20,"chg":-20,"sgg":"부천시 오정구","umd":"오정동"},"geometry":{"type":"Point","coordinates":[126.78778,37.52743]}},{"type":"Feature","properties":{"n":134,"hi":39,"up":56,"dn":32,"prev_hi":27,"chg":12,"sgg":"광명시","umd":"광명동"},"geometry":{"type":"Point","coordinates":[126.85298,37.4735]}},{"type":"Feature","properties":{"n":43,"hi":40,"up":60,"dn":30,"prev_hi":12,"chg":28,"sgg":"광명시","umd":"일직동"},"geometry":{"type":"Point","coordinates":[126.88316,37.41632]}},{"type":"Feature","properties":{"n":144,"hi":41,"up":57,"dn":41,"prev_hi":25,"chg":16,"sgg":"광명시","umd":"철산동"},"geometry":{"type":"Point","coordinates":[126.8675,37.47807]}},{"type":"Feature","properties":{"n":132,"hi":48,"up":60,"dn":33,"prev_hi":26,"chg":22,"sgg":"광명시","umd":"하안동"},"geometry":{"type":"Point","coordinates":[126.87537,37.46412]}},{"type":"Feature","properties":{"n":80,"hi":46,"up":60,"dn":31,"prev_hi":19,"chg":27,"sgg":"광명시","umd":"소하동"},"geometry":{"type":"Point","coordinates":[126.88298,37.44256]}},{"type":"Feature","properties":{"n":95,"hi":26,"up":49,"dn":37,"prev_hi":18,"chg":8,"sgg":"고양시 덕양구","umd":"향동동"},"geometry":{"type":"Point","coordinates":[126.89272,37.59921]}},{"type":"Feature","properties":{"n":72,"hi":7,"up":51,"dn":32,"prev_hi":5,"chg":2,"sgg":"고양시 덕양구","umd":"신원동"},"geometry":{"type":"Point","coordinates":[126.88634,37.66482]}},{"type":"Feature","properties":{"n":244,"hi":6,"up":50,"dn":41,"prev_hi":5,"chg":1,"sgg":"고양시 덕양구","umd":"행신동"},"geometry":{"type":"Point","coordinates":[126.83785,37.61937]}},{"type":"Feature","properties":{"n":265,"hi":8,"up":52,"dn":43,"prev_hi":5,"chg":3,"sgg":"고양시 덕양구","umd":"화정동"},"geometry":{"type":"Point","coordinates":[126.83255,37.63657]}},{"type":"Feature","properties":{"n":63,"hi":35,"up":56,"dn":33,"prev_hi":22,"chg":13,"sgg":"고양시 덕양구","umd":"도내동"},"geometry":{"type":"Point","coordinates":[126.86994,37.62978]}},{"type":"Feature","properties":{"n":63,"hi":14,"up":54,"dn":41,"prev_hi":5,"chg":9,"sgg":"고양시 덕양구","umd":"성사동"},"geometry":{"type":"Point","coordinates":[126.83975,37.65576]}},{"type":"Feature","properties":{"n":37,"hi":16,"up":51,"dn":41,"prev_hi":13,"chg":3,"sgg":"고양시 덕양구","umd":"원흥동"},"geometry":{"type":"Point","coordinates":[126.87548,37.65063]}},{"type":"Feature","properties":{"n":51,"hi":2,"up":37,"dn":51,"prev_hi":9,"chg":-7,"sgg":"고양시 덕양구","umd":"고양동"},"geometry":{"type":"Point","coordinates":[126.90184,37.70772]}},{"type":"Feature","properties":{"n":79,"hi":23,"up":47,"dn":41,"prev_hi":9,"chg":14,"sgg":"고양시 덕양구","umd":"지축동"},"geometry":{"type":"Point","coordinates":[126.91691,37.65178]}},{"type":"Feature","properties":{"n":44,"hi":20,"up":59,"dn":36,"prev_hi":5,"chg":15,"sgg":"고양시 덕양구","umd":"삼송동"},"geometry":{"type":"Point","coordinates":[126.88874,37.65139]}},{"type":"Feature","properties":{"n":76,"hi":11,"up":39,"dn":47,"prev_hi":8,"chg":3,"sgg":"고양시 덕양구","umd":"토당동"},"geometry":{"type":"Point","coordinates":[126.82147,37.62388]}},{"type":"Feature","properties":{"n":24,"hi":4,"up":54,"dn":46,"prev_hi":2,"chg":2,"sgg":"고양시 덕양구","umd":"동산동"},"geometry":{"type":"Point","coordinates":[126.88726,37.64588]}},{"type":"Feature","properties":{"n":54,"hi":13,"up":56,"dn":41,"prev_hi":11,"chg":2,"sgg":"고양시 덕양구","umd":"덕은동"},"geometry":{"type":"Point","coordinates":[126.86439,37.58064]}},{"type":"Feature","properties":{"n":72,"hi":6,"up":49,"dn":43,"prev_hi":4,"chg":2,"sgg":"고양시 일산동구","umd":"마두동"},"geometry":{"type":"Point","coordinates":[126.78628,37.65476]}},{"type":"Feature","properties":{"n":39,"hi":5,"up":51,"dn":44,"prev_hi":12,"chg":-7,"sgg":"고양시 일산동구","umd":"장항동"},"geometry":{"type":"Point","coordinates":[126.76711,37.65355]}},{"type":"Feature","properties":{"n":87,"hi":2,"up":44,"dn":51,"prev_hi":3,"chg":-1,"sgg":"고양시 일산동구","umd":"중산동"},"geometry":{"type":"Point","coordinates":[126.78211,37.68824]}},{"type":"Feature","properties":{"n":67,"hi":3,"up":37,"dn":54,"prev_hi":9,"chg":-6,"sgg":"고양시 일산동구","umd":"풍동"},"geometry":{"type":"Point","coordinates":[126.79726,37.6671]}},{"type":"Feature","properties":{"n":95,"hi":7,"up":45,"dn":49,"prev_hi":5,"chg":2,"sgg":"고양시 일산동구","umd":"식사동"},"geometry":{"type":"Point","coordinates":[126.81143,37.67658]}},{"type":"Feature","properties":{"n":73,"hi":1,"up":59,"dn":34,"prev_hi":3,"chg":-2,"sgg":"고양시 일산동구","umd":"백석동"},"geometry":{"type":"Point","coordinates":[126.78913,37.64931]}},{"type":"Feature","properties":{"n":174,"hi":6,"up":43,"dn":46,"prev_hi":6,"chg":0,"sgg":"고양시 일산서구","umd":"일산동"},"geometry":{"type":"Point","coordinates":[126.769,37.68428]}},{"type":"Feature","properties":{"n":63,"hi":3,"up":48,"dn":49,"prev_hi":7,"chg":-4,"sgg":"고양시 일산서구","umd":"대화동"},"geometry":{"type":"Point","coordinates":[126.74066,37.67293]}},{"type":"Feature","properties":{"n":48,"hi":4,"up":46,"dn":46,"prev_hi":4,"chg":0,"sgg":"고양시 일산서구","umd":"덕이동"},"geometry":{"type":"Point","coordinates":[126.74967,37.69781]}},{"type":"Feature","properties":{"n":171,"hi":2,"up":47,"dn":43,"prev_hi":2,"chg":0,"sgg":"고양시 일산서구","umd":"탄현동"},"geometry":{"type":"Point","coordinates":[126.76659,37.69559]}},{"type":"Feature","properties":{"n":195,"hi":5,"up":46,"dn":49,"prev_hi":4,"chg":1,"sgg":"고양시 일산서구","umd":"주엽동"},"geometry":{"type":"Point","coordinates":[126.76157,37.6711]}},{"type":"Feature","properties":{"n":20,"hi":0,"up":55,"dn":40,"prev_hi":6,"chg":-6,"sgg":"고양시 일산서구","umd":"가좌동"},"geometry":{"type":"Point","coordinates":[126.71968,37.68756]}},{"type":"Feature","properties":{"n":22,"hi":9,"up":55,"dn":32,"prev_hi":4,"chg":5,"sgg":"과천시","umd":"원문동"},"geometry":{"type":"Point","coordinates":[126.99167,37.42203]}},{"type":"Feature","properties":{"n":63,"hi":30,"up":56,"dn":35,"prev_hi":19,"chg":11,"sgg":"구리시","umd":"갈매동"},"geometry":{"type":"Point","coordinates":[127.11639,37.63024]}},{"type":"Feature","properties":{"n":92,"hi":28,"up":54,"dn":37,"prev_hi":25,"chg":3,"sgg":"구리시","umd":"인창동"},"geometry":{"type":"Point","coordinates":[127.1344,37.60766]}},{"type":"Feature","properties":{"n":31,"hi":48,"up":61,"dn":26,"prev_hi":35,"chg":13,"sgg":"구리시","umd":"수택동"},"geometry":{"type":"Point","coordinates":[127.1439,37.59505]}},{"type":"Feature","properties":{"n":53,"hi":8,"up":51,"dn":45,"prev_hi":5,"chg":3,"sgg":"남양주시","umd":"오남읍 양지리"},"geometry":{"type":"Point","coordinates":[127.19764,37.70148]}},{"type":"Feature","properties":{"n":164,"hi":12,"up":50,"dn":43,"prev_hi":10,"chg":2,"sgg":"남양주시","umd":"호평동"},"geometry":{"type":"Point","coordinates":[127.24789,37.65919]}},{"type":"Feature","properties":{"n":504,"hi":30,"up":52,"dn":37,"prev_hi":21,"chg":9,"sgg":"남양주시","umd":"다산동"},"geometry":{"type":"Point","coordinates":[127.15787,37.61117]}},{"type":"Feature","properties":{"n":112,"hi":12,"up":46,"dn":45,"prev_hi":14,"chg":-2,"sgg":"남양주시","umd":"오남읍 오남리"},"geometry":{"type":"Point","coordinates":[127.20905,37.68817]}},{"type":"Feature","properties":{"n":200,"hi":6,"up":49,"dn":43,"prev_hi":3,"chg":3,"sgg":"남양주시","umd":"평내동"},"geometry":{"type":"Point","coordinates":[127.23874,37.64569]}},{"type":"Feature","properties":{"n":306,"hi":21,"up":51,"dn":39,"prev_hi":8,"chg":13,"sgg":"남양주시","umd":"별내동"},"geometry":{"type":"Point","coordinates":[127.12208,37.65732]}},{"type":"Feature","properties":{"n":110,"hi":20,"up":49,"dn":44,"prev_hi":20,"chg":0,"sgg":"남양주시","umd":"와부읍 도곡리"},"geometry":{"type":"Point","coordinates":[127.21971,37.57809]}},{"type":"Feature","properties":{"n":189,"hi":22,"up":55,"dn":40,"prev_hi":9,"chg":13,"sgg":"남양주시","umd":"와부읍 덕소리"},"geometry":{"type":"Point","coordinates":[127.21328,37.58659]}},{"type":"Feature","properties":{"n":40,"hi":8,"up":58,"dn":42,"prev_hi":5,"chg":3,"sgg":"남양주시","umd":"화도읍 창현리"},"geometry":{"type":"Point","coordinates":[127.30359,37.64437]}},{"type":"Feature","properties":{"n":40,"hi":20,"up":40,"dn":35,"prev_hi":14,"chg":6,"sgg":"남양주시","umd":"금곡동"},"geometry":{"type":"Point","coordinates":[127.20759,37.63422]}},{"type":"Feature","properties":{"n":74,"hi":7,"up":51,"dn":41,"prev_hi":7,"chg":0,"sgg":"남양주시","umd":"화도읍 묵현리"},"geometry":{"type":"Point","coordinates":[127.29189,37.66144]}},{"type":"Feature","properties":{"n":61,"hi":7,"up":46,"dn":44,"prev_hi":7,"chg":0,"sgg":"남양주시","umd":"진접읍 장현리"},"geometry":{"type":"Point","coordinates":[127.18674,37.7225]}},{"type":"Feature","properties":{"n":31,"hi":6,"up":52,"dn":35,"prev_hi":5,"chg":1,"sgg":"남양주시","umd":"화도읍 마석우리"},"geometry":{"type":"Point","coordinates":[127.3079,37.65693]}},{"type":"Feature","properties":{"n":65,"hi":3,"up":42,"dn":51,"prev_hi":6,"chg":-3,"sgg":"남양주시","umd":"진접읍 부평리"},"geometry":{"type":"Point","coordinates":[127.19861,37.73763]}},{"type":"Feature","properties":{"n":65,"hi":8,"up":45,"dn":49,"prev_hi":10,"chg":-2,"sgg":"남양주시","umd":"별내면 청학리"},"geometry":{"type":"Point","coordinates":[127.11628,37.71001]}},{"type":"Feature","properties":{"n":36,"hi":11,"up":42,"dn":50,"prev_hi":21,"chg":-10,"sgg":"남양주시","umd":"진건읍 용정리"},"geometry":{"type":"Point","coordinates":[127.18078,37.65841]}},{"type":"Feature","properties":{"n":118,"hi":3,"up":46,"dn":47,"prev_hi":2,"chg":1,"sgg":"남양주시","umd":"진접읍 금곡리"},"geometry":{"type":"Point","coordinates":[127.19775,37.7183]}},{"type":"Feature","properties":{"n":59,"hi":27,"up":61,"dn":36,"prev_hi":14,"chg":13,"sgg":"남양주시","umd":"퇴계원읍 퇴계원리"},"geometry":{"type":"Point","coordinates":[127.1442,37.65109]}},{"type":"Feature","properties":{"n":43,"hi":9,"up":44,"dn":44,"prev_hi":9,"chg":0,"sgg":"남양주시","umd":"화도읍 녹촌리"},"geometry":{"type":"Point","coordinates":[127.29568,37.64883]}},{"type":"Feature","properties":{"n":44,"hi":39,"up":59,"dn":32,"prev_hi":24,"chg":15,"sgg":"하남시","umd":"선동"},"geometry":{"type":"Point","coordinates":[127.18201,37.57413]}},{"type":"Feature","properties":{"n":116,"hi":28,"up":51,"dn":37,"prev_hi":21,"chg":7,"sgg":"하남시","umd":"신장동"},"geometry":{"type":"Point","coordinates":[127.21227,37.54069]}},{"type":"Feature","properties":{"n":147,"hi":31,"up":50,"dn":37,"prev_hi":30,"chg":1,"sgg":"하남시","umd":"망월동"},"geometry":{"type":"Point","coordinates":[127.19039,37.56587]}},{"type":"Feature","properties":{"n":62,"hi":39,"up":58,"dn":37,"prev_hi":51,"chg":-12,"sgg":"하남시","umd":"감이동"},"geometry":{"type":"Point","coordinates":[127.15938,37.50551]}},{"type":"Feature","properties":{"n":111,"hi":41,"up":58,"dn":33,"prev_hi":21,"chg":20,"sgg":"하남시","umd":"덕풍동"},"geometry":{"type":"Point","coordinates":[127.20136,37.5409]}},{"type":"Feature","properties":{"n":93,"hi":45,"up":59,"dn":34,"prev_hi":37,"chg":8,"sgg":"하남시","umd":"풍산동"},"geometry":{"type":"Point","coordinates":[127.18992,37.55336]}},{"type":"Feature","properties":{"n":33,"hi":45,"up":58,"dn":33,"prev_hi":24,"chg":21,"sgg":"하남시","umd":"학암동"},"geometry":{"type":"Point","coordinates":[127.15384,37.48075]}},{"type":"Feature","properties":{"n":46,"hi":17,"up":57,"dn":33,"prev_hi":20,"chg":-3,"sgg":"하남시","umd":"창우동"},"geometry":{"type":"Point","coordinates":[127.22419,37.53855]}},{"type":"Feature","properties":{"n":21,"hi":10,"up":57,"dn":38,"prev_hi":4,"chg":6,"sgg":"용인시 처인구","umd":"포곡읍 둔전리"},"geometry":{"type":"Point","coordinates":[127.21936,37.26888]}},{"type":"Feature","properties":{"n":49,"hi":18,"up":53,"dn":39,"prev_hi":12,"chg":6,"sgg":"용인시 처인구","umd":"김량장동"},"geometry":{"type":"Point","coordinates":[127.20096,37.23477]}},{"type":"Feature","properties":{"n":129,"hi":16,"up":50,"dn":46,"prev_hi":13,"chg":3,"sgg":"용인시 처인구","umd":"고림동"},"geometry":{"type":"Point","coordinates":[127.22349,37.25114]}},{"type":"Feature","properties":{"n":161,"hi":16,"up":50,"dn":40,"prev_hi":11,"chg":5,"sgg":"용인시 처인구","umd":"역북동"},"geometry":{"type":"Point","coordinates":[127.19222,37.238]}},{"type":"Feature","properties":{"n":45,"hi":9,"up":51,"dn":47,"prev_hi":13,"chg":-4,"sgg":"용인시 처인구","umd":"유방동"},"geometry":{"type":"Point","coordinates":[127.2146,37.26287]}},{"type":"Feature","properties":{"n":26,"hi":31,"up":65,"dn":35,"prev_hi":11,"chg":20,"sgg":"용인시 처인구","umd":"이동읍 천리"},"geometry":{"type":"Point","coordinates":[127.20967,37.19264]}},{"type":"Feature","properties":{"n":61,"hi":23,"up":52,"dn":36,"prev_hi":12,"chg":11,"sgg":"용인시 처인구","umd":"남사읍 완장리"},"geometry":{"type":"Point","coordinates":[127.17402,37.15804]}},{"type":"Feature","properties":{"n":36,"hi":14,"up":42,"dn":44,"prev_hi":11,"chg":3,"sgg":"용인시 처인구","umd":"남사읍 아곡리"},"geometry":{"type":"Point","coordinates":[127.17055,37.15634]}},{"type":"Feature","properties":{"n":68,"hi":9,"up":47,"dn":41,"prev_hi":7,"chg":2,"sgg":"용인시 처인구","umd":"삼가동"},"geometry":{"type":"Point","coordinates":[127.16988,37.23969]}},{"type":"Feature","properties":{"n":57,"hi":42,"up":63,"dn":32,"prev_hi":25,"chg":17,"sgg":"용인시 기흥구","umd":"마북동"},"geometry":{"type":"Point","coordinates":[127.11958,37.30131]}},{"type":"Feature","properties":{"n":27,"hi":30,"up":52,"dn":37,"prev_hi":32,"chg":-2,"sgg":"용인시 기흥구","umd":"보정동"},"geometry":{"type":"Point","coordinates":[127.1067,37.31013]}},{"type":"Feature","properties":{"n":64,"hi":30,"up":53,"dn":41,"prev_hi":23,"chg":7,"sgg":"용인시 기흥구","umd":"신갈동"},"geometry":{"type":"Point","coordinates":[127.109,37.28069]}},{"type":"Feature","properties":{"n":27,"hi":52,"up":74,"dn":22,"prev_hi":23,"chg":29,"sgg":"용인시 기흥구","umd":"언남동"},"geometry":{"type":"Point","coordinates":[127.12419,37.29471]}},{"type":"Feature","properties":{"n":62,"hi":13,"up":48,"dn":42,"prev_hi":7,"chg":6,"sgg":"용인시 기흥구","umd":"보라동"},"geometry":{"type":"Point","coordinates":[127.11272,37.25149]}},{"type":"Feature","properties":{"n":51,"hi":45,"up":57,"dn":31,"prev_hi":23,"chg":22,"sgg":"용인시 기흥구","umd":"구갈동"},"geometry":{"type":"Point","coordinates":[127.11879,37.2755]}},{"type":"Feature","properties":{"n":63,"hi":33,"up":60,"dn":35,"prev_hi":10,"chg":23,"sgg":"용인시 기흥구","umd":"중동"},"geometry":{"type":"Point","coordinates":[127.15155,37.2743]}},{"type":"Feature","properties":{"n":60,"hi":27,"up":65,"dn":25,"prev_hi":14,"chg":13,"sgg":"용인시 기흥구","umd":"영덕동"},"geometry":{"type":"Point","coordinates":[127.08531,37.27246]}},{"type":"Feature","properties":{"n":27,"hi":4,"up":41,"dn":56,"prev_hi":17,"chg":-13,"sgg":"용인시 기흥구","umd":"청덕동"},"geometry":{"type":"Point","coordinates":[127.15144,37.29455]}},{"type":"Feature","properties":{"n":62,"hi":23,"up":53,"dn":40,"prev_hi":11,"chg":12,"sgg":"용인시 기흥구","umd":"동백동"},"geometry":{"type":"Point","coordinates":[127.15631,37.28259]}},{"type":"Feature","properties":{"n":108,"hi":21,"up":30,"dn":11,"prev_hi":12,"chg":9,"sgg":"용인시 기흥구","umd":"상하동"},"geometry":{"type":"Point","coordinates":[127.13956,37.26492]}},{"type":"Feature","properties":{"n":27,"hi":48,"up":78,"dn":19,"prev_hi":18,"chg":30,"sgg":"용인시 기흥구","umd":"서천동"},"geometry":{"type":"Point","coordinates":[127.07289,37.24173]}},{"type":"Feature","properties":{"n":175,"hi":38,"up":59,"dn":38,"prev_hi":18,"chg":20,"sgg":"용인시 수지구","umd":"성복동"},"geometry":{"type":"Point","coordinates":[127.06929,37.31641]}},{"type":"Feature","properties":{"n":235,"hi":31,"up":55,"dn":39,"prev_hi":21,"chg":10,"sgg":"용인시 수지구","umd":"풍덕천동"},"geometry":{"type":"Point","coordinates":[127.09203,37.32288]}},{"type":"Feature","properties":{"n":151,"hi":38,"up":54,"dn":37,"prev_hi":32,"chg":6,"sgg":"용인시 수지구","umd":"동천동"},"geometry":{"type":"Point","coordinates":[127.0949,37.33884]}},{"type":"Feature","properties":{"n":105,"hi":50,"up":67,"dn":31,"prev_hi":25,"chg":25,"sgg":"용인시 수지구","umd":"신봉동"},"geometry":{"type":"Point","coordinates":[127.07282,37.32642]}},{"type":"Feature","properties":{"n":299,"hi":39,"up":58,"dn":32,"prev_hi":29,"chg":10,"sgg":"용인시 수지구","umd":"상현동"},"geometry":{"type":"Point","coordinates":[127.08139,37.30629]}},{"type":"Feature","properties":{"n":204,"hi":43,"up":60,"dn":31,"prev_hi":34,"chg":9,"sgg":"용인시 수지구","umd":"죽전동"},"geometry":{"type":"Point","coordinates":[127.11802,37.33012]}},{"type":"Feature","properties":{"n":41,"hi":0,"up":34,"dn":44,"prev_hi":0,"chg":0,"sgg":"김포시","umd":"마산동"},"geometry":{"type":"Point","coordinates":[126.63706,37.63806]}},{"type":"Feature","properties":{"n":81,"hi":9,"up":48,"dn":42,"prev_hi":10,"chg":-1,"sgg":"김포시","umd":"고촌읍 신곡리"},"geometry":{"type":"Point","coordinates":[126.76946,37.60169]}},{"type":"Feature","properties":{"n":27,"hi":0,"up":37,"dn":41,"prev_hi":8,"chg":-8,"sgg":"김포시","umd":"고촌읍 향산리"},"geometry":{"type":"Point","coordinates":[126.74594,37.62069]}},{"type":"Feature","properties":{"n":86,"hi":2,"up":45,"dn":42,"prev_hi":1,"chg":1,"sgg":"김포시","umd":"구래동"},"geometry":{"type":"Point","coordinates":[126.62961,37.64583]}},{"type":"Feature","properties":{"n":172,"hi":8,"up":44,"dn":48,"prev_hi":11,"chg":-3,"sgg":"김포시","umd":"풍무동"},"geometry":{"type":"Point","coordinates":[126.72363,37.60327]}},{"type":"Feature","properties":{"n":37,"hi":5,"up":43,"dn":43,"prev_hi":7,"chg":-2,"sgg":"김포시","umd":"감정동"},"geometry":{"type":"Point","coordinates":[126.70063,37.62299]}},{"type":"Feature","properties":{"n":93,"hi":3,"up":45,"dn":44,"prev_hi":3,"chg":0,"sgg":"김포시","umd":"운양동"},"geometry":{"type":"Point","coordinates":[126.68183,37.65098]}},{"type":"Feature","properties":{"n":59,"hi":7,"up":41,"dn":46,"prev_hi":3,"chg":4,"sgg":"김포시","umd":"걸포동"},"geometry":{"type":"Point","coordinates":[126.70385,37.63479]}},{"type":"Feature","properties":{"n":178,"hi":3,"up":49,"dn":42,"prev_hi":3,"chg":0,"sgg":"김포시","umd":"장기동"},"geometry":{"type":"Point","coordinates":[126.66809,37.64365]}},{"type":"Feature","properties":{"n":22,"hi":0,"up":45,"dn":55,"prev_hi":0,"chg":0,"sgg":"김포시","umd":"고촌읍 태리"},"geometry":{"type":"Point","coordinates":[126.75627,37.59372]}},{"type":"Feature","properties":{"n":42,"hi":5,"up":43,"dn":55,"prev_hi":7,"chg":-2,"sgg":"김포시","umd":"북변동"},"geometry":{"type":"Point","coordinates":[126.71309,37.62481]}},{"type":"Feature","properties":{"n":33,"hi":0,"up":36,"dn":52,"prev_hi":0,"chg":0,"sgg":"김포시","umd":"통진읍 마송리"},"geometry":{"type":"Point","coordinates":[126.59867,37.68942]}},{"type":"Feature","properties":{"n":45,"hi":4,"up":60,"dn":31,"prev_hi":6,"chg":-2,"sgg":"김포시","umd":"사우동"},"geometry":{"type":"Point","coordinates":[126.72107,37.62033]}}]}