{"type":"FeatureCollection","features":[{"type":"Feature","properties":{"name":"한성대입구역","line":"4호선","color":"#009BCE","transfer":false},"geometry":{"type":"Point","coordinates":[127.005962,37.588514]}},{"type":"Feature","properties":{"name":"명학역","line":"1호선","color":"#004A85","transfer":false},"geometry":{"type":"Point","coordinates":[126.935609,37.384394]}},{"type":"Feature","properties":{"name":"관악역","line":"1호선","color":"#004A85","transfer":false},"geometry":{"type":"Point","coordinates":[126.909154,37.418724]}},{"type":"Feature","properties":{"name":"군포역","line":"1호선","color":"#004A85","transfer":false},"geometry":{"type":"Point","coordinates":[126.948461,37.353575]}},{"type":"Feature","properties":{"name":"성균관대역","line":"1호선","color":"#004A85","transfer":false},"geometry":{"type":"Point","coordinates":[126.971178,37.300285]}},{"type":"Feature","properties":{"name":"세마역","line":"1호선","color":"#004A85","transfer":false},"geometry":{"type":"Point","coordinates":[127.043274,37.187372]}},{"type":"Feature","properties":{"name":"오산역","line":"1호선","color":"#004A85","transfer":false},"geometry":{"type":"Point","coordinates":[127.066752,37.145558]}},{"type":"Feature","properties":{"name":"오산대역","line":"1호선","color":"#004A85","transfer":false},"geometry":{"type":"Point","coordinates":[127.063115,37.1693]}},{"type":"Feature","properties":{"name":"제기동역","line":"1호선","color":"#004A85","transfer":false},"geometry":{"type":"Point","coordinates":[127.034467,37.578378]}},{"type":"Feature","properties":{"name":"신이문역","line":"1호선","color":"#004A85","transfer":false},"geometry":{"type":"Point","coordinates":[127.06729,37.601638]}},{"type":"Feature","properties":{"name":"회기역","line":"1호선·경의중앙선·경춘선","color":"#004A85","transfer":true},"geometry":{"type":"Point","coordinates":[127.057624,37.589497]}},{"type":"Feature","properties":{"name":"월계역","line":"1호선","color":"#004A85","transfer":false},"geometry":{"type":"Point","coordinates":[127.058865,37.633063]}},{"type":"Feature","properties":{"name":"녹천역","line":"1호선","color":"#004A85","transfer":false},"geometry":{"type":"Point","coordinates":[127.051398,37.644627]}},{"type":"Feature","properties":{"name":"광운대역","line":"1호선·경춘선","color":"#004A85","transfer":true},"geometry":{"type":"Point","coordinates":[127.061819,37.623699]}},{"type":"Feature","properties":{"name":"창동역","line":"1호선·4호선","color":"#004A85","transfer":true},"geometry":{"type":"Point","coordinates":[127.047978,37.652598]}},{"type":"Feature","properties":{"name":"방학역","line":"1호선","color":"#004A85","transfer":false},"geometry":{"type":"Point","coordinates":[127.044303,37.66769]}},{"type":"Feature","properties":{"name":"가능역","line":"1호선","color":"#004A85","transfer":false},"geometry":{"type":"Point","coordinates":[127.044363,37.748321]}},{"type":"Feature","properties":{"name":"망월사역","line":"1호선","color":"#004A85","transfer":false},"geometry":{"type":"Point","coordinates":[127.047397,37.710253]}},{"type":"Feature","properties":{"name":"덕정역","line":"1호선","color":"#004A85","transfer":false},"geometry":{"type":"Point","coordinates":[127.061549,37.843445]}},{"type":"Feature","properties":{"name":"덕계역","line":"1호선","color":"#004A85","transfer":false},"geometry":{"type":"Point","coordinates":[127.056651,37.818636]}},{"type":"Feature","properties":{"name":"양주역","line":"1호선","color":"#004A85","transfer":false},"geometry":{"type":"Point","coordinates":[127.044756,37.7742]}},{"type":"Feature","properties":{"name":"녹양역","line":"1호선","color":"#004A85","transfer":false},"geometry":{"type":"Point","coordinates":[127.042336,37.759442]}},{"type":"Feature","properties":{"name":"오류동역","line":"1호선","color":"#004A85","transfer":false},"geometry":{"type":"Point","coordinates":[126.844537,37.494347]}},{"type":"Feature","properties":{"name":"개봉역","line":"1호선","color":"#004A85","transfer":false},"geometry":{"type":"Point","coordinates":[126.858754,37.494593]}},{"type":"Feature","properties":{"name":"구일역","line":"1호선","color":"#004A85","transfer":false},"geometry":{"type":"Point","coordinates":[126.869706,37.496207]}},{"type":"Feature","properties":{"name":"중동역","line":"1호선","color":"#004A85","transfer":false},"geometry":{"type":"Point","coordinates":[126.763967,37.486778]}},{"type":"Feature","properties":{"name":"송내역","line":"1호선","color":"#004A85","transfer":false},"geometry":{"type":"Point","coordinates":[126.752885,37.487704]}},{"type":"Feature","properties":{"name":"부평역","line":"1호선","color":"#004A85","transfer":false},"geometry":{"type":"Point","coordinates":[126.724559,37.489454]}},{"type":"Feature","properties":{"name":"소사역","line":"1호선·서해선","color":"#004A85","transfer":true},"geometry":{"type":"Point","coordinates":[126.79559,37.482766]}},{"type":"Feature","properties":{"name":"부천역","line":"1호선","color":"#004A85","transfer":false},"geometry":{"type":"Point","coordinates":[126.782735,37.48411]}},{"type":"Feature","properties":{"name":"도화역","line":"1호선","color":"#004A85","transfer":false},"geometry":{"type":"Point","coordinates":[126.668264,37.466124]}},{"type":"Feature","properties":{"name":"제물포역","line":"1호선","color":"#004A85","transfer":false},"geometry":{"type":"Point","coordinates":[126.656985,37.466815]}},{"type":"Feature","properties":{"name":"도원역","line":"1호선","color":"#004A85","transfer":false},"geometry":{"type":"Point","coordinates":[126.642401,37.468826]}},{"type":"Feature","properties":{"name":"백운역","line":"1호선","color":"#004A85","transfer":false},"geometry":{"type":"Point","coordinates":[126.707111,37.483123]}},{"type":"Feature","properties":{"name":"동암역","line":"1호선","color":"#004A85","transfer":false},"geometry":{"type":"Point","coordinates":[126.702877,37.471046]}},{"type":"Feature","properties":{"name":"주안역","line":"1호선","color":"#004A85","transfer":false},"geometry":{"type":"Point","coordinates":[126.680631,37.465081]}},{"type":"Feature","properties":{"name":"과천역","line":"4호선","color":"#009BCE","transfer":false},"geometry":{"type":"Point","coordinates":[126.996958,37.433074]}},{"type":"Feature","properties":{"name":"경마공원역","line":"4호선","color":"#009BCE","transfer":false},"geometry":{"type":"Point","coordinates":[127.007896,37.443765]}},{"type":"Feature","properties":{"name":"일원역","line":"3호선","color":"#ED6C00","transfer":false},"geometry":{"type":"Point","coordinates":[127.084377,37.483692]}},{"type":"Feature","properties":{"name":"상록수역","line":"4호선","color":"#009BCE","transfer":false},"geometry":{"type":"Point","coordinates":[126.866778,37.302813]}},{"type":"Feature","properties":{"name":"금정역","line":"1호선·4호선","color":"#004A85","transfer":true},"geometry":{"type":"Point","coordinates":[126.943397,37.372307]}},{"type":"Feature","properties":{"name":"평촌역","line":"4호선","color":"#009BCE","transfer":false},"geometry":{"type":"Point","coordinates":[126.96388,37.394288]}},{"type":"Feature","properties":{"name":"산본역","line":"4호선","color":"#009BCE","transfer":false},"geometry":{"type":"Point","coordinates":[126.933096,37.358074]}},{"type":"Feature","properties":{"name":"망포역","line":"수인분당선","color":"#ECA300","transfer":false},"geometry":{"type":"Point","coordinates":[127.056901,37.245765]}},{"type":"Feature","properties":{"name":"당정역","line":"1호선","color":"#004A85","transfer":false},"geometry":{"type":"Point","coordinates":[126.948361,37.343432]}},{"type":"Feature","properties":{"name":"국회의사당역","line":"9호선","color":"#A49D87","transfer":false},"geometry":{"type":"Point","coordinates":[126.917964,37.528016]}},{"type":"Feature","properties":{"name":"노들역","line":"9호선","color":"#A49D87","transfer":false},"geometry":{"type":"Point","coordinates":[126.95355,37.512974]}},{"type":"Feature","properties":{"name":"신설동역","line":"1호선·2호선·우이신설선","color":"#004A85","transfer":true},"geometry":{"type":"Point","coordinates":[127.024666,37.576054]}},{"type":"Feature","properties":{"name":"용답역","line":"2호선","color":"#00A23F","transfer":false},"geometry":{"type":"Point","coordinates":[127.050861,37.56209]}},{"type":"Feature","properties":{"name":"수서역","line":"3호선·GTX-A·수인분당선","color":"#ED6C00","transfer":true},"geometry":{"type":"Point","coordinates":[127.10184,37.487416]}},{"type":"Feature","properties":{"name":"국제업무지구역","line":"","color":"#0EA5E9","transfer":false},"geometry":{"type":"Point","coordinates":[126.630412,37.399787]}},{"type":"Feature","properties":{"name":"광명역","line":"1호선","color":"#004A85","transfer":false},"geometry":{"type":"Point","coordinates":[126.884698,37.41638]}},{"type":"Feature","properties":{"name":"계양역","line":"공항철도","color":"#0079AC","transfer":false},"geometry":{"type":"Point","coordinates":[126.735858,37.571501]}},{"type":"Feature","properties":{"name":"귤현역","line":"","color":"#0EA5E9","transfer":false},"geometry":{"type":"Point","coordinates":[126.742655,37.566354]}},{"type":"Feature","properties":{"name":"동인천역","line":"1호선","color":"#004A85","transfer":false},"geometry":{"type":"Point","coordinates":[126.633057,37.475129]}},{"type":"Feature","properties":{"name":"간석역","line":"1호선","color":"#004A85","transfer":false},"geometry":{"type":"Point","coordinates":[126.693531,37.464734]}},{"type":"Feature","properties":{"name":"부개역","line":"1호선","color":"#004A85","transfer":false},"geometry":{"type":"Point","coordinates":[126.740606,37.488491]}},{"type":"Feature","properties":{"name":"충정로역","line":"2호선·5호선","color":"#00A23F","transfer":true},"geometry":{"type":"Point","coordinates":[126.962911,37.559371]}},{"type":"Feature","properties":{"name":"상동역","line":"7호선","color":"#6E7E31","transfer":false},"geometry":{"type":"Point","coordinates":[126.753174,37.505836]}},{"type":"Feature","properties":{"name":"종로5가역","line":"1호선","color":"#004A85","transfer":false},"geometry":{"type":"Point","coordinates":[127.002022,37.570987]}},{"type":"Feature","properties":{"name":"고속터미널역","line":"3호선·7호선·9호선","color":"#ED6C00","transfer":true},"geometry":{"type":"Point","coordinates":[127.004922,37.505037]}},{"type":"Feature","properties":{"name":"봉은사역","line":"9호선","color":"#A49D87","transfer":false},"geometry":{"type":"Point","coordinates":[127.060241,37.514187]}},{"type":"Feature","properties":{"name":"언주역","line":"9호선","color":"#A49D87","transfer":false},"geometry":{"type":"Point","coordinates":[127.033875,37.507321]}},{"type":"Feature","properties":{"name":"삼성중앙역","line":"9호선","color":"#A49D87","transfer":false},"geometry":{"type":"Point","coordinates":[127.053475,37.513095]}},{"type":"Feature","properties":{"name":"사평역","line":"9호선","color":"#A49D87","transfer":false},"geometry":{"type":"Point","coordinates":[127.01514,37.504295]}},{"type":"Feature","properties":{"name":"선정릉역","line":"9호선·수인분당선","color":"#A49D87","transfer":true},"geometry":{"type":"Point","coordinates":[127.043859,37.510253]}},{"type":"Feature","properties":{"name":"신논현역","line":"9호선·신분당선","color":"#A49D87","transfer":true},"geometry":{"type":"Point","coordinates":[127.024531,37.504322]}},{"type":"Feature","properties":{"name":"외대앞역","line":"1호선","color":"#004A85","transfer":false},"geometry":{"type":"Point","coordinates":[127.063743,37.596306]}},{"type":"Feature","properties":{"name":"구반포역","line":"9호선","color":"#A49D87","transfer":false},"geometry":{"type":"Point","coordinates":[126.986785,37.50129]}},{"type":"Feature","properties":{"name":"흑석역","line":"9호선","color":"#A49D87","transfer":false},"geometry":{"type":"Point","coordinates":[126.963949,37.508382]}},{"type":"Feature","properties":{"name":"신반포역","line":"9호선","color":"#A49D87","transfer":false},"geometry":{"type":"Point","coordinates":[126.996418,37.503601]}},{"type":"Feature","properties":{"name":"의왕역","line":"1호선","color":"#004A85","transfer":false},"geometry":{"type":"Point","coordinates":[126.948034,37.320998]}},{"type":"Feature","properties":{"name":"화서역","line":"1호선","color":"#004A85","transfer":false},"geometry":{"type":"Point","coordinates":[126.989614,37.283914]}},{"type":"Feature","properties":{"name":"수원역","line":"1호선·수인분당선","color":"#004A85","transfer":true},"geometry":{"type":"Point","coordinates":[126.99991,37.26581]}},{"type":"Feature","properties":{"name":"세류역","line":"1호선","color":"#004A85","transfer":false},"geometry":{"type":"Point","coordinates":[127.013722,37.244115]}},{"type":"Feature","properties":{"name":"병점역","line":"1호선","color":"#004A85","transfer":false},"geometry":{"type":"Point","coordinates":[127.033129,37.206834]}},{"type":"Feature","properties":{"name":"대야미역","line":"4호선","color":"#009BCE","transfer":false},"geometry":{"type":"Point","coordinates":[126.916862,37.327926]}},{"type":"Feature","properties":{"name":"온수역","line":"1호선·7호선","color":"#004A85","transfer":true},"geometry":{"type":"Point","coordinates":[126.823534,37.492299]}},{"type":"Feature","properties":{"name":"도봉역","line":"1호선","color":"#004A85","transfer":false},"geometry":{"type":"Point","coordinates":[127.045547,37.679208]}},{"type":"Feature","properties":{"name":"신길온천역","line":"4호선·수인분당선","color":"#009BCE","transfer":true},"geometry":{"type":"Point","coordinates":[126.7673,37.337538]}},{"type":"Feature","properties":{"name":"정왕역","line":"4호선·수인분당선","color":"#009BCE","transfer":true},"geometry":{"type":"Point","coordinates":[126.742954,37.35181]}},{"type":"Feature","properties":{"name":"수리산역","line":"4호선","color":"#009BCE","transfer":false},"geometry":{"type":"Point","coordinates":[126.925558,37.35042]}},{"type":"Feature","properties":{"name":"중앙역","line":"4호선·수인분당선","color":"#009BCE","transfer":true},"geometry":{"type":"Point","coordinates":[126.838529,37.31603]}},{"type":"Feature","properties":{"name":"회룡역","line":"1호선","color":"#004A85","transfer":false},"geometry":{"type":"Point","coordinates":[127.04735,37.72441]}},{"type":"Feature","properties":{"name":"양재역","line":"3호선·신분당선","color":"#ED6C00","transfer":true},"geometry":{"type":"Point","coordinates":[127.034145,37.4844]}},{"type":"Feature","properties":{"name":"하남풍산역","line":"5호선","color":"#794698","transfer":false},"geometry":{"type":"Point","coordinates":[127.203631,37.551958]}},{"type":"Feature","properties":{"name":"하남시청역","line":"5호선","color":"#794698","transfer":false},"geometry":{"type":"Point","coordinates":[127.206704,37.541774]}},{"type":"Feature","properties":{"name":"하남검단산역","line":"5호선","color":"#794698","transfer":false},"geometry":{"type":"Point","coordinates":[127.223533,37.539704]}},{"type":"Feature","properties":{"name":"복정역","line":"8호선·수인분당선","color":"#D11D70","transfer":true},"geometry":{"type":"Point","coordinates":[127.126713,37.470577]}},{"type":"Feature","properties":{"name":"석수역","line":"1호선","color":"#004A85","transfer":false},"geometry":{"type":"Point","coordinates":[126.902306,37.435133]}},{"type":"Feature","properties":{"name":"독산역","line":"1호선","color":"#004A85","transfer":false},"geometry":{"type":"Point","coordinates":[126.889484,37.466074]}},{"type":"Feature","properties":{"name":"안양역","line":"1호선","color":"#004A85","transfer":false},"geometry":{"type":"Point","coordinates":[126.922883,37.40163]}},{"type":"Feature","properties":{"name":"금천구청역","line":"1호선","color":"#004A85","transfer":false},"geometry":{"type":"Point","coordinates":[126.8939,37.455813]}},{"type":"Feature","properties":{"name":"암사역사공원역","line":"8호선","color":"#D11D70","transfer":false},"geometry":{"type":"Point","coordinates":[127.137432,37.557047]}},{"type":"Feature","properties":{"name":"동탄역","line":"GTX-A","color":"#AB087D","transfer":false},"geometry":{"type":"Point","coordinates":[127.095576,37.200359]}},{"type":"Feature","properties":{"name":"오이도역","line":"4호선·수인분당선","color":"#009BCE","transfer":true},"geometry":{"type":"Point","coordinates":[126.738494,37.361925]}},{"type":"Feature","properties":{"name":"보문역","line":"6호선","color":"#7C4932","transfer":false},"geometry":{"type":"Point","coordinates":[127.019374,37.585274]}},{"type":"Feature","properties":{"name":"동작역","line":"4호선·9호선","color":"#009BCE","transfer":true},"geometry":{"type":"Point","coordinates":[126.978203,37.502971]}},{"type":"Feature","properties":{"name":"도곡역","line":"3호선·수인분당선","color":"#ED6C00","transfer":true},"geometry":{"type":"Point","coordinates":[127.055468,37.490906]}},{"type":"Feature","properties":{"name":"김포공항역","line":"5호선·9호선·공항철도·서해선","color":"#794698","transfer":true},"geometry":{"type":"Point","coordinates":[126.801393,37.561925]}},{"type":"Feature","properties":{"name":"동대문역사문화공원역","line":"2호선·4호선·5호선","color":"#00A23F","transfer":true},"geometry":{"type":"Point","coordinates":[127.008123,37.565261]}},{"type":"Feature","properties":{"name":"구로역","line":"1호선","color":"#004A85","transfer":false},"geometry":{"type":"Point","coordinates":[126.882509,37.503447]}},{"type":"Feature","properties":{"name":"안국역","line":"3호선","color":"#ED6C00","transfer":false},"geometry":{"type":"Point","coordinates":[126.986171,37.576828]}},{"type":"Feature","properties":{"name":"강일역","line":"5호선","color":"#794698","transfer":false},"geometry":{"type":"Point","coordinates":[127.175763,37.557482]}},{"type":"Feature","properties":{"name":"천호역","line":"5호선·8호선","color":"#794698","transfer":true},"geometry":{"type":"Point","coordinates":[127.123402,37.538522]}},{"type":"Feature","properties":{"name":"원인재역","line":"수인분당선","color":"#ECA300","transfer":false},"geometry":{"type":"Point","coordinates":[126.688156,37.412626]}},{"type":"Feature","properties":{"name":"인천시청역","line":"","color":"#0EA5E9","transfer":false},"geometry":{"type":"Point","coordinates":[126.702085,37.457291]}},{"type":"Feature","properties":{"name":"동대문역","line":"1호선·4호선","color":"#004A85","transfer":true},"geometry":{"type":"Point","coordinates":[127.011489,37.571862]}},{"type":"Feature","properties":{"name":"반월역","line":"4호선","color":"#009BCE","transfer":false},"geometry":{"type":"Point","coordinates":[126.903836,37.312422]}},{"type":"Feature","properties":{"name":"삼각지역","line":"4호선·6호선","color":"#009BCE","transfer":true},"geometry":{"type":"Point","coordinates":[126.973889,37.535478]}},{"type":"Feature","properties":{"name":"도봉산역","line":"1호선·7호선","color":"#004A85","transfer":true},"geometry":{"type":"Point","coordinates":[127.046078,37.689836]}},{"type":"Feature","properties":{"name":"영등포역","line":"1호선","color":"#004A85","transfer":false},"geometry":{"type":"Point","coordinates":[126.906935,37.515363]}},{"type":"Feature","properties":{"name":"노량진역","line":"1호선·9호선","color":"#004A85","transfer":true},"geometry":{"type":"Point","coordinates":[126.94204,37.514238]}},{"type":"Feature","properties":{"name":"용산역","line":"1호선·경의중앙선","color":"#004A85","transfer":true},"geometry":{"type":"Point","coordinates":[126.964827,37.529953]}},{"type":"Feature","properties":{"name":"종각역","line":"1호선","color":"#004A85","transfer":false},"geometry":{"type":"Point","coordinates":[126.983183,37.570175]}},{"type":"Feature","properties":{"name":"건대입구역","line":"2호선·7호선","color":"#00A23F","transfer":true},"geometry":{"type":"Point","coordinates":[127.070864,37.540444]}},{"type":"Feature","properties":{"name":"미금역","line":"수인분당선·신분당선","color":"#ECA300","transfer":true},"geometry":{"type":"Point","coordinates":[127.108891,37.349978]}},{"type":"Feature","properties":{"name":"정자역","line":"수인분당선·신분당선","color":"#ECA300","transfer":true},"geometry":{"type":"Point","coordinates":[127.108437,37.366652]}},{"type":"Feature","properties":{"name":"이매역","line":"수인분당선","color":"#ECA300","transfer":false},"geometry":{"type":"Point","coordinates":[127.1284,37.39464]}},{"type":"Feature","properties":{"name":"남영역","line":"1호선","color":"#004A85","transfer":false},"geometry":{"type":"Point","coordinates":[126.971321,37.540538]}},{"type":"Feature","properties":{"name":"대방역","line":"1호선·신림선","color":"#004A85","transfer":true},"geometry":{"type":"Point","coordinates":[126.926478,37.513358]}},{"type":"Feature","properties":{"name":"인천역","line":"1호선·수인분당선","color":"#004A85","transfer":true},"geometry":{"type":"Point","coordinates":[126.616887,37.476682]}},{"type":"Feature","properties":{"name":"서동탄역","line":"1호선","color":"#004A85","transfer":false},"geometry":{"type":"Point","coordinates":[127.052033,37.195655]}},{"type":"Feature","properties":{"name":"안산역","line":"4호선·수인분당선","color":"#009BCE","transfer":true},"geometry":{"type":"Point","coordinates":[126.788797,37.327047]}},{"type":"Feature","properties":{"name":"응암역","line":"6호선","color":"#7C4932","transfer":false},"geometry":{"type":"Point","coordinates":[126.915528,37.59843]}},{"type":"Feature","properties":{"name":"합정역","line":"2호선·6호선","color":"#00A23F","transfer":true},"geometry":{"type":"Point","coordinates":[126.913656,37.549356]}},{"type":"Feature","properties":{"name":"동묘앞역","line":"1호선·6호선","color":"#004A85","transfer":true},"geometry":{"type":"Point","coordinates":[127.017434,37.573508]}},{"type":"Feature","properties":{"name":"고려대역","line":"6호선","color":"#7C4932","transfer":false},"geometry":{"type":"Point","coordinates":[127.036013,37.590378]}},{"type":"Feature","properties":{"name":"홍대입구역","line":"2호선","color":"#00A23F","transfer":false},"geometry":{"type":"Point","coordinates":[126.926908,37.557349]}},{"type":"Feature","properties":{"name":"초지역","line":"4호선·서해선·수인분당선","color":"#009BCE","transfer":true},"geometry":{"type":"Point","coordinates":[126.80788,37.31984]}},{"type":"Feature","properties":{"name":"선릉역","line":"2호선·수인분당선","color":"#00A23F","transfer":true},"geometry":{"type":"Point","coordinates":[127.048951,37.504475]}},{"type":"Feature","properties":{"name":"강남구청역","line":"7호선·수인분당선","color":"#6E7E31","transfer":true},"geometry":{"type":"Point","coordinates":[127.041286,37.517176]}},{"type":"Feature","properties":{"name":"모란역","line":"8호선·수인분당선","color":"#D11D70","transfer":true},"geometry":{"type":"Point","coordinates":[127.129155,37.433739]}},{"type":"Feature","properties":{"name":"강남역","line":"2호선·신분당선","color":"#00A23F","transfer":true},"geometry":{"type":"Point","coordinates":[127.027557,37.49795]}},{"type":"Feature","properties":{"name":"삼동역","line":"","color":"#0EA5E9","transfer":false},"geometry":{"type":"Point","coordinates":[127.20339,37.408655]}},{"type":"Feature","properties":{"name":"판교역","line":"신분당선","color":"#B81B30","transfer":false},"geometry":{"type":"Point","coordinates":[127.111189,37.39473]}},{"type":"Feature","properties":{"name":"곤지암역","line":"","color":"#0EA5E9","transfer":false},"geometry":{"type":"Point","coordinates":[127.346279,37.350506]}},{"type":"Feature","properties":{"name":"경기광주역","line":"","color":"#0EA5E9","transfer":false},"geometry":{"type":"Point","coordinates":[127.253282,37.398904]}},{"type":"Feature","properties":{"name":"가락시장역","line":"3호선·8호선","color":"#ED6C00","transfer":true},"geometry":{"type":"Point","coordinates":[127.118638,37.492532]}},{"type":"Feature","properties":{"name":"을지로3가역","line":"2호선·3호선","color":"#00A23F","transfer":true},"geometry":{"type":"Point","coordinates":[126.992531,37.566336]}},{"type":"Feature","properties":{"name":"불광역","line":"3호선·6호선","color":"#ED6C00","transfer":true},"geometry":{"type":"Point","coordinates":[126.929631,37.610881]}},{"type":"Feature","properties":{"name":"구의역","line":"2호선","color":"#00A23F","transfer":false},"geometry":{"type":"Point","coordinates":[127.086221,37.537168]}},{"type":"Feature","properties":{"name":"강변역","line":"2호선","color":"#00A23F","transfer":false},"geometry":{"type":"Point","coordinates":[127.094741,37.535111]}},{"type":"Feature","properties":{"name":"잠실나루역","line":"2호선","color":"#00A23F","transfer":false},"geometry":{"type":"Point","coordinates":[127.10383,37.520691]}},{"type":"Feature","properties":{"name":"충무로역","line":"3호선·4호선","color":"#ED6C00","transfer":true},"geometry":{"type":"Point","coordinates":[126.994109,37.561202]}},{"type":"Feature","properties":{"name":"약수역","line":"3호선·6호선","color":"#ED6C00","transfer":true},"geometry":{"type":"Point","coordinates":[127.010623,37.55475]}},{"type":"Feature","properties":{"name":"교대역","line":"2호선·3호선","color":"#00A23F","transfer":true},"geometry":{"type":"Point","coordinates":[127.013702,37.493659]}},{"type":"Feature","properties":{"name":"오금역","line":"3호선·5호선","color":"#ED6C00","transfer":true},"geometry":{"type":"Point","coordinates":[127.128152,37.501981]}},{"type":"Feature","properties":{"name":"한양대역","line":"2호선","color":"#00A23F","transfer":false},"geometry":{"type":"Point","coordinates":[127.043664,37.555727]}},{"type":"Feature","properties":{"name":"성수역","line":"2호선","color":"#00A23F","transfer":false},"geometry":{"type":"Point","coordinates":[127.056102,37.544569]}},{"type":"Feature","properties":{"name":"시청역","line":"1호선·2호선","color":"#004A85","transfer":true},"geometry":{"type":"Point","coordinates":[126.977114,37.56548]}},{"type":"Feature","properties":{"name":"을지로입구역","line":"2호선","color":"#00A23F","transfer":false},"geometry":{"type":"Point","coordinates":[126.982617,37.565949]}},{"type":"Feature","properties":{"name":"을지로4가역","line":"2호선·5호선","color":"#00A23F","transfer":true},"geometry":{"type":"Point","coordinates":[126.998169,37.566643]}},{"type":"Feature","properties":{"name":"신당역","line":"2호선·6호선","color":"#00A23F","transfer":true},"geometry":{"type":"Point","coordinates":[127.016252,37.565384]}},{"type":"Feature","properties":{"name":"상왕십리역","line":"2호선","color":"#00A23F","transfer":false},"geometry":{"type":"Point","coordinates":[127.029251,37.564391]}},{"type":"Feature","properties":{"name":"신촌역","line":"2호선·경의중앙선","color":"#00A23F","transfer":true},"geometry":{"type":"Point","coordinates":[126.936908,37.555152]}},{"type":"Feature","properties":{"name":"이대역","line":"2호선","color":"#00A23F","transfer":false},"geometry":{"type":"Point","coordinates":[126.945835,37.556773]}},{"type":"Feature","properties":{"name":"아현역","line":"2호선","color":"#00A23F","transfer":false},"geometry":{"type":"Point","coordinates":[126.956121,37.557431]}},{"type":"Feature","properties":{"name":"지축역","line":"3호선","color":"#ED6C00","transfer":false},"geometry":{"type":"Point","coordinates":[126.91393,37.648118]}},{"type":"Feature","properties":{"name":"원흥역","line":"3호선","color":"#ED6C00","transfer":false},"geometry":{"type":"Point","coordinates":[126.873668,37.650512]}},{"type":"Feature","properties":{"name":"원당역","line":"3호선","color":"#ED6C00","transfer":false},"geometry":{"type":"Point","coordinates":[126.842898,37.65305]}},{"type":"Feature","properties":{"name":"화정역","line":"3호선","color":"#ED6C00","transfer":false},"geometry":{"type":"Point","coordinates":[126.832577,37.634646]}},{"type":"Feature","properties":{"name":"대곡역","line":"3호선·GTX-A·경의중앙선·서해선","color":"#ED6C00","transfer":true},"geometry":{"type":"Point","coordinates":[126.810284,37.631781]}},{"type":"Feature","properties":{"name":"마두역","line":"3호선","color":"#ED6C00","transfer":false},"geometry":{"type":"Point","coordinates":[126.77776,37.652004]}},{"type":"Feature","properties":{"name":"정발산역","line":"3호선","color":"#ED6C00","transfer":false},"geometry":{"type":"Point","coordinates":[126.773265,37.659711]}},{"type":"Feature","properties":{"name":"대화역","line":"3호선","color":"#ED6C00","transfer":false},"geometry":{"type":"Point","coordinates":[126.747463,37.676175]}},{"type":"Feature","properties":{"name":"삼송역","line":"3호선","color":"#ED6C00","transfer":false},"geometry":{"type":"Point","coordinates":[126.89548,37.653119]}},{"type":"Feature","properties":{"name":"마곡나루역","line":"9호선·공항철도","color":"#A49D87","transfer":true},"geometry":{"type":"Point","coordinates":[126.827917,37.566218]}},{"type":"Feature","properties":{"name":"당산역","line":"2호선·9호선","color":"#00A23F","transfer":true},"geometry":{"type":"Point","coordinates":[126.902478,37.534596]}},{"type":"Feature","properties":{"name":"문래역","line":"2호선","color":"#00A23F","transfer":false},"geometry":{"type":"Point","coordinates":[126.894873,37.518384]}},{"type":"Feature","properties":{"name":"신도림역","line":"1호선·2호선","color":"#004A85","transfer":true},"geometry":{"type":"Point","coordinates":[126.891226,37.50894]}},{"type":"Feature","properties":{"name":"구로디지털단지역","line":"2호선","color":"#00A23F","transfer":false},"geometry":{"type":"Point","coordinates":[126.901592,37.485276]}},{"type":"Feature","properties":{"name":"신대방역","line":"2호선","color":"#00A23F","transfer":false},"geometry":{"type":"Point","coordinates":[126.913392,37.487595]}},{"type":"Feature","properties":{"name":"신림역","line":"2호선·신림선","color":"#00A23F","transfer":true},"geometry":{"type":"Point","coordinates":[126.92968,37.484232]}},{"type":"Feature","properties":{"name":"봉천역","line":"2호선","color":"#00A23F","transfer":false},"geometry":{"type":"Point","coordinates":[126.941939,37.482389]}},{"type":"Feature","properties":{"name":"서울대입구역","line":"2호선","color":"#00A23F","transfer":false},"geometry":{"type":"Point","coordinates":[126.952715,37.481223]}},{"type":"Feature","properties":{"name":"낙성대역","line":"2호선","color":"#00A23F","transfer":false},"geometry":{"type":"Point","coordinates":[126.963488,37.477062]}},{"type":"Feature","properties":{"name":"방배역","line":"2호선","color":"#00A23F","transfer":false},"geometry":{"type":"Point","coordinates":[126.997707,37.481466]}},{"type":"Feature","properties":{"name":"서초역","line":"2호선","color":"#00A23F","transfer":false},"geometry":{"type":"Point","coordinates":[127.007681,37.491775]}},{"type":"Feature","properties":{"name":"역삼역","line":"2호선","color":"#00A23F","transfer":false},"geometry":{"type":"Point","coordinates":[127.03696,37.500822]}},{"type":"Feature","properties":{"name":"삼성역","line":"2호선","color":"#00A23F","transfer":false},"geometry":{"type":"Point","coordinates":[127.063143,37.50884]}},{"type":"Feature","properties":{"name":"종합운동장역","line":"2호선·9호선","color":"#00A23F","transfer":true},"geometry":{"type":"Point","coordinates":[127.07372,37.511058]}},{"type":"Feature","properties":{"name":"잠실새내역","line":"2호선","color":"#00A23F","transfer":false},"geometry":{"type":"Point","coordinates":[127.085571,37.511588]}},{"type":"Feature","properties":{"name":"잠실역","line":"2호선·8호선","color":"#00A23F","transfer":true},"geometry":{"type":"Point","coordinates":[127.100137,37.513217]}},{"type":"Feature","properties":{"name":"양천구청역","line":"2호선","color":"#00A23F","transfer":false},"geometry":{"type":"Point","coordinates":[126.865945,37.512295]}},{"type":"Feature","properties":{"name":"신정네거리역","line":"2호선","color":"#00A23F","transfer":false},"geometry":{"type":"Point","coordinates":[126.853046,37.519983]}},{"type":"Feature","properties":{"name":"도림천역","line":"2호선","color":"#00A23F","transfer":false},"geometry":{"type":"Point","coordinates":[126.882684,37.514454]}},{"type":"Feature","properties":{"name":"경찰병원역","line":"3호선","color":"#ED6C00","transfer":false},"geometry":{"type":"Point","coordinates":[127.123904,37.495401]}},{"type":"Feature","properties":{"name":"대청역","line":"3호선","color":"#ED6C00","transfer":false},"geometry":{"type":"Point","coordinates":[127.079551,37.493628]}},{"type":"Feature","properties":{"name":"학여울역","line":"3호선","color":"#ED6C00","transfer":false},"geometry":{"type":"Point","coordinates":[127.069884,37.496497]}},{"type":"Feature","properties":{"name":"대치역","line":"3호선","color":"#ED6C00","transfer":false},"geometry":{"type":"Point","coordinates":[127.063193,37.494474]}},{"type":"Feature","properties":{"name":"매봉역","line":"3호선","color":"#ED6C00","transfer":false},"geometry":{"type":"Point","coordinates":[127.046978,37.487069]}},{"type":"Feature","properties":{"name":"남부터미널역","line":"3호선","color":"#ED6C00","transfer":false},"geometry":{"type":"Point","coordinates":[127.016345,37.484943]}},{"type":"Feature","properties":{"name":"잠원역","line":"3호선","color":"#ED6C00","transfer":false},"geometry":{"type":"Point","coordinates":[127.01115,37.512751]}},{"type":"Feature","properties":{"name":"신사역","line":"3호선·신분당선","color":"#ED6C00","transfer":true},"geometry":{"type":"Point","coordinates":[127.019516,37.516109]}},{"type":"Feature","properties":{"name":"압구정역","line":"3호선","color":"#ED6C00","transfer":false},"geometry":{"type":"Point","coordinates":[127.028499,37.526185]}},{"type":"Feature","properties":{"name":"금호역","line":"3호선","color":"#ED6C00","transfer":false},"geometry":{"type":"Point","coordinates":[127.015925,37.547973]}},{"type":"Feature","properties":{"name":"동대입구역","line":"3호선","color":"#ED6C00","transfer":false},"geometry":{"type":"Point","coordinates":[127.005727,37.559061]}},{"type":"Feature","properties":{"name":"경복궁역","line":"3호선","color":"#ED6C00","transfer":false},"geometry":{"type":"Point","coordinates":[126.973526,37.575787]}},{"type":"Feature","properties":{"name":"독립문역","line":"3호선","color":"#ED6C00","transfer":false},"geometry":{"type":"Point","coordinates":[126.957836,37.574558]}},{"type":"Feature","properties":{"name":"무악재역","line":"3호선","color":"#ED6C00","transfer":false},"geometry":{"type":"Point","coordinates":[126.95035,37.582317]}},{"type":"Feature","properties":{"name":"홍제역","line":"3호선","color":"#ED6C00","transfer":false},"geometry":{"type":"Point","coordinates":[126.944253,37.588689]}},{"type":"Feature","properties":{"name":"녹번역","line":"3호선","color":"#ED6C00","transfer":false},"geometry":{"type":"Point","coordinates":[126.935731,37.600973]}},{"type":"Feature","properties":{"name":"구파발역","line":"3호선","color":"#ED6C00","transfer":false},"geometry":{"type":"Point","coordinates":[126.918805,37.636892]}},{"type":"Feature","properties":{"name":"범계역","line":"4호선","color":"#009BCE","transfer":false},"geometry":{"type":"Point","coordinates":[126.95091,37.389913]}},{"type":"Feature","properties":{"name":"인덕원역","line":"4호선","color":"#009BCE","transfer":false},"geometry":{"type":"Point","coordinates":[126.976966,37.401632]}},{"type":"Feature","properties":{"name":"정부과천청사역","line":"4호선","color":"#009BCE","transfer":false},"geometry":{"type":"Point","coordinates":[126.98975,37.426471]}},{"type":"Feature","properties":{"name":"대공원역","line":"4호선","color":"#009BCE","transfer":false},"geometry":{"type":"Point","coordinates":[127.006608,37.435803]}},{"type":"Feature","properties":{"name":"선바위역","line":"4호선","color":"#009BCE","transfer":false},"geometry":{"type":"Point","coordinates":[127.002111,37.451805]}},{"type":"Feature","properties":{"name":"불암산역","line":"4호선","color":"#009BCE","transfer":false},"geometry":{"type":"Point","coordinates":[127.078924,37.670098]}},{"type":"Feature","properties":{"name":"쌍문역","line":"4호선","color":"#009BCE","transfer":false},"geometry":{"type":"Point","coordinates":[127.034579,37.648403]}},{"type":"Feature","properties":{"name":"수유역","line":"4호선","color":"#009BCE","transfer":false},"geometry":{"type":"Point","coordinates":[127.025723,37.637993]}},{"type":"Feature","properties":{"name":"미아역","line":"4호선","color":"#009BCE","transfer":false},"geometry":{"type":"Point","coordinates":[127.026109,37.626494]}},{"type":"Feature","properties":{"name":"미아사거리역","line":"4호선","color":"#009BCE","transfer":false},"geometry":{"type":"Point","coordinates":[127.030091,37.613185]}},{"type":"Feature","properties":{"name":"길음역","line":"4호선","color":"#009BCE","transfer":false},"geometry":{"type":"Point","coordinates":[127.024852,37.60316]}},{"type":"Feature","properties":{"name":"혜화역","line":"4호선","color":"#009BCE","transfer":false},"geometry":{"type":"Point","coordinates":[127.001953,37.582138]}},{"type":"Feature","properties":{"name":"명동역","line":"4호선","color":"#009BCE","transfer":false},"geometry":{"type":"Point","coordinates":[126.986376,37.560898]}},{"type":"Feature","properties":{"name":"회현역","line":"4호선","color":"#009BCE","transfer":false},"geometry":{"type":"Point","coordinates":[126.978417,37.558698]}},{"type":"Feature","properties":{"name":"서울역","line":"1호선·4호선·GTX-A·경의중앙선·공항철도","color":"#004A85","transfer":true},"geometry":{"type":"Point","coordinates":[126.972572,37.552853]}},{"type":"Feature","properties":{"name":"숙대입구역","line":"4호선","color":"#009BCE","transfer":false},"geometry":{"type":"Point","coordinates":[126.971957,37.545134]}},{"type":"Feature","properties":{"name":"신용산역","line":"4호선","color":"#009BCE","transfer":false},"geometry":{"type":"Point","coordinates":[126.967857,37.529174]}},{"type":"Feature","properties":{"name":"사당역","line":"2호선·4호선","color":"#00A23F","transfer":true},"geometry":{"type":"Point","coordinates":[126.981668,37.476583]}},{"type":"Feature","properties":{"name":"남태령역","line":"4호선","color":"#009BCE","transfer":false},"geometry":{"type":"Point","coordinates":[126.988698,37.464656]}},{"type":"Feature","properties":{"name":"마천역","line":"5호선","color":"#794698","transfer":false},"geometry":{"type":"Point","coordinates":[127.152724,37.494953]}},{"type":"Feature","properties":{"name":"거여역","line":"5호선","color":"#794698","transfer":false},"geometry":{"type":"Point","coordinates":[127.143771,37.493345]}},{"type":"Feature","properties":{"name":"개롱역","line":"5호선","color":"#794698","transfer":false},"geometry":{"type":"Point","coordinates":[127.134843,37.498075]}},{"type":"Feature","properties":{"name":"방이역","line":"5호선","color":"#794698","transfer":false},"geometry":{"type":"Point","coordinates":[127.126039,37.508643]}},{"type":"Feature","properties":{"name":"올림픽공원역","line":"5호선·9호선","color":"#794698","transfer":true},"geometry":{"type":"Point","coordinates":[127.13093,37.516148]}},{"type":"Feature","properties":{"name":"둔촌동역","line":"5호선","color":"#794698","transfer":false},"geometry":{"type":"Point","coordinates":[127.136243,37.527802]}},{"type":"Feature","properties":{"name":"상일동역","line":"5호선","color":"#794698","transfer":false},"geometry":{"type":"Point","coordinates":[127.166779,37.556776]}},{"type":"Feature","properties":{"name":"고덕역","line":"5호선","color":"#794698","transfer":false},"geometry":{"type":"Point","coordinates":[127.156383,37.555341]}},{"type":"Feature","properties":{"name":"명일역","line":"5호선","color":"#794698","transfer":false},"geometry":{"type":"Point","coordinates":[127.144085,37.551953]}},{"type":"Feature","properties":{"name":"굽은다리역","line":"5호선","color":"#794698","transfer":false},"geometry":{"type":"Point","coordinates":[127.142962,37.545637]}},{"type":"Feature","properties":{"name":"길동역","line":"5호선","color":"#794698","transfer":false},"geometry":{"type":"Point","coordinates":[127.140205,37.538368]}},{"type":"Feature","properties":{"name":"강동역","line":"5호선","color":"#794698","transfer":false},"geometry":{"type":"Point","coordinates":[127.132595,37.535797]}},{"type":"Feature","properties":{"name":"광나루역","line":"5호선","color":"#794698","transfer":false},"geometry":{"type":"Point","coordinates":[127.103527,37.545301]}},{"type":"Feature","properties":{"name":"아차산역","line":"5호선","color":"#794698","transfer":false},"geometry":{"type":"Point","coordinates":[127.089795,37.551698]}},{"type":"Feature","properties":{"name":"장한평역","line":"5호선","color":"#794698","transfer":false},"geometry":{"type":"Point","coordinates":[127.064567,37.561491]}},{"type":"Feature","properties":{"name":"답십리역","line":"5호선","color":"#794698","transfer":false},"geometry":{"type":"Point","coordinates":[127.052699,37.566814]}},{"type":"Feature","properties":{"name":"마장역","line":"5호선","color":"#794698","transfer":false},"geometry":{"type":"Point","coordinates":[127.042881,37.566098]}},{"type":"Feature","properties":{"name":"행당역","line":"5호선","color":"#794698","transfer":false},"geometry":{"type":"Point","coordinates":[127.029993,37.557606]}},{"type":"Feature","properties":{"name":"신금호역","line":"5호선","color":"#794698","transfer":false},"geometry":{"type":"Point","coordinates":[127.020248,37.554429]}},{"type":"Feature","properties":{"name":"광화문역","line":"5호선","color":"#794698","transfer":false},"geometry":{"type":"Point","coordinates":[126.976903,37.571616]}},{"type":"Feature","properties":{"name":"서대문역","line":"5호선","color":"#794698","transfer":false},"geometry":{"type":"Point","coordinates":[126.966635,37.565795]}},{"type":"Feature","properties":{"name":"애오개역","line":"5호선","color":"#794698","transfer":false},"geometry":{"type":"Point","coordinates":[126.956698,37.553428]}},{"type":"Feature","properties":{"name":"공덕역","line":"5호선·6호선·경의중앙선·공항철도","color":"#794698","transfer":true},"geometry":{"type":"Point","coordinates":[126.950806,37.543654]}},{"type":"Feature","properties":{"name":"마포역","line":"5호선","color":"#794698","transfer":false},"geometry":{"type":"Point","coordinates":[126.945993,37.539637]}},{"type":"Feature","properties":{"name":"여의나루역","line":"5호선","color":"#794698","transfer":false},"geometry":{"type":"Point","coordinates":[126.932529,37.526853]}},{"type":"Feature","properties":{"name":"여의도역","line":"5호선·9호선","color":"#794698","transfer":true},"geometry":{"type":"Point","coordinates":[126.924302,37.521668]}},{"type":"Feature","properties":{"name":"신길역","line":"1호선·5호선","color":"#004A85","transfer":true},"geometry":{"type":"Point","coordinates":[126.918744,37.516649]}},{"type":"Feature","properties":{"name":"영등포시장역","line":"5호선","color":"#794698","transfer":false},"geometry":{"type":"Point","coordinates":[126.905141,37.522693]}},{"type":"Feature","properties":{"name":"영등포구청역","line":"2호선·5호선","color":"#00A23F","transfer":true},"geometry":{"type":"Point","coordinates":[126.896337,37.524018]}},{"type":"Feature","properties":{"name":"양평역","line":"5호선·경의중앙선","color":"#794698","transfer":true},"geometry":{"type":"Point","coordinates":[126.886118,37.525633]}},{"type":"Feature","properties":{"name":"오목교역","line":"5호선","color":"#794698","transfer":false},"geometry":{"type":"Point","coordinates":[126.875122,37.524565]}},{"type":"Feature","properties":{"name":"목동역","line":"5호선","color":"#794698","transfer":false},"geometry":{"type":"Point","coordinates":[126.864517,37.526124]}},{"type":"Feature","properties":{"name":"신정역","line":"5호선","color":"#794698","transfer":false},"geometry":{"type":"Point","coordinates":[126.85597,37.525041]}},{"type":"Feature","properties":{"name":"까치산역","line":"2호선·5호선","color":"#00A23F","transfer":true},"geometry":{"type":"Point","coordinates":[126.846526,37.532112]}},{"type":"Feature","properties":{"name":"화곡역","line":"5호선","color":"#794698","transfer":false},"geometry":{"type":"Point","coordinates":[126.840397,37.541673]}},{"type":"Feature","properties":{"name":"우장산역","line":"5호선","color":"#794698","transfer":false},"geometry":{"type":"Point","coordinates":[126.836323,37.548894]}},{"type":"Feature","properties":{"name":"발산역","line":"5호선","color":"#794698","transfer":false},"geometry":{"type":"Point","coordinates":[126.837465,37.558495]}},{"type":"Feature","properties":{"name":"마곡역","line":"5호선","color":"#794698","transfer":false},"geometry":{"type":"Point","coordinates":[126.824746,37.560249]}},{"type":"Feature","properties":{"name":"송정역","line":"5호선","color":"#794698","transfer":false},"geometry":{"type":"Point","coordinates":[126.811943,37.561277]}},{"type":"Feature","properties":{"name":"개화산역","line":"5호선","color":"#794698","transfer":false},"geometry":{"type":"Point","coordinates":[126.80826,37.572876]}},{"type":"Feature","properties":{"name":"방화역","line":"5호선","color":"#794698","transfer":false},"geometry":{"type":"Point","coordinates":[126.812732,37.577404]}},{"type":"Feature","properties":{"name":"봉화산역","line":"6호선","color":"#7C4932","transfer":false},"geometry":{"type":"Point","coordinates":[127.091097,37.617416]}},{"type":"Feature","properties":{"name":"화랑대역","line":"6호선","color":"#7C4932","transfer":false},"geometry":{"type":"Point","coordinates":[127.083712,37.619784]}},{"type":"Feature","properties":{"name":"석계역","line":"1호선·6호선","color":"#004A85","transfer":true},"geometry":{"type":"Point","coordinates":[127.065839,37.614808]}},{"type":"Feature","properties":{"name":"돌곶이역","line":"6호선","color":"#7C4932","transfer":false},"geometry":{"type":"Point","coordinates":[127.056493,37.610566]}},{"type":"Feature","properties":{"name":"상월곡역","line":"6호선","color":"#7C4932","transfer":false},"geometry":{"type":"Point","coordinates":[127.048272,37.606238]}},{"type":"Feature","properties":{"name":"월곡역","line":"6호선","color":"#7C4932","transfer":false},"geometry":{"type":"Point","coordinates":[127.041455,37.60192]}},{"type":"Feature","properties":{"name":"안암역","line":"6호선","color":"#7C4932","transfer":false},"geometry":{"type":"Point","coordinates":[127.029278,37.586269]}},{"type":"Feature","properties":{"name":"창신역","line":"6호선","color":"#7C4932","transfer":false},"geometry":{"type":"Point","coordinates":[127.015247,37.579804]}},{"type":"Feature","properties":{"name":"청구역","line":"5호선·6호선","color":"#794698","transfer":true},"geometry":{"type":"Point","coordinates":[127.013778,37.560231]}},{"type":"Feature","properties":{"name":"버티고개역","line":"6호선","color":"#7C4932","transfer":false},"geometry":{"type":"Point","coordinates":[127.006588,37.548232]}},{"type":"Feature","properties":{"name":"한강진역","line":"6호선","color":"#7C4932","transfer":false},"geometry":{"type":"Point","coordinates":[127.001751,37.539796]}},{"type":"Feature","properties":{"name":"이태원역","line":"6호선","color":"#7C4932","transfer":false},"geometry":{"type":"Point","coordinates":[126.994371,37.534503]}},{"type":"Feature","properties":{"name":"녹사평역","line":"6호선","color":"#7C4932","transfer":false},"geometry":{"type":"Point","coordinates":[126.986577,37.53492]}},{"type":"Feature","properties":{"name":"효창공원앞역","line":"6호선·경의중앙선","color":"#7C4932","transfer":true},"geometry":{"type":"Point","coordinates":[126.961332,37.539341]}},{"type":"Feature","properties":{"name":"대흥역","line":"6호선","color":"#7C4932","transfer":false},"geometry":{"type":"Point","coordinates":[126.942345,37.547699]}},{"type":"Feature","properties":{"name":"광흥창역","line":"6호선","color":"#7C4932","transfer":false},"geometry":{"type":"Point","coordinates":[126.931961,37.547472]}},{"type":"Feature","properties":{"name":"상수역","line":"6호선","color":"#7C4932","transfer":false},"geometry":{"type":"Point","coordinates":[126.922892,37.547758]}},{"type":"Feature","properties":{"name":"망원역","line":"6호선","color":"#7C4932","transfer":false},"geometry":{"type":"Point","coordinates":[126.910128,37.556025]}},{"type":"Feature","properties":{"name":"마포구청역","line":"6호선","color":"#7C4932","transfer":false},"geometry":{"type":"Point","coordinates":[126.903364,37.563559]}},{"type":"Feature","properties":{"name":"월드컵경기장역","line":"6호선","color":"#7C4932","transfer":false},"geometry":{"type":"Point","coordinates":[126.899318,37.570192]}},{"type":"Feature","properties":{"name":"증산역","line":"6호선","color":"#7C4932","transfer":false},"geometry":{"type":"Point","coordinates":[126.909912,37.584144]}},{"type":"Feature","properties":{"name":"새절역","line":"6호선","color":"#7C4932","transfer":false},"geometry":{"type":"Point","coordinates":[126.913792,37.591649]}},{"type":"Feature","properties":{"name":"구산역","line":"6호선","color":"#7C4932","transfer":false},"geometry":{"type":"Point","coordinates":[126.917219,37.61125]}},{"type":"Feature","properties":{"name":"연신내역","line":"3호선·6호선·GTX-A","color":"#ED6C00","transfer":true},"geometry":{"type":"Point","coordinates":[126.921184,37.618925]}},{"type":"Feature","properties":{"name":"독바위역","line":"6호선","color":"#7C4932","transfer":false},"geometry":{"type":"Point","coordinates":[126.933021,37.618337]}},{"type":"Feature","properties":{"name":"역촌역","line":"6호선","color":"#7C4932","transfer":false},"geometry":{"type":"Point","coordinates":[126.922756,37.606073]}},{"type":"Feature","properties":{"name":"장암역","line":"7호선","color":"#6E7E31","transfer":false},"geometry":{"type":"Point","coordinates":[127.052908,37.699974]}},{"type":"Feature","properties":{"name":"어린이대공원역","line":"7호선","color":"#6E7E31","transfer":false},"geometry":{"type":"Point","coordinates":[127.074392,37.5476]}},{"type":"Feature","properties":{"name":"군자역","line":"5호선·7호선","color":"#794698","transfer":true},"geometry":{"type":"Point","coordinates":[127.079558,37.557245]}},{"type":"Feature","properties":{"name":"중곡역","line":"7호선","color":"#6E7E31","transfer":false},"geometry":{"type":"Point","coordinates":[127.084515,37.566305]}},{"type":"Feature","properties":{"name":"용마산역","line":"7호선","color":"#6E7E31","transfer":false},"geometry":{"type":"Point","coordinates":[127.08658,37.573993]}},{"type":"Feature","properties":{"name":"사가정역","line":"7호선","color":"#6E7E31","transfer":false},"geometry":{"type":"Point","coordinates":[127.088411,37.580697]}},{"type":"Feature","properties":{"name":"면목역","line":"7호선","color":"#6E7E31","transfer":false},"geometry":{"type":"Point","coordinates":[127.087604,37.5884]}},{"type":"Feature","properties":{"name":"상봉역","line":"7호선·경의중앙선·경춘선","color":"#6E7E31","transfer":true},"geometry":{"type":"Point","coordinates":[127.085592,37.596083]}},{"type":"Feature","properties":{"name":"중화역","line":"7호선","color":"#6E7E31","transfer":false},"geometry":{"type":"Point","coordinates":[127.079517,37.601627]}},{"type":"Feature","properties":{"name":"먹골역","line":"7호선","color":"#6E7E31","transfer":false},"geometry":{"type":"Point","coordinates":[127.077652,37.611442]}},{"type":"Feature","properties":{"name":"태릉입구역","line":"6호선·7호선","color":"#7C4932","transfer":true},"geometry":{"type":"Point","coordinates":[127.075672,37.617692]}},{"type":"Feature","properties":{"name":"공릉역","line":"7호선","color":"#6E7E31","transfer":false},"geometry":{"type":"Point","coordinates":[127.073044,37.625636]}},{"type":"Feature","properties":{"name":"하계역","line":"7호선","color":"#6E7E31","transfer":false},"geometry":{"type":"Point","coordinates":[127.068252,37.636018]}},{"type":"Feature","properties":{"name":"중계역","line":"7호선","color":"#6E7E31","transfer":false},"geometry":{"type":"Point","coordinates":[127.063873,37.645537]}},{"type":"Feature","properties":{"name":"노원역","line":"4호선·7호선","color":"#009BCE","transfer":true},"geometry":{"type":"Point","coordinates":[127.060493,37.654591]}},{"type":"Feature","properties":{"name":"마들역","line":"7호선","color":"#6E7E31","transfer":false},"geometry":{"type":"Point","coordinates":[127.057721,37.665038]}},{"type":"Feature","properties":{"name":"수락산역","line":"7호선","color":"#6E7E31","transfer":false},"geometry":{"type":"Point","coordinates":[127.055343,37.677804]}},{"type":"Feature","properties":{"name":"광명사거리역","line":"7호선","color":"#6E7E31","transfer":false},"geometry":{"type":"Point","coordinates":[126.85446,37.479421]}},{"type":"Feature","properties":{"name":"철산역","line":"7호선","color":"#6E7E31","transfer":false},"geometry":{"type":"Point","coordinates":[126.867597,37.476001]}},{"type":"Feature","properties":{"name":"가산디지털단지역","line":"1호선·7호선","color":"#004A85","transfer":true},"geometry":{"type":"Point","coordinates":[126.882617,37.481595]}},{"type":"Feature","properties":{"name":"남구로역","line":"7호선","color":"#6E7E31","transfer":false},"geometry":{"type":"Point","coordinates":[126.886665,37.485361]}},{"type":"Feature","properties":{"name":"대림역","line":"2호선·7호선","color":"#00A23F","transfer":true},"geometry":{"type":"Point","coordinates":[126.894932,37.493437]}},{"type":"Feature","properties":{"name":"신풍역","line":"7호선","color":"#6E7E31","transfer":false},"geometry":{"type":"Point","coordinates":[126.908875,37.500167]}},{"type":"Feature","properties":{"name":"보라매역","line":"7호선·신림선","color":"#6E7E31","transfer":true},"geometry":{"type":"Point","coordinates":[126.920376,37.499928]}},{"type":"Feature","properties":{"name":"신대방삼거리역","line":"7호선","color":"#6E7E31","transfer":false},"geometry":{"type":"Point","coordinates":[126.928225,37.499706]}},{"type":"Feature","properties":{"name":"장승배기역","line":"7호선","color":"#6E7E31","transfer":false},"geometry":{"type":"Point","coordinates":[126.939279,37.505017]}},{"type":"Feature","properties":{"name":"상도역","line":"7호선","color":"#6E7E31","transfer":false},"geometry":{"type":"Point","coordinates":[126.947673,37.503216]}},{"type":"Feature","properties":{"name":"숭실대입구역","line":"7호선","color":"#6E7E31","transfer":false},"geometry":{"type":"Point","coordinates":[126.954133,37.495686]}},{"type":"Feature","properties":{"name":"남성역","line":"7호선","color":"#6E7E31","transfer":false},"geometry":{"type":"Point","coordinates":[126.971894,37.484355]}},{"type":"Feature","properties":{"name":"이수역","line":"7호선","color":"#6E7E31","transfer":false},"geometry":{"type":"Point","coordinates":[126.98211,37.485449]}},{"type":"Feature","properties":{"name":"내방역","line":"7호선","color":"#6E7E31","transfer":false},"geometry":{"type":"Point","coordinates":[126.993554,37.487645]}},{"type":"Feature","properties":{"name":"반포역","line":"7호선","color":"#6E7E31","transfer":false},"geometry":{"type":"Point","coordinates":[127.011635,37.508175]}},{"type":"Feature","properties":{"name":"논현역","line":"7호선·신분당선","color":"#6E7E31","transfer":true},"geometry":{"type":"Point","coordinates":[127.021364,37.510979]}},{"type":"Feature","properties":{"name":"학동역","line":"7호선","color":"#6E7E31","transfer":false},"geometry":{"type":"Point","coordinates":[127.03075,37.513957]}},{"type":"Feature","properties":{"name":"청담역","line":"7호선","color":"#6E7E31","transfer":false},"geometry":{"type":"Point","coordinates":[127.051678,37.519091]}},{"type":"Feature","properties":{"name":"자양역","line":"7호선","color":"#6E7E31","transfer":false},"geometry":{"type":"Point","coordinates":[127.066742,37.531532]}},{"type":"Feature","properties":{"name":"용두역","line":"2호선","color":"#00A23F","transfer":false},"geometry":{"type":"Point","coordinates":[127.038066,37.574074]}},{"type":"Feature","properties":{"name":"신답역","line":"2호선","color":"#00A23F","transfer":false},"geometry":{"type":"Point","coordinates":[127.047127,37.569719]}},{"type":"Feature","properties":{"name":"굴포천역","line":"7호선","color":"#6E7E31","transfer":false},"geometry":{"type":"Point","coordinates":[126.731337,37.507023]}},{"type":"Feature","properties":{"name":"삼산체육관역","line":"7호선","color":"#6E7E31","transfer":false},"geometry":{"type":"Point","coordinates":[126.742347,37.506496]}},{"type":"Feature","properties":{"name":"신중동역","line":"7호선","color":"#6E7E31","transfer":false},"geometry":{"type":"Point","coordinates":[126.776233,37.503039]}},{"type":"Feature","properties":{"name":"춘의역","line":"7호선","color":"#6E7E31","transfer":false},"geometry":{"type":"Point","coordinates":[126.787201,37.503731]}},{"type":"Feature","properties":{"name":"부천종합운동장역","line":"7호선·서해선","color":"#6E7E31","transfer":true},"geometry":{"type":"Point","coordinates":[126.797288,37.505457]}},{"type":"Feature","properties":{"name":"까치울역","line":"7호선","color":"#6E7E31","transfer":false},"geometry":{"type":"Point","coordinates":[126.811384,37.506241]}},{"type":"Feature","properties":{"name":"천왕역","line":"7호선","color":"#6E7E31","transfer":false},"geometry":{"type":"Point","coordinates":[126.838922,37.486367]}},{"type":"Feature","properties":{"name":"수진역","line":"8호선","color":"#D11D70","transfer":false},"geometry":{"type":"Point","coordinates":[127.140686,37.437443]}},{"type":"Feature","properties":{"name":"신흥역","line":"8호선","color":"#D11D70","transfer":false},"geometry":{"type":"Point","coordinates":[127.147664,37.441003]}},{"type":"Feature","properties":{"name":"단대오거리역","line":"8호선","color":"#D11D70","transfer":false},"geometry":{"type":"Point","coordinates":[127.156778,37.445085]}},{"type":"Feature","properties":{"name":"남한산성입구역","line":"8호선","color":"#D11D70","transfer":false},"geometry":{"type":"Point","coordinates":[127.159813,37.451553]}},{"type":"Feature","properties":{"name":"산성역","line":"8호선","color":"#D11D70","transfer":false},"geometry":{"type":"Point","coordinates":[127.149933,37.456868]}},{"type":"Feature","properties":{"name":"남위례역","line":"8호선","color":"#D11D70","transfer":false},"geometry":{"type":"Point","coordinates":[127.139216,37.462772]}},{"type":"Feature","properties":{"name":"장지역","line":"8호선","color":"#D11D70","transfer":false},"geometry":{"type":"Point","coordinates":[127.126067,37.478888]}},{"type":"Feature","properties":{"name":"문정역","line":"8호선","color":"#D11D70","transfer":false},"geometry":{"type":"Point","coordinates":[127.122518,37.485836]}},{"type":"Feature","properties":{"name":"송파역","line":"8호선","color":"#D11D70","transfer":false},"geometry":{"type":"Point","coordinates":[127.112182,37.499725]}},{"type":"Feature","properties":{"name":"석촌역","line":"8호선·9호선","color":"#D11D70","transfer":true},"geometry":{"type":"Point","coordinates":[127.107111,37.505295]}},{"type":"Feature","properties":{"name":"몽촌토성역","line":"8호선","color":"#D11D70","transfer":false},"geometry":{"type":"Point","coordinates":[127.11267,37.517533]}},{"type":"Feature","properties":{"name":"강동구청역","line":"8호선","color":"#D11D70","transfer":false},"geometry":{"type":"Point","coordinates":[127.120623,37.530694]}},{"type":"Feature","properties":{"name":"암사역","line":"8호선","color":"#D11D70","transfer":false},"geometry":{"type":"Point","coordinates":[127.127538,37.550106]}},{"type":"Feature","properties":{"name":"중앙보훈병원역","line":"9호선","color":"#A49D87","transfer":false},"geometry":{"type":"Point","coordinates":[127.148258,37.52828]}},{"type":"Feature","properties":{"name":"둔촌오륜역","line":"9호선","color":"#A49D87","transfer":false},"geometry":{"type":"Point","coordinates":[127.138418,37.519841]}},{"type":"Feature","properties":{"name":"한성백제역","line":"9호선","color":"#A49D87","transfer":false},"geometry":{"type":"Point","coordinates":[127.116213,37.51667]}},{"type":"Feature","properties":{"name":"송파나루역","line":"9호선","color":"#A49D87","transfer":false},"geometry":{"type":"Point","coordinates":[127.112795,37.511245]}},{"type":"Feature","properties":{"name":"석촌고분역","line":"9호선","color":"#A49D87","transfer":false},"geometry":{"type":"Point","coordinates":[127.096614,37.502444]}},{"type":"Feature","properties":{"name":"삼전역","line":"9호선","color":"#A49D87","transfer":false},"geometry":{"type":"Point","coordinates":[127.087208,37.504535]}},{"type":"Feature","properties":{"name":"부평구청역","line":"7호선","color":"#6E7E31","transfer":false},"geometry":{"type":"Point","coordinates":[126.721104,37.507465]}},{"type":"Feature","properties":{"name":"백석역","line":"3호선","color":"#ED6C00","transfer":false},"geometry":{"type":"Point","coordinates":[126.788038,37.643036]}},{"type":"Feature","properties":{"name":"산곡역","line":"7호선","color":"#6E7E31","transfer":false},"geometry":{"type":"Point","coordinates":[126.703693,37.508697]}},{"type":"Feature","properties":{"name":"광교중앙역","line":"신분당선","color":"#B81B30","transfer":false},"geometry":{"type":"Point","coordinates":[127.051519,37.288562]}},{"type":"Feature","properties":{"name":"상현역","line":"신분당선","color":"#B81B30","transfer":false},"geometry":{"type":"Point","coordinates":[127.069302,37.297583]}},{"type":"Feature","properties":{"name":"성복역","line":"신분당선","color":"#B81B30","transfer":false},"geometry":{"type":"Point","coordinates":[127.080377,37.3135]}},{"type":"Feature","properties":{"name":"수지구청역","line":"신분당선","color":"#B81B30","transfer":false},"geometry":{"type":"Point","coordinates":[127.094755,37.322537]}},{"type":"Feature","properties":{"name":"역곡역","line":"1호선","color":"#004A85","transfer":false},"geometry":{"type":"Point","coordinates":[126.811811,37.485219]}},{"type":"Feature","properties":{"name":"광교역","line":"신분당선","color":"#B81B30","transfer":false},"geometry":{"type":"Point","coordinates":[127.044281,37.302109]}},{"type":"Feature","properties":{"name":"동천역","line":"신분당선","color":"#B81B30","transfer":false},"geometry":{"type":"Point","coordinates":[127.102828,37.338098]}},{"type":"Feature","properties":{"name":"한대앞역","line":"4호선·수인분당선","color":"#009BCE","transfer":true},"geometry":{"type":"Point","coordinates":[126.853614,37.309735]}},{"type":"Feature","properties":{"name":"양재시민의숲역","line":"신분당선","color":"#B81B30","transfer":false},"geometry":{"type":"Point","coordinates":[127.038477,37.46971]}},{"type":"Feature","properties":{"name":"청계산입구역","line":"신분당선","color":"#B81B30","transfer":false},"geometry":{"type":"Point","coordinates":[127.054643,37.448311]}},{"type":"Feature","properties":{"name":"성신여대입구역","line":"4호선·우이신설선","color":"#009BCE","transfer":true},"geometry":{"type":"Point","coordinates":[127.016476,37.592675]}},{"type":"Feature","properties":{"name":"고잔역","line":"4호선·수인분당선","color":"#009BCE","transfer":true},"geometry":{"type":"Point","coordinates":[126.823101,37.316851]}},{"type":"Feature","properties":{"name":"청량리역","line":"1호선·경의중앙선·경춘선·수인분당선","color":"#004A85","transfer":true},"geometry":{"type":"Point","coordinates":[127.044628,37.579975]}},{"type":"Feature","properties":{"name":"신내역","line":"6호선·경춘선","color":"#7C4932","transfer":true},"geometry":{"type":"Point","coordinates":[127.10409,37.612551]}},{"type":"Feature","properties":{"name":"종로3가역","line":"1호선·3호선·5호선","color":"#004A85","transfer":true},"geometry":{"type":"Point","coordinates":[126.992324,37.57044]}},{"type":"Feature","properties":{"name":"이촌역","line":"4호선·경의중앙선","color":"#009BCE","transfer":true},"geometry":{"type":"Point","coordinates":[126.973368,37.522712]}},{"type":"Feature","properties":{"name":"진접역","line":"4호선","color":"#009BCE","transfer":false},"geometry":{"type":"Point","coordinates":[127.20325,37.720054]}},{"type":"Feature","properties":{"name":"오남역","line":"4호선","color":"#009BCE","transfer":false},"geometry":{"type":"Point","coordinates":[127.191166,37.705234]}},{"type":"Feature","properties":{"name":"별내별가람역","line":"4호선","color":"#009BCE","transfer":false},"geometry":{"type":"Point","coordinates":[127.116269,37.667824]}},{"type":"Feature","properties":{"name":"의정부역","line":"1호선","color":"#004A85","transfer":false},"geometry":{"type":"Point","coordinates":[127.04605,37.737704]}},{"type":"Feature","properties":{"name":"미사역","line":"5호선","color":"#794698","transfer":false},"geometry":{"type":"Point","coordinates":[127.192822,37.563055]}},{"type":"Feature","properties":{"name":"과천정보타운역","line":"수도권 전철","color":"#0EA5E9","transfer":false},"geometry":{"type":"Point","coordinates":[126.979595,37.412469]}},{"type":"Feature","properties":{"name":"왕십리역","line":"2호선·5호선·경의중앙선·수인분당선","color":"#00A23F","transfer":true},"geometry":{"type":"Point","coordinates":[127.037153,37.561208]}},{"type":"Feature","properties":{"name":"개화역","line":"9호선","color":"#A49D87","transfer":false},"geometry":{"type":"Point","coordinates":[126.797665,37.578538]}},{"type":"Feature","properties":{"name":"송도달빛축제공원역","line":"","color":"#0EA5E9","transfer":false},"geometry":{"type":"Point","coordinates":[126.626106,37.406805]}},{"type":"Feature","properties":{"name":"석남역","line":"7호선","color":"#6E7E31","transfer":false},"geometry":{"type":"Point","coordinates":[126.674637,37.506286]}},{"type":"Feature","properties":{"name":"주엽역","line":"3호선","color":"#ED6C00","transfer":false},"geometry":{"type":"Point","coordinates":[126.761238,37.670152]}},{"type":"Feature","properties":{"name":"센트럴파크역","line":"","color":"#0EA5E9","transfer":false},"geometry":{"type":"Point","coordinates":[126.634561,37.393507]}},{"type":"Feature","properties":{"name":"인천대입구역","line":"","color":"#0EA5E9","transfer":false},"geometry":{"type":"Point","coordinates":[126.639447,37.386116]}},{"type":"Feature","properties":{"name":"지식정보단지역","line":"","color":"#0EA5E9","transfer":false},"geometry":{"type":"Point","coordinates":[126.645923,37.377471]}},{"type":"Feature","properties":{"name":"테크노파크역","line":"","color":"#0EA5E9","transfer":false},"geometry":{"type":"Point","coordinates":[126.656254,37.382302]}},{"type":"Feature","properties":{"name":"캠퍼스타운역","line":"","color":"#0EA5E9","transfer":false},"geometry":{"type":"Point","coordinates":[126.661893,37.388174]}},{"type":"Feature","properties":{"name":"동막역","line":"","color":"#0EA5E9","transfer":false},"geometry":{"type":"Point","coordinates":[126.673541,37.398623]}},{"type":"Feature","properties":{"name":"동춘역","line":"","color":"#0EA5E9","transfer":false},"geometry":{"type":"Point","coordinates":[126.680271,37.40482]}},{"type":"Feature","properties":{"name":"신연수역","line":"","color":"#0EA5E9","transfer":false},"geometry":{"type":"Point","coordinates":[126.693931,37.418065]}},{"type":"Feature","properties":{"name":"선학역","line":"","color":"#0EA5E9","transfer":false},"geometry":{"type":"Point","coordinates":[126.698989,37.427241]}},{"type":"Feature","properties":{"name":"문학경기장역","line":"","color":"#0EA5E9","transfer":false},"geometry":{"type":"Point","coordinates":[126.697795,37.435105]}},{"type":"Feature","properties":{"name":"인천터미널역","line":"","color":"#0EA5E9","transfer":false},"geometry":{"type":"Point","coordinates":[126.699716,37.441946]}},{"type":"Feature","properties":{"name":"예술회관역","line":"","color":"#0EA5E9","transfer":false},"geometry":{"type":"Point","coordinates":[126.700976,37.449506]}},{"type":"Feature","properties":{"name":"간석오거리역","line":"","color":"#0EA5E9","transfer":false},"geometry":{"type":"Point","coordinates":[126.707949,37.467155]}},{"type":"Feature","properties":{"name":"부평삼거리역","line":"","color":"#0EA5E9","transfer":false},"geometry":{"type":"Point","coordinates":[126.710357,37.477909]}},{"type":"Feature","properties":{"name":"동수역","line":"","color":"#0EA5E9","transfer":false},"geometry":{"type":"Point","coordinates":[126.718542,37.485422]}},{"type":"Feature","properties":{"name":"부평시장역","line":"","color":"#0EA5E9","transfer":false},"geometry":{"type":"Point","coordinates":[126.722289,37.498368]}},{"type":"Feature","properties":{"name":"갈산역","line":"","color":"#0EA5E9","transfer":false},"geometry":{"type":"Point","coordinates":[126.721518,37.516813]}},{"type":"Feature","properties":{"name":"작전역","line":"","color":"#0EA5E9","transfer":false},"geometry":{"type":"Point","coordinates":[126.722531,37.530313]}},{"type":"Feature","properties":{"name":"경인교대입구역","line":"","color":"#0EA5E9","transfer":false},"geometry":{"type":"Point","coordinates":[126.722603,37.538408]}},{"type":"Feature","properties":{"name":"계산역","line":"","color":"#0EA5E9","transfer":false},"geometry":{"type":"Point","coordinates":[126.727857,37.543336]}},{"type":"Feature","properties":{"name":"샛강역","line":"9호선·신림선","color":"#A49D87","transfer":true},"geometry":{"type":"Point","coordinates":[126.928282,37.517362]}},{"type":"Feature","properties":{"name":"디지털미디어시티역","line":"6호선·경의중앙선","color":"#7C4932","transfer":true},"geometry":{"type":"Point","coordinates":[126.898077,37.577396]}},{"type":"Feature","properties":{"name":"상계역","line":"4호선","color":"#009BCE","transfer":false},"geometry":{"type":"Point","coordinates":[127.073439,37.660765]}},{"type":"Feature","properties":{"name":"선유도역","line":"9호선","color":"#A49D87","transfer":false},"geometry":{"type":"Point","coordinates":[126.893982,37.537859]}},{"type":"Feature","properties":{"name":"신목동역","line":"9호선","color":"#A49D87","transfer":false},"geometry":{"type":"Point","coordinates":[126.883176,37.544211]}},{"type":"Feature","properties":{"name":"염창역","line":"9호선","color":"#A49D87","transfer":false},"geometry":{"type":"Point","coordinates":[126.875397,37.547033]}},{"type":"Feature","properties":{"name":"등촌역","line":"9호선","color":"#A49D87","transfer":false},"geometry":{"type":"Point","coordinates":[126.864574,37.551152]}},{"type":"Feature","properties":{"name":"증미역","line":"9호선","color":"#A49D87","transfer":false},"geometry":{"type":"Point","coordinates":[126.861818,37.55751]}},{"type":"Feature","properties":{"name":"가양역","line":"9호선","color":"#A49D87","transfer":false},"geometry":{"type":"Point","coordinates":[126.8551,37.561142]}},{"type":"Feature","properties":{"name":"양천향교역","line":"9호선","color":"#A49D87","transfer":false},"geometry":{"type":"Point","coordinates":[126.841296,37.568452]}},{"type":"Feature","properties":{"name":"신방화역","line":"9호선","color":"#A49D87","transfer":false},"geometry":{"type":"Point","coordinates":[126.816592,37.567497]}},{"type":"Feature","properties":{"name":"공항시장역","line":"9호선","color":"#A49D87","transfer":false},"geometry":{"type":"Point","coordinates":[126.810602,37.563658]}},{"type":"Feature","properties":{"name":"원종역","line":"서해선","color":"#5EAC41","transfer":false},"geometry":{"type":"Point","coordinates":[126.804861,37.523846]}},{"type":"Feature","properties":{"name":"총신대입구(이수)역","line":"4호선","color":"#009BCE","transfer":false},"geometry":{"type":"Point","coordinates":[126.982237,37.48678]}},{"type":"Feature","properties":{"name":"탑석역","line":"","color":"#0EA5E9","transfer":false},"geometry":{"type":"Point","coordinates":[127.08879,37.733482]}},{"type":"Feature","properties":{"name":"성남역","line":"","color":"#0EA5E9","transfer":false},"geometry":{"type":"Point","coordinates":[127.119412,37.394691]}},{"type":"Feature","properties":{"name":"옥수역","line":"3호선·경의중앙선","color":"#ED6C00","transfer":true},"geometry":{"type":"Point","coordinates":[127.01755,37.541373]}},{"type":"Feature","properties":{"name":"장자호수공원역","line":"8호선","color":"#D11D70","transfer":false},"geometry":{"type":"Point","coordinates":[127.137912,37.587406]}},{"type":"Feature","properties":{"name":"구리역","line":"8호선·경의중앙선","color":"#D11D70","transfer":true},"geometry":{"type":"Point","coordinates":[127.140838,37.602271]}},{"type":"Feature","properties":{"name":"동구릉역","line":"8호선","color":"#D11D70","transfer":false},"geometry":{"type":"Point","coordinates":[127.138109,37.610514]}},{"type":"Feature","properties":{"name":"다산역","line":"8호선","color":"#D11D70","transfer":false},"geometry":{"type":"Point","coordinates":[127.149763,37.624329]}},{"type":"Feature","properties":{"name":"별내역","line":"8호선·경춘선","color":"#D11D70","transfer":true},"geometry":{"type":"Point","coordinates":[127.127817,37.642035]}},{"type":"Feature","properties":{"name":"아라역","line":"","color":"#0EA5E9","transfer":false},"geometry":{"type":"Point","coordinates":[126.713301,37.592259]}},{"type":"Feature","properties":{"name":"신검단중앙역","line":"","color":"#0EA5E9","transfer":false},"geometry":{"type":"Point","coordinates":[126.698526,37.602676]}},{"type":"Feature","properties":{"name":"검단호수공원역","line":"","color":"#0EA5E9","transfer":false},"geometry":{"type":"Point","coordinates":[126.688566,37.60244]}},{"type":"Feature","properties":{"name":"뚝섬역","line":"2호선","color":"#00A23F","transfer":false},"geometry":{"type":"Point","coordinates":[127.04741,37.547235]}},{"type":"Feature","properties":{"name":"초월역","line":"","color":"#0EA5E9","transfer":false},"geometry":{"type":"Point","coordinates":[127.299949,37.373364]}},{"type":"Feature","properties":{"name":"고색역","line":"수인분당선","color":"#ECA300","transfer":false},"geometry":{"type":"Point","coordinates":[126.98039,37.24983]}},{"type":"Feature","properties":{"name":"매교역","line":"수인분당선","color":"#ECA300","transfer":false},"geometry":{"type":"Point","coordinates":[127.01571,37.2655]}},{"type":"Feature","properties":{"name":"수원시청역","line":"수인분당선","color":"#ECA300","transfer":false},"geometry":{"type":"Point","coordinates":[127.0319,37.26176]}},{"type":"Feature","properties":{"name":"매탄권선역","line":"수인분당선","color":"#ECA300","transfer":false},"geometry":{"type":"Point","coordinates":[127.04048,37.25305]}},{"type":"Feature","properties":{"name":"영통역","line":"수인분당선","color":"#ECA300","transfer":false},"geometry":{"type":"Point","coordinates":[127.07124,37.25138]}},{"type":"Feature","properties":{"name":"청명역","line":"수인분당선","color":"#ECA300","transfer":false},"geometry":{"type":"Point","coordinates":[127.07949,37.26]}},{"type":"Feature","properties":{"name":"상갈역","line":"수인분당선","color":"#ECA300","transfer":false},"geometry":{"type":"Point","coordinates":[127.10887,37.26175]}},{"type":"Feature","properties":{"name":"기흥역","line":"수인분당선","color":"#ECA300","transfer":false},"geometry":{"type":"Point","coordinates":[127.11599,37.27551]}},{"type":"Feature","properties":{"name":"신갈역","line":"수인분당선","color":"#ECA300","transfer":false},"geometry":{"type":"Point","coordinates":[127.11134,37.28612]}},{"type":"Feature","properties":{"name":"구성역","line":"GTX-A·수인분당선","color":"#AB087D","transfer":true},"geometry":{"type":"Point","coordinates":[127.10572,37.29902]}},{"type":"Feature","properties":{"name":"보정역","line":"수인분당선","color":"#ECA300","transfer":false},"geometry":{"type":"Point","coordinates":[127.1083,37.31235]}},{"type":"Feature","properties":{"name":"죽전역","line":"수인분당선","color":"#ECA300","transfer":false},"geometry":{"type":"Point","coordinates":[127.10738,37.32456]}},{"type":"Feature","properties":{"name":"오리역","line":"수인분당선","color":"#ECA300","transfer":false},"geometry":{"type":"Point","coordinates":[127.10889,37.34064]}},{"type":"Feature","properties":{"name":"수내역","line":"수인분당선","color":"#ECA300","transfer":false},"geometry":{"type":"Point","coordinates":[127.11423,37.37842]}},{"type":"Feature","properties":{"name":"서현역","line":"수인분당선","color":"#ECA300","transfer":false},"geometry":{"type":"Point","coordinates":[127.12332,37.38493]}},{"type":"Feature","properties":{"name":"야탑역","line":"수인분당선","color":"#ECA300","transfer":false},"geometry":{"type":"Point","coordinates":[127.12869,37.41128]}},{"type":"Feature","properties":{"name":"태평역","line":"수인분당선","color":"#ECA300","transfer":false},"geometry":{"type":"Point","coordinates":[127.12772,37.43971]}},{"type":"Feature","properties":{"name":"가천대역","line":"수인분당선","color":"#ECA300","transfer":false},"geometry":{"type":"Point","coordinates":[127.1267,37.4487]}},{"type":"Feature","properties":{"name":"대모산입구역","line":"수인분당선","color":"#ECA300","transfer":false},"geometry":{"type":"Point","coordinates":[127.07276,37.49137]}},{"type":"Feature","properties":{"name":"개포동역","line":"수인분당선","color":"#ECA300","transfer":false},"geometry":{"type":"Point","coordinates":[127.06605,37.48908]}},{"type":"Feature","properties":{"name":"구룡역","line":"수인분당선","color":"#ECA300","transfer":false},"geometry":{"type":"Point","coordinates":[127.05945,37.48691]}},{"type":"Feature","properties":{"name":"한티역","line":"수인분당선","color":"#ECA300","transfer":false},"geometry":{"type":"Point","coordinates":[127.05284,37.49627]}},{"type":"Feature","properties":{"name":"압구정로데오역","line":"수인분당선","color":"#ECA300","transfer":false},"geometry":{"type":"Point","coordinates":[127.04068,37.52782]}},{"type":"Feature","properties":{"name":"서울숲역","line":"수인분당선","color":"#ECA300","transfer":false},"geometry":{"type":"Point","coordinates":[127.04472,37.54362]}},{"type":"Feature","properties":{"name":"인천공항2터미널역","line":"공항철도","color":"#0079AC","transfer":false},"geometry":{"type":"Point","coordinates":[126.4335,37.46889]}},{"type":"Feature","properties":{"name":"인천공항1터미널역","line":"공항철도","color":"#0079AC","transfer":false},"geometry":{"type":"Point","coordinates":[126.4527,37.44726]}},{"type":"Feature","properties":{"name":"공항화물청사역","line":"공항철도","color":"#0079AC","transfer":false},"geometry":{"type":"Point","coordinates":[126.47763,37.45891]}},{"type":"Feature","properties":{"name":"운서역","line":"공항철도","color":"#0079AC","transfer":false},"geometry":{"type":"Point","coordinates":[126.49371,37.49284]}},{"type":"Feature","properties":{"name":"영종역","line":"공항철도","color":"#0079AC","transfer":false},"geometry":{"type":"Point","coordinates":[126.52486,37.51202]}},{"type":"Feature","properties":{"name":"청라국제도시역","line":"공항철도","color":"#0079AC","transfer":false},"geometry":{"type":"Point","coordinates":[126.62467,37.5565]}},{"type":"Feature","properties":{"name":"검암역","line":"공항철도","color":"#0079AC","transfer":false},"geometry":{"type":"Point","coordinates":[126.67368,37.56916]}},{"type":"Feature","properties":{"name":"달월역","line":"수인분당선","color":"#ECA300","transfer":false},"geometry":{"type":"Point","coordinates":[126.74588,37.38071]}},{"type":"Feature","properties":{"name":"월곶역","line":"수인분당선","color":"#ECA300","transfer":false},"geometry":{"type":"Point","coordinates":[126.74232,37.39216]}},{"type":"Feature","properties":{"name":"소래포구역","line":"수인분당선","color":"#ECA300","transfer":false},"geometry":{"type":"Point","coordinates":[126.73255,37.4013]}},{"type":"Feature","properties":{"name":"인천논현역","line":"수인분당선","color":"#ECA300","transfer":false},"geometry":{"type":"Point","coordinates":[126.72153,37.40048]}},{"type":"Feature","properties":{"name":"호구포역","line":"수인분당선","color":"#ECA300","transfer":false},"geometry":{"type":"Point","coordinates":[126.70775,37.4021]}},{"type":"Feature","properties":{"name":"남동인더스파크역","line":"수인분당선","color":"#ECA300","transfer":false},"geometry":{"type":"Point","coordinates":[126.6944,37.40825]}},{"type":"Feature","properties":{"name":"연수역","line":"수인분당선","color":"#ECA300","transfer":false},"geometry":{"type":"Point","coordinates":[126.67795,37.41837]}},{"type":"Feature","properties":{"name":"송도역","line":"수인분당선","color":"#ECA300","transfer":false},"geometry":{"type":"Point","coordinates":[126.65387,37.4303]}},{"type":"Feature","properties":{"name":"인하대역","line":"수인분당선","color":"#ECA300","transfer":false},"geometry":{"type":"Point","coordinates":[126.64938,37.44899]}},{"type":"Feature","properties":{"name":"숭의역","line":"수인분당선","color":"#ECA300","transfer":false},"geometry":{"type":"Point","coordinates":[126.63708,37.46124]}},{"type":"Feature","properties":{"name":"신포역","line":"수인분당선","color":"#ECA300","transfer":false},"geometry":{"type":"Point","coordinates":[126.62368,37.46893]}},{"type":"Feature","properties":{"name":"용문역","line":"경의중앙선","color":"#6AC2B3","transfer":false},"geometry":{"type":"Point","coordinates":[127.59479,37.48205]}},{"type":"Feature","properties":{"name":"원덕역","line":"경의중앙선","color":"#6AC2B3","transfer":false},"geometry":{"type":"Point","coordinates":[127.54545,37.46897]}},{"type":"Feature","properties":{"name":"오빈역","line":"경의중앙선","color":"#6AC2B3","transfer":false},"geometry":{"type":"Point","coordinates":[127.47267,37.50644]}},{"type":"Feature","properties":{"name":"아신역","line":"경의중앙선","color":"#6AC2B3","transfer":false},"geometry":{"type":"Point","coordinates":[127.44215,37.51417]}},{"type":"Feature","properties":{"name":"국수역","line":"경의중앙선","color":"#6AC2B3","transfer":false},"geometry":{"type":"Point","coordinates":[127.39825,37.51591]}},{"type":"Feature","properties":{"name":"신원역","line":"경의중앙선","color":"#6AC2B3","transfer":false},"geometry":{"type":"Point","coordinates":[127.37246,37.52624]}},{"type":"Feature","properties":{"name":"양수역","line":"경의중앙선","color":"#6AC2B3","transfer":false},"geometry":{"type":"Point","coordinates":[127.32814,37.54641]}},{"type":"Feature","properties":{"name":"운길산역","line":"경의중앙선","color":"#6AC2B3","transfer":false},"geometry":{"type":"Point","coordinates":[127.30897,37.55518]}},{"type":"Feature","properties":{"name":"팔당역","line":"경의중앙선","color":"#6AC2B3","transfer":false},"geometry":{"type":"Point","coordinates":[127.24298,37.54812]}},{"type":"Feature","properties":{"name":"도심역","line":"경의중앙선","color":"#6AC2B3","transfer":false},"geometry":{"type":"Point","coordinates":[127.22176,37.57988]}},{"type":"Feature","properties":{"name":"덕소역","line":"경의중앙선","color":"#6AC2B3","transfer":false},"geometry":{"type":"Point","coordinates":[127.20766,37.58752]}},{"type":"Feature","properties":{"name":"양정역","line":"경의중앙선","color":"#6AC2B3","transfer":false},"geometry":{"type":"Point","coordinates":[127.19412,37.60468]}},{"type":"Feature","properties":{"name":"도농역","line":"경의중앙선","color":"#6AC2B3","transfer":false},"geometry":{"type":"Point","coordinates":[127.16122,37.60878]}},{"type":"Feature","properties":{"name":"양원역","line":"경의중앙선","color":"#6AC2B3","transfer":false},"geometry":{"type":"Point","coordinates":[127.10723,37.60642]}},{"type":"Feature","properties":{"name":"망우역","line":"경의중앙선·경춘선","color":"#6AC2B3","transfer":true},"geometry":{"type":"Point","coordinates":[127.09157,37.59897]}},{"type":"Feature","properties":{"name":"중랑역","line":"경의중앙선·경춘선","color":"#6AC2B3","transfer":true},"geometry":{"type":"Point","coordinates":[127.07535,37.5947]}},{"type":"Feature","properties":{"name":"응봉역","line":"경의중앙선","color":"#6AC2B3","transfer":false},"geometry":{"type":"Point","coordinates":[127.03426,37.54955]}},{"type":"Feature","properties":{"name":"한남역","line":"경의중앙선","color":"#6AC2B3","transfer":false},"geometry":{"type":"Point","coordinates":[127.00853,37.52915]}},{"type":"Feature","properties":{"name":"서빙고역","line":"경의중앙선","color":"#6AC2B3","transfer":false},"geometry":{"type":"Point","coordinates":[126.98728,37.51952]}},{"type":"Feature","properties":{"name":"서강대역","line":"경의중앙선","color":"#6AC2B3","transfer":false},"geometry":{"type":"Point","coordinates":[126.93427,37.55299]}},{"type":"Feature","properties":{"name":"가좌역","line":"경의중앙선","color":"#6AC2B3","transfer":false},"geometry":{"type":"Point","coordinates":[126.91415,37.56885]}},{"type":"Feature","properties":{"name":"수색역","line":"경의중앙선","color":"#6AC2B3","transfer":false},"geometry":{"type":"Point","coordinates":[126.89502,37.58097]}},{"type":"Feature","properties":{"name":"한국항공대역","line":"경의중앙선","color":"#6AC2B3","transfer":false},"geometry":{"type":"Point","coordinates":[126.86776,37.60323]}},{"type":"Feature","properties":{"name":"강매역","line":"경의중앙선","color":"#6AC2B3","transfer":false},"geometry":{"type":"Point","coordinates":[126.84428,37.61214]}},{"type":"Feature","properties":{"name":"행신역","line":"경의중앙선","color":"#6AC2B3","transfer":false},"geometry":{"type":"Point","coordinates":[126.83419,37.61199]}},{"type":"Feature","properties":{"name":"능곡역","line":"경의중앙선·서해선","color":"#6AC2B3","transfer":true},"geometry":{"type":"Point","coordinates":[126.81975,37.61935]}},{"type":"Feature","properties":{"name":"곡산역","line":"경의중앙선·서해선","color":"#6AC2B3","transfer":true},"geometry":{"type":"Point","coordinates":[126.80141,37.64638]}},{"type":"Feature","properties":{"name":"풍산역","line":"경의중앙선·서해선","color":"#6AC2B3","transfer":true},"geometry":{"type":"Point","coordinates":[126.78592,37.67287]}},{"type":"Feature","properties":{"name":"일산역","line":"경의중앙선·서해선","color":"#6AC2B3","transfer":true},"geometry":{"type":"Point","coordinates":[126.76985,37.68201]}},{"type":"Feature","properties":{"name":"탄현역","line":"경의중앙선","color":"#6AC2B3","transfer":false},"geometry":{"type":"Point","coordinates":[126.76101,37.69469]}},{"type":"Feature","properties":{"name":"야당역","line":"경의중앙선","color":"#6AC2B3","transfer":false},"geometry":{"type":"Point","coordinates":[126.76161,37.71326]}},{"type":"Feature","properties":{"name":"운정역","line":"경의중앙선","color":"#6AC2B3","transfer":false},"geometry":{"type":"Point","coordinates":[126.76744,37.72624]}},{"type":"Feature","properties":{"name":"금릉역","line":"경의중앙선","color":"#6AC2B3","transfer":false},"geometry":{"type":"Point","coordinates":[126.76503,37.75189]}},{"type":"Feature","properties":{"name":"금촌역","line":"경의중앙선","color":"#6AC2B3","transfer":false},"geometry":{"type":"Point","coordinates":[126.77536,37.7666]}},{"type":"Feature","properties":{"name":"월롱역","line":"경의중앙선","color":"#6AC2B3","transfer":false},"geometry":{"type":"Point","coordinates":[126.79303,37.79743]}},{"type":"Feature","properties":{"name":"파주역","line":"경의중앙선","color":"#6AC2B3","transfer":false},"geometry":{"type":"Point","coordinates":[126.79221,37.81573]}},{"type":"Feature","properties":{"name":"문산역","line":"경의중앙선","color":"#6AC2B3","transfer":false},"geometry":{"type":"Point","coordinates":[126.78799,37.85531]}},{"type":"Feature","properties":{"name":"백마역","line":"경의중앙선·서해선","color":"#6AC2B3","transfer":true},"geometry":{"type":"Point","coordinates":[126.79492,37.6576]}},{"type":"Feature","properties":{"name":"북한산우이역","line":"우이신설선","color":"#BACC50","transfer":false},"geometry":{"type":"Point","coordinates":[127.01235,37.66336]}},{"type":"Feature","properties":{"name":"솔밭공원역","line":"우이신설선","color":"#BACC50","transfer":false},"geometry":{"type":"Point","coordinates":[127.01316,37.65593]}},{"type":"Feature","properties":{"name":"4.19민주묘지역","line":"우이신설선","color":"#BACC50","transfer":false},"geometry":{"type":"Point","coordinates":[127.01365,37.64936]}},{"type":"Feature","properties":{"name":"가오리역","line":"우이신설선","color":"#BACC50","transfer":false},"geometry":{"type":"Point","coordinates":[127.01652,37.64204]}},{"type":"Feature","properties":{"name":"화계역","line":"우이신설선","color":"#BACC50","transfer":false},"geometry":{"type":"Point","coordinates":[127.01743,37.63404]}},{"type":"Feature","properties":{"name":"삼양역","line":"우이신설선","color":"#BACC50","transfer":false},"geometry":{"type":"Point","coordinates":[127.01814,37.62696]}},{"type":"Feature","properties":{"name":"솔샘역","line":"우이신설선","color":"#BACC50","transfer":false},"geometry":{"type":"Point","coordinates":[127.01371,37.62022]}},{"type":"Feature","properties":{"name":"북한산보국문역","line":"우이신설선","color":"#BACC50","transfer":false},"geometry":{"type":"Point","coordinates":[127.00826,37.61196]}},{"type":"Feature","properties":{"name":"정릉역","line":"우이신설선","color":"#BACC50","transfer":false},"geometry":{"type":"Point","coordinates":[127.01334,37.60275]}},{"type":"Feature","properties":{"name":"삼양사거리역","line":"우이신설선","color":"#BACC50","transfer":false},"geometry":{"type":"Point","coordinates":[127.02051,37.62117]}},{"type":"Feature","properties":{"name":"갈매역","line":"경춘선","color":"#007A62","transfer":false},"geometry":{"type":"Point","coordinates":[127.1147,37.63396]}},{"type":"Feature","properties":{"name":"퇴계원역","line":"경춘선","color":"#007A62","transfer":false},"geometry":{"type":"Point","coordinates":[127.14352,37.64827]}},{"type":"Feature","properties":{"name":"사릉역","line":"경춘선","color":"#007A62","transfer":false},"geometry":{"type":"Point","coordinates":[127.17691,37.65111]}},{"type":"Feature","properties":{"name":"금곡역","line":"경춘선","color":"#007A62","transfer":false},"geometry":{"type":"Point","coordinates":[127.20742,37.63734]}},{"type":"Feature","properties":{"name":"평내호평역","line":"경춘선","color":"#007A62","transfer":false},"geometry":{"type":"Point","coordinates":[127.2445,37.65324]}},{"type":"Feature","properties":{"name":"천마산역","line":"경춘선","color":"#007A62","transfer":false},"geometry":{"type":"Point","coordinates":[127.28506,37.65923]}},{"type":"Feature","properties":{"name":"마석역","line":"경춘선","color":"#007A62","transfer":false},"geometry":{"type":"Point","coordinates":[127.31167,37.65279]}},{"type":"Feature","properties":{"name":"대성리역","line":"경춘선","color":"#007A62","transfer":false},"geometry":{"type":"Point","coordinates":[127.37957,37.68385]}},{"type":"Feature","properties":{"name":"청평역","line":"경춘선","color":"#007A62","transfer":false},"geometry":{"type":"Point","coordinates":[127.42662,37.73552]}},{"type":"Feature","properties":{"name":"상천역","line":"경춘선","color":"#007A62","transfer":false},"geometry":{"type":"Point","coordinates":[127.4544,37.77016]}},{"type":"Feature","properties":{"name":"가평역","line":"경춘선","color":"#007A62","transfer":false},"geometry":{"type":"Point","coordinates":[127.51074,37.81454]}},{"type":"Feature","properties":{"name":"굴봉산역","line":"경춘선","color":"#007A62","transfer":false},"geometry":{"type":"Point","coordinates":[127.55713,37.83194]}},{"type":"Feature","properties":{"name":"백양리역","line":"경춘선","color":"#007A62","transfer":false},"geometry":{"type":"Point","coordinates":[127.58917,37.8308]}},{"type":"Feature","properties":{"name":"강촌역","line":"경춘선","color":"#007A62","transfer":false},"geometry":{"type":"Point","coordinates":[127.63412,37.80574]}},{"type":"Feature","properties":{"name":"김유정역","line":"경춘선","color":"#007A62","transfer":false},"geometry":{"type":"Point","coordinates":[127.71432,37.81845]}},{"type":"Feature","properties":{"name":"남춘천역","line":"경춘선","color":"#007A62","transfer":false},"geometry":{"type":"Point","coordinates":[127.72392,37.86399]}},{"type":"Feature","properties":{"name":"춘천역","line":"경춘선","color":"#007A62","transfer":false},"geometry":{"type":"Point","coordinates":[127.71662,37.88453]}},{"type":"Feature","properties":{"name":"소요산역","line":"1호선","color":"#004A85","transfer":false},"geometry":{"type":"Point","coordinates":[127.06072,37.94716]}},{"type":"Feature","properties":{"name":"동두천역","line":"1호선","color":"#004A85","transfer":false},"geometry":{"type":"Point","coordinates":[127.05502,37.92669]}},{"type":"Feature","properties":{"name":"보산역","line":"1호선","color":"#004A85","transfer":false},"geometry":{"type":"Point","coordinates":[127.05733,37.9133]}},{"type":"Feature","properties":{"name":"동두천중앙역","line":"1호선","color":"#004A85","transfer":false},"geometry":{"type":"Point","coordinates":[127.05649,37.90086]}},{"type":"Feature","properties":{"name":"지행역","line":"1호선","color":"#004A85","transfer":false},"geometry":{"type":"Point","coordinates":[127.05578,37.89153]}},{"type":"Feature","properties":{"name":"진위역","line":"1호선","color":"#004A85","transfer":false},"geometry":{"type":"Point","coordinates":[127.06239,37.10931]}},{"type":"Feature","properties":{"name":"송탄역","line":"1호선","color":"#004A85","transfer":false},"geometry":{"type":"Point","coordinates":[127.05442,37.07561]}},{"type":"Feature","properties":{"name":"서정리역","line":"1호선","color":"#004A85","transfer":false},"geometry":{"type":"Point","coordinates":[127.0529,37.05568]}},{"type":"Feature","properties":{"name":"평택지제역","line":"1호선","color":"#004A85","transfer":false},"geometry":{"type":"Point","coordinates":[127.07058,37.0182]}},{"type":"Feature","properties":{"name":"평택역","line":"1호선","color":"#004A85","transfer":false},"geometry":{"type":"Point","coordinates":[127.08637,36.98992]}},{"type":"Feature","properties":{"name":"성환역","line":"1호선","color":"#004A85","transfer":false},"geometry":{"type":"Point","coordinates":[127.12706,36.91538]}},{"type":"Feature","properties":{"name":"직산역","line":"1호선","color":"#004A85","transfer":false},"geometry":{"type":"Point","coordinates":[127.14433,36.87019]}},{"type":"Feature","properties":{"name":"두정역","line":"1호선","color":"#004A85","transfer":false},"geometry":{"type":"Point","coordinates":[127.14921,36.83328]}},{"type":"Feature","properties":{"name":"천안역","line":"1호선","color":"#004A85","transfer":false},"geometry":{"type":"Point","coordinates":[127.1467,36.81066]}},{"type":"Feature","properties":{"name":"봉명역","line":"1호선","color":"#004A85","transfer":false},"geometry":{"type":"Point","coordinates":[127.13527,36.80095]}},{"type":"Feature","properties":{"name":"쌍용역","line":"1호선","color":"#004A85","transfer":false},"geometry":{"type":"Point","coordinates":[127.12058,36.79333]}},{"type":"Feature","properties":{"name":"아산역","line":"1호선","color":"#004A85","transfer":false},"geometry":{"type":"Point","coordinates":[127.10355,36.79178]}},{"type":"Feature","properties":{"name":"탕정역","line":"1호선","color":"#004A85","transfer":false},"geometry":{"type":"Point","coordinates":[127.08353,36.78789]}},{"type":"Feature","properties":{"name":"배방역","line":"1호선","color":"#004A85","transfer":false},"geometry":{"type":"Point","coordinates":[127.05192,36.77715]}},{"type":"Feature","properties":{"name":"온양온천역","line":"1호선","color":"#004A85","transfer":false},"geometry":{"type":"Point","coordinates":[127.00218,36.78068]}},{"type":"Feature","properties":{"name":"신창역","line":"1호선","color":"#004A85","transfer":false},"geometry":{"type":"Point","coordinates":[126.95079,36.76942]}},{"type":"Feature","properties":{"name":"소새울역","line":"서해선","color":"#5EAC41","transfer":false},"geometry":{"type":"Point","coordinates":[126.79725,37.4687]}},{"type":"Feature","properties":{"name":"시흥대야역","line":"서해선","color":"#5EAC41","transfer":false},"geometry":{"type":"Point","coordinates":[126.79305,37.45011]}},{"type":"Feature","properties":{"name":"신천역","line":"서해선","color":"#5EAC41","transfer":false},"geometry":{"type":"Point","coordinates":[126.78687,37.43934]}},{"type":"Feature","properties":{"name":"신현역","line":"서해선","color":"#5EAC41","transfer":false},"geometry":{"type":"Point","coordinates":[126.78788,37.40969]}},{"type":"Feature","properties":{"name":"시흥시청역","line":"서해선","color":"#5EAC41","transfer":false},"geometry":{"type":"Point","coordinates":[126.80581,37.38202]}},{"type":"Feature","properties":{"name":"시흥능곡역","line":"서해선","color":"#5EAC41","transfer":false},"geometry":{"type":"Point","coordinates":[126.80882,37.37024]}},{"type":"Feature","properties":{"name":"달미역","line":"서해선","color":"#5EAC41","transfer":false},"geometry":{"type":"Point","coordinates":[126.80913,37.349]}},{"type":"Feature","properties":{"name":"선부역","line":"서해선","color":"#5EAC41","transfer":false},"geometry":{"type":"Point","coordinates":[126.80996,37.33439]}},{"type":"Feature","properties":{"name":"시우역","line":"서해선","color":"#5EAC41","transfer":false},"geometry":{"type":"Point","coordinates":[126.79575,37.3131]}},{"type":"Feature","properties":{"name":"원시역","line":"서해선","color":"#5EAC41","transfer":false},"geometry":{"type":"Point","coordinates":[126.78683,37.30254]}},{"type":"Feature","properties":{"name":"오목천역","line":"수인분당선","color":"#ECA300","transfer":false},"geometry":{"type":"Point","coordinates":[126.96348,37.2431]}},{"type":"Feature","properties":{"name":"어천역","line":"수인분당선","color":"#ECA300","transfer":false},"geometry":{"type":"Point","coordinates":[126.90818,37.25037]}},{"type":"Feature","properties":{"name":"야목역","line":"수인분당선","color":"#ECA300","transfer":false},"geometry":{"type":"Point","coordinates":[126.88336,37.26163]}},{"type":"Feature","properties":{"name":"사리역","line":"수인분당선","color":"#ECA300","transfer":false},"geometry":{"type":"Point","coordinates":[126.85737,37.29154]}},{"type":"Feature","properties":{"name":"부천시청역","line":"7호선","color":"#6E7E31","transfer":false},"geometry":{"type":"Point","coordinates":[126.76318,37.50478]}},{"type":"Feature","properties":{"name":"관악산역","line":"신림선","color":"#6789CA","transfer":false},"geometry":{"type":"Point","coordinates":[126.94531,37.46882]}},{"type":"Feature","properties":{"name":"서울대벤처타운역","line":"신림선","color":"#6789CA","transfer":false},"geometry":{"type":"Point","coordinates":[126.93374,37.47205]}},{"type":"Feature","properties":{"name":"서원역","line":"신림선","color":"#6789CA","transfer":false},"geometry":{"type":"Point","coordinates":[126.9331,37.4782]}},{"type":"Feature","properties":{"name":"당곡역","line":"신림선","color":"#6789CA","transfer":false},"geometry":{"type":"Point","coordinates":[126.92782,37.48973]}},{"type":"Feature","properties":{"name":"보라매병원역","line":"신림선","color":"#6789CA","transfer":false},"geometry":{"type":"Point","coordinates":[126.92432,37.49304]}},{"type":"Feature","properties":{"name":"보라매공원역","line":"신림선","color":"#6789CA","transfer":false},"geometry":{"type":"Point","coordinates":[126.91828,37.49531]}},{"type":"Feature","properties":{"name":"서울지방병무청역","line":"신림선","color":"#6789CA","transfer":false},"geometry":{"type":"Point","coordinates":[126.92278,37.50594]}},{"type":"Feature","properties":{"name":"연천역","line":"1호선","color":"#004A85","transfer":false},"geometry":{"type":"Point","coordinates":[127.07386,38.10046]}},{"type":"Feature","properties":{"name":"전곡역","line":"1호선","color":"#004A85","transfer":false},"geometry":{"type":"Point","coordinates":[127.07241,38.02378]}},{"type":"Feature","properties":{"name":"청산역","line":"1호선","color":"#004A85","transfer":false},"geometry":{"type":"Point","coordinates":[127.07368,37.99433]}}]}